{"type":"FeatureCollection","features":[{"type":"Feature","geometry":{"type":"Point","coordinates":[120.67361164044873,36.21373913294607]},"properties":{"peak_name":"1003无名峰","peak_elev":1003,"peak_lon":120.633996,"peak_lat":36.206732,"base_elev":67,"distance_m":3646.3,"vertical_relief_m":936.0,"max_jut":233.1746,"search_radius_m":8500,"elev_angle_deg":14.3969,"is_expanded":true}},{"type":"Feature","geometry":{"type":"Point","coordinates":[120.6606759003574,36.23718516186159]},"properties":{"peak_name":"1020高地1020","peak_elev":1008,"peak_lon":120.627528,"peak_lat":36.212392,"base_elev":26,"distance_m":4055.9,"vertical_relief_m":982.0,"max_jut":231.1214,"search_radius_m":7500,"elev_angle_deg":13.6103,"is_expanded":false}},{"type":"Feature","geometry":{"type":"Point","coordinates":[122.33127283423448,36.84462595698321]},"properties":{"peak_name":"红花顶398","peak_elev":398,"peak_lon":122.328174,"peak_lat":36.848668,"base_elev":43,"distance_m":526.9,"vertical_relief_m":355.0,"max_jut":198.2582,"search_radius_m":875,"elev_angle_deg":33.9702,"is_expanded":false}},{"type":"Feature","geometry":{"type":"Point","coordinates":[119.95972048415894,35.789824150370066]},"properties":{"peak_name":"429无名峰","peak_elev":429,"peak_lon":119.964302,"peak_lat":35.790094,"base_elev":177,"distance_m":415.3,"vertical_relief_m":252.0,"max_jut":130.9507,"search_radius_m":2250,"elev_angle_deg":31.249,"is_expanded":false}},{"type":"Feature","geometry":{"type":"Point","coordinates":[120.04703672977536,37.00793967563614]},"properties":{"peak_name":"大崮顶594","peak_elev":594,"peak_lon":120.04003143310548,"peak_lat":37.006862,"base_elev":276,"distance_m":634.9,"vertical_relief_m":318.0,"max_jut":142.6658,"search_radius_m":875,"elev_angle_deg":26.6047,"is_expanded":false}},{"type":"Feature","geometry":{"type":"Point","coordinates":[120.02817210880885,37.00066332183477]},"properties":{"peak_name":"603无名峰","peak_elev":603,"peak_lon":120.027903,"peak_lat":36.997161865234375,"base_elev":369,"distance_m":389.3,"vertical_relief_m":234.0,"max_jut":120.3745,"search_radius_m":500,"elev_angle_deg":31.0092,"is_expanded":false}},{"type":"Feature","geometry":{"type":"Point","coordinates":[121.69688258058927,37.28929202262237]},"properties":{"peak_name":"苍山670","peak_elev":670,"peak_lon":121.704698,"peak_lat":37.282285,"base_elev":171,"distance_m":1041.7,"vertical_relief_m":499.0,"max_jut":215.5726,"search_radius_m":2250,"elev_angle_deg":25.5956,"is_expanded":false}},{"type":"Feature","geometry":{"type":"Point","coordinates":[121.74485261676124,37.25883913449072]},"properties":{"peak_name":"845无名峰","peak_elev":845,"peak_lon":121.75670623779295,"peak_lat":37.249137,"base_elev":305,"distance_m":1505.1,"vertical_relief_m":540.0,"max_jut":182.3827,"search_radius_m":5500,"elev_angle_deg":19.737,"is_expanded":false}},{"type":"Feature","geometry":{"type":"Point","coordinates":[120.65447752489698,36.18517270691107]},"properties":{"peak_name":"864无名峰","peak_elev":864,"peak_lon":120.64234924316406,"peak_lat":36.184095,"base_elev":329,"distance_m":1097.5,"vertical_relief_m":535.0,"max_jut":234.8477,"search_radius_m":9000,"elev_angle_deg":25.9879,"is_expanded":true}},{"type":"Feature","geometry":{"type":"Point","coordinates":[120.60785496165116,36.202689854951394]},"properties":{"peak_name":"927无名峰","peak_elev":927,"peak_lon":120.624025,"peak_lat":36.202151,"base_elev":409,"distance_m":1455.4,"vertical_relief_m":518.0,"max_jut":174.0379,"search_radius_m":10000,"elev_angle_deg":19.5915,"is_expanded":true}},{"type":"Feature","geometry":{"type":"Point","coordinates":[120.58090550312758,36.30105537856249]},"properties":{"peak_name":"三标山667","peak_elev":667,"peak_lon":120.572551,"peak_lat":36.29862976074219,"base_elev":266,"distance_m":797.2,"vertical_relief_m":401.0,"max_jut":180.4471,"search_radius_m":2750,"elev_angle_deg":26.7029,"is_expanded":false}},{"type":"Feature","geometry":{"type":"Point","coordinates":[120.18582644117184,36.92170140836066]},"properties":{"peak_name":"两目山469","peak_elev":469,"peak_lon":120.186365,"peak_lat":36.91900634765625,"base_elev":233,"distance_m":302.9,"vertical_relief_m":236.0,"max_jut":144.8754,"search_radius_m":625,"elev_angle_deg":37.9234,"is_expanded":false}},{"type":"Feature","geometry":{"type":"Point","coordinates":[121.71925063116385,37.33187216708964]},"properties":{"peak_name":"乌龟石363","peak_elev":363,"peak_lon":121.723024,"peak_lat":37.331603,"base_elev":151,"distance_m":335.7,"vertical_relief_m":212.0,"max_jut":113.3761,"search_radius_m":1375,"elev_angle_deg":32.2731,"is_expanded":false}},{"type":"Feature","geometry":{"type":"Point","coordinates":[122.31752861038744,36.84462595698321]},"properties":{"peak_name":"云光洞山424","peak_elev":424,"peak_lon":122.316181,"peak_lat":36.849746,"base_elev":66,"distance_m":580.8,"vertical_relief_m":358.0,"max_jut":187.6121,"search_radius_m":1000,"elev_angle_deg":31.6493,"is_expanded":false}},{"type":"Feature","geometry":{"type":"Point","coordinates":[121.773149548211,37.23027270845572]},"properties":{"peak_name":"五指峰700","peak_elev":700,"peak_lon":121.772072,"peak_lat":37.235663,"base_elev":380,"distance_m":605.8,"vertical_relief_m":320.0,"max_jut":149.247,"search_radius_m":625,"elev_angle_deg":27.8442,"is_expanded":false}},{"type":"Feature","geometry":{"type":"Point","coordinates":[120.6816964780058,36.17439292350164]},"properties":{"peak_name":"北天门峰944","peak_elev":944,"peak_lon":120.638577,"peak_lat":36.168195,"base_elev":4,"distance_m":3939.9,"vertical_relief_m":940.0,"max_jut":218.5849,"search_radius_m":7500,"elev_angle_deg":13.419,"is_expanded":true}},{"type":"Feature","geometry":{"type":"Point","coordinates":[121.73434232793706,37.234854116404726]},"properties":{"peak_name":"半石崮778","peak_elev":778,"peak_lon":121.74108123779295,"peak_lat":37.237819,"base_elev":342,"distance_m":682.5,"vertical_relief_m":436.0,"max_jut":234.9414,"search_radius_m":875,"elev_angle_deg":32.5716,"is_expanded":false}},{"type":"Feature","geometry":{"type":"Point","coordinates":[120.40492553896856,37.5097385933453]},"properties":{"peak_name":"南围子453","peak_elev":453,"peak_lon":120.408159,"peak_lat":37.5101432800293,"base_elev":215,"distance_m":289.4,"vertical_relief_m":238.0,"max_jut":151.381,"search_radius_m":625,"elev_angle_deg":39.4336,"is_expanded":false}},{"type":"Feature","geometry":{"type":"Point","coordinates":[120.04029936514446,36.98907505466963]},"properties":{"peak_name":"双双山645","peak_elev":645,"peak_lon":120.033293,"peak_lat":36.987728,"base_elev":319,"distance_m":641.4,"vertical_relief_m":326.0,"max_jut":147.9537,"search_radius_m":1000,"elev_angle_deg":26.9426,"is_expanded":false}},{"type":"Feature","geometry":{"type":"Point","coordinates":[121.7429661546646,37.25587469405313]},"properties":{"peak_name":"双石崮803","peak_elev":792,"peak_lon":121.746604,"peak_lat":37.24711608886719,"base_elev":341,"distance_m":1024.2,"vertical_relief_m":451.0,"max_jut":181.5218,"search_radius_m":4500,"elev_angle_deg":23.766,"is_expanded":false}},{"type":"Feature","geometry":{"type":"Point","coordinates":[120.87169016059708,37.23943552435374]},"properties":{"peak_name":"唐山硼474","peak_elev":474,"peak_lon":120.86980438232422,"peak_lat":37.241591,"base_elev":277,"distance_m":291.9,"vertical_relief_m":197.0,"max_jut":110.1566,"search_radius_m":750,"elev_angle_deg":34.015,"is_expanded":false}},{"type":"Feature","geometry":{"type":"Point","coordinates":[121.34707860895313,37.12166639060567]},"properties":{"peak_name":"垛山612","peak_elev":607,"peak_lon":121.336568,"peak_lat":37.126248,"base_elev":178,"distance_m":1063.5,"vertical_relief_m":429.0,"max_jut":160.6811,"search_radius_m":1500,"elev_angle_deg":21.9684,"is_expanded":false}},{"type":"Feature","geometry":{"type":"Point","coordinates":[121.20748041380097,37.33753155337959]},"properties":{"peak_name":"塔顶632","peak_elev":632,"peak_lon":121.219338,"peak_lat":37.337801,"base_elev":211,"distance_m":1051.2,"vertical_relief_m":421.0,"max_jut":156.839,"search_radius_m":2000,"elev_angle_deg":21.8258,"is_expanded":false}},{"type":"Feature","geometry":{"type":"Point","coordinates":[120.6127058641854,36.25578028824286]},"properties":{"peak_name":"大台崮748","peak_elev":748,"peak_lon":120.604621,"peak_lat":36.24904251098633,"base_elev":225,"distance_m":1042.6,"vertical_relief_m":523.0,"max_jut":234.5092,"search_radius_m":1500,"elev_angle_deg":26.6397,"is_expanded":false}},{"type":"Feature","geometry":{"type":"Point","coordinates":[120.01550586330276,36.94299148059429]},"properties":{"peak_name":"大姑顶729","peak_elev":721,"peak_lon":120.014967,"peak_lat":36.946764,"base_elev":423,"distance_m":421.4,"vertical_relief_m":298.0,"max_jut":171.84,"search_radius_m":1375,"elev_angle_deg":35.2667,"is_expanded":false}},{"type":"Feature","geometry":{"type":"Point","coordinates":[121.6858333025946,37.25695267239407]},"properties":{"peak_name":"大尖崮612","peak_elev":612,"peak_lon":121.689337,"peak_lat":37.255336,"base_elev":311,"distance_m":358.9,"vertical_relief_m":301.0,"max_jut":193.569,"search_radius_m":625,"elev_angle_deg":39.9857,"is_expanded":false}},{"type":"Feature","geometry":{"type":"Point","coordinates":[121.75671037851164,37.23727956767185]},"properties":{"peak_name":"大崮子867","peak_elev":867,"peak_lon":121.759001,"peak_lat":37.241322,"base_elev":467,"distance_m":492.5,"vertical_relief_m":400.0,"max_jut":251.9876,"search_radius_m":500,"elev_angle_deg":39.0829,"is_expanded":false}},{"type":"Feature","geometry":{"type":"Point","coordinates":[120.5854869110766,36.2846162088631]},"properties":{"peak_name":"大标山660","peak_elev":660,"peak_lon":120.577672,"peak_lat":36.28812026977539,"base_elev":179,"distance_m":802.5,"vertical_relief_m":481.0,"max_jut":247.5061,"search_radius_m":1250,"elev_angle_deg":30.9375,"is_expanded":false}},{"type":"Feature","geometry":{"type":"Point","coordinates":[120.01442788496182,37.00120231100524]},"properties":{"peak_name":"大泽山北峰顶736.7","peak_elev":723,"peak_lon":120.01873779296876,"peak_lat":36.999316,"base_elev":377,"distance_m":437.0,"vertical_relief_m":346.0,"max_jut":214.9465,"search_radius_m":1750,"elev_angle_deg":38.3708,"is_expanded":false}},{"type":"Feature","geometry":{"type":"Point","coordinates":[120.0082295095014,36.99230898969245]},"properties":{"peak_name":"大泽山西峰顶646","peak_elev":646,"peak_lon":120.014024,"peak_lat":36.995139,"base_elev":239,"distance_m":603.9,"vertical_relief_m":407.0,"max_jut":227.6447,"search_radius_m":1375,"elev_angle_deg":33.9781,"is_expanded":false}},{"type":"Feature","geometry":{"type":"Point","coordinates":[119.98020207263686,35.79251909622242]},"properties":{"peak_name":"大珠山大砦顶486","peak_elev":499,"peak_lon":119.976968,"peak_lat":35.787938,"base_elev":160,"distance_m":586.4,"vertical_relief_m":339.0,"max_jut":169.5339,"search_radius_m":1125,"elev_angle_deg":30.0324,"is_expanded":false}},{"type":"Feature","geometry":{"type":"Point","coordinates":[120.6816964780058,36.17439292350164]},"properties":{"peak_name":"天茶顶981","peak_elev":972,"peak_lon":120.64801025390624,"peak_lat":36.167925,"base_elev":4,"distance_m":3114.5,"vertical_relief_m":968.0,"max_jut":287.8285,"search_radius_m":6000,"elev_angle_deg":17.2655,"is_expanded":false}},{"type":"Feature","geometry":{"type":"Point","coordinates":[120.59276326487796,36.159840215898896]},"properties":{"peak_name":"崂顶1132.7","peak_elev":1115,"peak_lon":120.626181,"peak_lat":36.175471,"base_elev":134,"distance_m":3471.1,"vertical_relief_m":981.0,"max_jut":267.1136,"search_radius_m":8250,"elev_angle_deg":15.7813,"is_expanded":true}},{"type":"Feature","geometry":{"type":"Point","coordinates":[121.73326434959613,37.24374743771751]},"properties":{"peak_name":"扁崮676","peak_elev":676,"peak_lon":121.736768,"peak_lat":37.246981,"base_elev":342,"distance_m":474.8,"vertical_relief_m":334.0,"max_jut":192.1626,"search_radius_m":500,"elev_angle_deg":35.1246,"is_expanded":true}},{"type":"Feature","geometry":{"type":"Point","coordinates":[120.7493396189,37.47928570521365]},"properties":{"peak_name":"插旗顶552","peak_elev":552,"peak_lon":120.744489,"peak_lat":37.479286193847656,"base_elev":291,"distance_m":429.0,"vertical_relief_m":261.0,"max_jut":135.882,"search_radius_m":1500,"elev_angle_deg":31.316,"is_expanded":false}},{"type":"Feature","geometry":{"type":"Point","coordinates":[121.76964611860296,37.226499784262415]},"properties":{"peak_name":"昆嵛山泰礴顶923","peak_elev":919,"peak_lon":121.771263,"peak_lat":37.247520446777344,"base_elev":239,"distance_m":2337.3,"vertical_relief_m":680.0,"max_jut":189.6248,"search_radius_m":5500,"elev_angle_deg":16.2215,"is_expanded":false}},{"type":"Feature","geometry":{"type":"Point","coordinates":[120.15672102596636,35.75937126223841]},"properties":{"peak_name":"望海楼513","peak_elev":471,"peak_lon":120.163997,"peak_lat":35.758024,"base_elev":29,"distance_m":674.8,"vertical_relief_m":442.0,"max_jut":242.5339,"search_radius_m":1875,"elev_angle_deg":33.2252,"is_expanded":false}},{"type":"Feature","geometry":{"type":"Point","coordinates":[121.12420658696308,37.01332956734085]},"properties":{"peak_name":"林寺山529","peak_elev":529,"peak_lon":121.122859,"peak_lat":37.017641,"base_elev":213,"distance_m":493.3,"vertical_relief_m":316.0,"max_jut":170.2521,"search_radius_m":875,"elev_angle_deg":32.643,"is_expanded":false}},{"type":"Feature","geometry":{"type":"Point","coordinates":[121.73568980086324,37.28363263633242]},"properties":{"peak_name":"梳妆楼493","peak_elev":493,"peak_lon":121.742427,"peak_lat":37.280399,"base_elev":159,"distance_m":697.0,"vertical_relief_m":334.0,"max_jut":144.4823,"search_radius_m":750,"elev_angle_deg":25.6036,"is_expanded":false}},{"type":"Feature","geometry":{"type":"Point","coordinates":[122.2795298738692,36.85917866458594]},"properties":{"peak_name":"槎山清凉顶539.8","peak_elev":524,"peak_lon":122.285728,"peak_lat":36.855136,"base_elev":87,"distance_m":711.9,"vertical_relief_m":437.0,"max_jut":228.7167,"search_radius_m":1875,"elev_angle_deg":31.5437,"is_expanded":false}},{"type":"Feature","geometry":{"type":"Point","coordinates":[120.16750080937578,35.743740576294734]},"properties":{"peak_name":"望海楼513","peak_elev":503,"peak_lon":120.163997,"peak_lat":35.750208,"base_elev":0,"distance_m":784.5,"vertical_relief_m":503.0,"max_jut":271.2298,"search_radius_m":1250,"elev_angle_deg":32.6669,"is_expanded":false}},{"type":"Feature","geometry":{"type":"Point","coordinates":[121.06006687567694,37.20925213080732]},"properties":{"peak_name":"牙山806","peak_elev":797,"peak_lon":121.060336,"peak_lat":37.214373,"base_elev":433,"distance_m":568.8,"vertical_relief_m":364.0,"max_jut":195.9312,"search_radius_m":2250,"elev_angle_deg":32.617,"is_expanded":false}},{"type":"Feature","geometry":{"type":"Point","coordinates":[121.2454791503192,37.34184346674336]},"properties":{"peak_name":"狮子山563","peak_elev":563,"peak_lon":121.246018,"peak_lat":37.336184,"base_elev":242,"distance_m":629.9,"vertical_relief_m":321.0,"max_jut":145.528,"search_radius_m":1500,"elev_angle_deg":27.0036,"is_expanded":false}},{"type":"Feature","geometry":{"type":"Point","coordinates":[121.36729070284582,36.845973429909385]},"properties":{"peak_name":"玉皇山579","peak_elev":579,"peak_lon":121.368638,"peak_lat":36.83977508544922,"base_elev":201,"distance_m":698.3,"vertical_relief_m":378.0,"max_jut":179.6907,"search_radius_m":2000,"elev_angle_deg":28.4273,"is_expanded":false}},{"type":"Feature","geometry":{"type":"Point","coordinates":[120.0812625421003,35.95340736360823]},"properties":{"peak_name":"珠山大顶724.9","peak_elev":707,"peak_lon":120.090156,"peak_lat":35.960684,"base_elev":201,"distance_m":1138.2,"vertical_relief_m":506.0,"max_jut":205.5585,"search_radius_m":2750,"elev_angle_deg":23.9681,"is_expanded":false}},{"type":"Feature","geometry":{"type":"Point","coordinates":[120.49897914921588,37.49302992906068]},"properties":{"peak_name":"石城山753","peak_elev":742,"peak_lon":120.491972,"peak_lat":37.499498,"base_elev":334,"distance_m":948.3,"vertical_relief_m":408.0,"max_jut":161.2398,"search_radius_m":2750,"elev_angle_deg":23.2795,"is_expanded":false}},{"type":"Feature","geometry":{"type":"Point","coordinates":[120.47068221776613,36.22532740011121]},"properties":{"peak_name":"石门山586","peak_elev":586,"peak_lon":120.483348,"peak_lat":36.22370910644531,"base_elev":171,"distance_m":1152.8,"vertical_relief_m":415.0,"max_jut":140.8347,"search_radius_m":3000,"elev_angle_deg":19.7985,"is_expanded":false}},{"type":"Feature","geometry":{"type":"Point","coordinates":[121.44059323002998,36.80527974753877]},"properties":{"peak_name":"竹岛崮387","peak_elev":387,"peak_lon":121.435338,"peak_lat":36.802854,"base_elev":91,"distance_m":540.7,"vertical_relief_m":296.0,"max_jut":142.2639,"search_radius_m":1000,"elev_angle_deg":28.698,"is_expanded":false}},{"type":"Feature","geometry":{"type":"Point","coordinates":[120.15294810177303,36.916311516655945]},"properties":{"peak_name":"红山570","peak_elev":570,"peak_lon":120.153218,"peak_lat":36.920084,"base_elev":297,"distance_m":419.3,"vertical_relief_m":273.0,"max_jut":148.7403,"search_radius_m":1500,"elev_angle_deg":33.0676,"is_expanded":false}},{"type":"Feature","geometry":{"type":"Point","coordinates":[120.49870965463064,37.4563786654686]},"properties":{"peak_name":"罗山749","peak_elev":749,"peak_lon":120.489008,"peak_lat":37.464194,"base_elev":208,"distance_m":1220.3,"vertical_relief_m":541.0,"max_jut":219.3079,"search_radius_m":1625,"elev_angle_deg":23.9093,"is_expanded":false}},{"type":"Feature","geometry":{"type":"Point","coordinates":[119.96457138669318,35.777427399449216]},"properties":{"peak_name":"羊角山442","peak_elev":442,"peak_lon":119.978585,"peak_lat":35.781471252441406,"base_elev":40,"distance_m":1344.1,"vertical_relief_m":402.0,"max_jut":115.378,"search_radius_m":3250,"elev_angle_deg":16.6511,"is_expanded":false}},{"type":"Feature","geometry":{"type":"Point","coordinates":[120.44022932963448,37.49491639115733]},"properties":{"peak_name":"美秀顶457","peak_elev":457,"peak_lon":120.44535064697266,"peak_lat":37.493569,"base_elev":210,"distance_m":476.9,"vertical_relief_m":247.0,"max_jut":113.7622,"search_radius_m":500,"elev_angle_deg":27.3809,"is_expanded":false}},{"type":"Feature","geometry":{"type":"Point","coordinates":[120.7703601965484,37.424847798996005]},"properties":{"peak_name":"艾山810","peak_elev":811,"peak_lon":120.770899,"peak_lat":37.420805,"base_elev":475,"distance_m":451.2,"vertical_relief_m":336.0,"max_jut":200.4385,"search_radius_m":750,"elev_angle_deg":36.6743,"is_expanded":false}},{"type":"Feature","geometry":{"type":"Point","coordinates":[120.57416813849667,37.54180844898837]},"properties":{"peak_name":"莱山619","peak_elev":611,"peak_lon":120.564466,"peak_lat":37.548007,"base_elev":162,"distance_m":1099.3,"vertical_relief_m":449.0,"max_jut":169.8828,"search_radius_m":1750,"elev_angle_deg":22.2172,"is_expanded":false}},{"type":"Feature","geometry":{"type":"Point","coordinates":[120.0090379932571,36.93679310513387]},"properties":{"peak_name":"葫芦岩655","peak_elev":655,"peak_lon":120.004187,"peak_lat":36.937602,"base_elev":367,"distance_m":441.4,"vertical_relief_m":288.0,"max_jut":157.6194,"search_radius_m":500,"elev_angle_deg":33.1232,"is_expanded":false}},{"type":"Feature","geometry":{"type":"Point","coordinates":[120.65178257904462,37.39277794335294]},"properties":{"peak_name":"蚕山488","peak_elev":488,"peak_lon":120.654478,"peak_lat":37.389814,"base_elev":255,"distance_m":406.4,"vertical_relief_m":233.0,"max_jut":115.8457,"search_radius_m":750,"elev_angle_deg":29.8268,"is_expanded":false}},{"type":"Feature","geometry":{"type":"Point","coordinates":[122.34232211222914,36.852441299955046]},"properties":{"peak_name":"螳螂顶374","peak_elev":374,"peak_lon":122.344209,"peak_lat":36.848399,"base_elev":49,"distance_m":479.1,"vertical_relief_m":325.0,"max_jut":182.2612,"search_radius_m":1125,"elev_angle_deg":34.1512,"is_expanded":false}},{"type":"Feature","geometry":{"type":"Point","coordinates":[120.00337860696716,36.90256729280892]},"properties":{"peak_name":"裕风顶554","peak_elev":554,"peak_lon":119.998797,"peak_lat":36.90391540527344,"base_elev":246,"distance_m":434.9,"vertical_relief_m":308.0,"max_jut":178.2311,"search_radius_m":625,"elev_angle_deg":35.3065,"is_expanded":false}},{"type":"Feature","geometry":{"type":"Point","coordinates":[119.84195135041088,35.87740989057172]},"properties":{"peak_name":"铁镢山595","peak_elev":586,"peak_lon":119.83709716796876,"peak_lat":35.883069,"base_elev":226,"distance_m":765.8,"vertical_relief_m":360.0,"max_jut":153.073,"search_radius_m":1625,"elev_angle_deg":25.1781,"is_expanded":false}},{"type":"Feature","geometry":{"type":"Point","coordinates":[120.59357174863368,36.26090068536234]},"properties":{"peak_name":"锥子崮678","peak_elev":678,"peak_lon":120.597345,"peak_lat":36.252816,"base_elev":265,"distance_m":959.1,"vertical_relief_m":413.0,"max_jut":163.1359,"search_radius_m":2500,"elev_angle_deg":23.2973,"is_expanded":false}},{"type":"Feature","geometry":{"type":"Point","coordinates":[120.4652923260614,37.4517972575196]},"properties":{"peak_name":"马山644","peak_elev":644,"peak_lon":120.459633,"peak_lat":37.459074,"base_elev":207,"distance_m":950.3,"vertical_relief_m":437.0,"max_jut":182.4809,"search_radius_m":1375,"elev_angle_deg":24.6956,"is_expanded":false}},{"type":"Feature","geometry":{"type":"Point","coordinates":[120.07317770454324,37.06830646272897]},"properties":{"peak_name":"马山654","peak_elev":654,"peak_lon":120.07209777832033,"peak_lat":37.073966,"base_elev":327,"distance_m":635.4,"vertical_relief_m":327.0,"max_jut":149.4171,"search_radius_m":1750,"elev_angle_deg":27.232,"is_expanded":false}},{"type":"Feature","geometry":{"type":"Point","coordinates":[120.58306145980949,36.26682956623753]},"properties":{"peak_name":"马鞍山南顶666","peak_elev":666,"peak_lon":120.568509,"peak_lat":36.2681770324707,"base_elev":177,"distance_m":1316.2,"vertical_relief_m":489.0,"max_jut":170.6402,"search_radius_m":1875,"elev_angle_deg":20.3812,"is_expanded":false}},{"type":"Feature","geometry":{"type":"Point","coordinates":[120.65420803031174,36.24257505356631]},"properties":{"peak_name":"鹰定崮397","peak_elev":397,"peak_lon":120.650435,"peak_lat":36.239341,"base_elev":76,"distance_m":493.8,"vertical_relief_m":321.0,"max_jut":174.9567,"search_radius_m":750,"elev_angle_deg":33.0263,"is_expanded":false}},{"type":"Feature","geometry":{"type":"Point","coordinates":[120.44292427548685,37.478207726872704]},"properties":{"peak_name":"黄猫顶643","peak_elev":643,"peak_lon":120.451279,"peak_lat":37.479286193847656,"base_elev":280,"distance_m":748.6,"vertical_relief_m":363.0,"max_jut":158.6702,"search_radius_m":1000,"elev_angle_deg":25.869,"is_expanded":false}}]}