{"type":"FeatureCollection","features":[{"type":"Feature","geometry":{"type":"Point","coordinates":[113.35683365129522,35.444601586682936]},"properties":{"peak_name":"1005无名峰","peak_elev":1005,"peak_lon":113.362358,"peak_lat":35.441907,"base_elev":448,"distance_m":583.9,"vertical_relief_m":557.0,"max_jut":384.6745,"search_radius_m":750,"elev_angle_deg":43.6493}},{"type":"Feature","geometry":{"type":"Point","coordinates":[113.42609375970083,35.456728843018546]},"properties":{"peak_name":"1015无名峰","peak_elev":1015,"peak_lon":113.428519,"peak_lat":35.449183,"base_elev":321,"distance_m":865.7,"vertical_relief_m":694.0,"max_jut":433.5865,"search_radius_m":1375,"elev_angle_deg":38.7179}},{"type":"Feature","geometry":{"type":"Point","coordinates":[113.9699338327068,36.87157541550679]},"properties":{"peak_name":"1016无名峰","peak_elev":1016,"peak_lon":113.97181701660156,"peak_lat":36.873192,"base_elev":707,"distance_m":245.7,"vertical_relief_m":309.0,"max_jut":241.8567,"search_radius_m":500,"elev_angle_deg":51.5102}},{"type":"Feature","geometry":{"type":"Point","coordinates":[113.63737751452574,36.34740844722305]},"properties":{"peak_name":"1019无名峰","peak_elev":1019,"peak_lon":113.628215,"peak_lat":36.343905,"base_elev":464,"distance_m":909.8,"vertical_relief_m":555.0,"max_jut":289.352,"search_radius_m":1000,"elev_angle_deg":31.3842}},{"type":"Feature","geometry":{"type":"Point","coordinates":[113.50505567317494,36.78210321320849]},"properties":{"peak_name":"禁坡尖1033","peak_elev":1033,"peak_lon":113.500205,"peak_lat":36.780486,"base_elev":638,"distance_m":468.7,"vertical_relief_m":395.0,"max_jut":254.7922,"search_radius_m":875,"elev_angle_deg":40.1227}},{"type":"Feature","geometry":{"type":"Point","coordinates":[113.55599014978452,35.531109348543644]},"properties":{"peak_name":"1049无名峰","peak_elev":1049,"peak_lon":113.552756,"peak_lat":35.536499,"base_elev":437,"distance_m":666.0,"vertical_relief_m":612.0,"max_jut":413.78,"search_radius_m":1875,"elev_angle_deg":42.5805}},{"type":"Feature","geometry":{"type":"Point","coordinates":[113.95403365217788,36.93005574050297]},"properties":{"peak_name":"1055无名峰","peak_elev":1055,"peak_lon":113.957537,"peak_lat":36.926283,"base_elev":684,"distance_m":522.2,"vertical_relief_m":371.0,"max_jut":214.8,"search_radius_m":750,"elev_angle_deg":35.3921}},{"type":"Feature","geometry":{"type":"Point","coordinates":[113.83895946428215,36.83303768981806]},"properties":{"peak_name":"1060无名峰","peak_elev":1060,"peak_lon":113.842193,"peak_lat":36.838697,"base_elev":706,"distance_m":691.1,"vertical_relief_m":354.0,"max_jut":161.2292,"search_radius_m":750,"elev_angle_deg":27.1227}},{"type":"Feature","geometry":{"type":"Point","coordinates":[113.6408809441338,35.94909545024446]},"properties":{"peak_name":"1062无名峰","peak_elev":1062,"peak_lon":113.6438446044922,"peak_lat":35.953407287597656,"base_elev":578,"distance_m":548.1,"vertical_relief_m":484.0,"max_jut":320.1798,"search_radius_m":625,"elev_angle_deg":41.4461}},{"type":"Feature","geometry":{"type":"Point","coordinates":[113.99176289411088,36.883163682671935]},"properties":{"peak_name":"1067无名峰","peak_elev":1067,"peak_lon":113.992032,"peak_lat":36.880469,"base_elev":833,"distance_m":300.0,"vertical_relief_m":234.0,"max_jut":143.7418,"search_radius_m":625,"elev_angle_deg":37.9542}},{"type":"Feature","geometry":{"type":"Point","coordinates":[113.556529138955,36.860526137512124]},"properties":{"peak_name":"1094无名峰","peak_elev":1094,"peak_lon":113.55625915527344,"peak_lat":36.862952,"base_elev":832,"distance_m":270.3,"vertical_relief_m":262.0,"max_jut":182.1735,"search_radius_m":1000,"elev_angle_deg":44.1067}},{"type":"Feature","geometry":{"type":"Point","coordinates":[113.71364448214749,36.04072360922465]},"properties":{"peak_name":"轿顶山1096","peak_elev":1096,"peak_lon":113.712836,"peak_lat":36.032369,"base_elev":595,"distance_m":929.9,"vertical_relief_m":501.0,"max_jut":237.2468,"search_radius_m":1375,"elev_angle_deg":28.3143}},{"type":"Feature","geometry":{"type":"Point","coordinates":[113.99122390494044,36.94972884522519]},"properties":{"peak_name":"1098无名峰(2)","peak_elev":1098,"peak_lon":113.994458,"peak_lat":36.948381,"base_elev":703,"distance_m":324.6,"vertical_relief_m":395.0,"max_jut":305.3545,"search_radius_m":625,"elev_angle_deg":50.5876}},{"type":"Feature","geometry":{"type":"Point","coordinates":[113.6144704747807,35.56749111755048]},"properties":{"peak_name":"大方山1107","peak_elev":1107,"peak_lon":113.612988,"peak_lat":35.574498,"base_elev":488,"distance_m":789.0,"vertical_relief_m":619.0,"max_jut":381.6032,"search_radius_m":2250,"elev_angle_deg":38.1155}},{"type":"Feature","geometry":{"type":"Point","coordinates":[113.90471614307972,37.00039382724953]},"properties":{"peak_name":"1111无名峰","peak_elev":1111,"peak_lon":113.907142,"peak_lat":36.999316,"base_elev":883,"distance_m":246.8,"vertical_relief_m":228.0,"max_jut":154.8095,"search_radius_m":375,"elev_angle_deg":42.7325}},{"type":"Feature","geometry":{"type":"Point","coordinates":[113.65193022212848,35.7825477965687]},"properties":{"peak_name":"黄干垴1116","peak_elev":1116,"peak_lon":113.651661,"peak_lat":35.777158,"base_elev":707,"distance_m":598.5,"vertical_relief_m":409.0,"max_jut":230.4196,"search_radius_m":1625,"elev_angle_deg":34.3477}},{"type":"Feature","geometry":{"type":"Point","coordinates":[113.51421848907296,36.802315307101175]},"properties":{"peak_name":"1121无名峰","peak_elev":1121,"peak_lon":113.510985,"peak_lat":36.80501174926758,"base_elev":662,"distance_m":415.7,"vertical_relief_m":459.0,"max_jut":340.2263,"search_radius_m":750,"elev_angle_deg":47.834}},{"type":"Feature","geometry":{"type":"Point","coordinates":[114.00281217210556,36.88801458520618]},"properties":{"peak_name":"1128无名峰","peak_elev":1128,"peak_lon":113.99877166748048,"peak_lat":36.887476,"base_elev":835,"distance_m":365.1,"vertical_relief_m":293.0,"max_jut":183.6311,"search_radius_m":625,"elev_angle_deg":38.7477}},{"type":"Feature","geometry":{"type":"Point","coordinates":[113.7527211970067,36.22344093801456]},"properties":{"peak_name":"1129无名峰","peak_elev":1129,"peak_lon":113.76417541503906,"peak_lat":36.2255973815918,"base_elev":522,"distance_m":1057.3,"vertical_relief_m":607.0,"max_jut":302.6998,"search_radius_m":2000,"elev_angle_deg":29.8603}},{"type":"Feature","geometry":{"type":"Point","coordinates":[113.73655152189254,36.12318895230682]},"properties":{"peak_name":"1130无名峰","peak_elev":1130,"peak_lon":113.729545,"peak_lat":36.125075,"base_elev":623,"distance_m":664.6,"vertical_relief_m":507.0,"max_jut":307.8831,"search_radius_m":1000,"elev_angle_deg":37.3387}},{"type":"Feature","geometry":{"type":"Point","coordinates":[113.94433184710938,36.951615307321845]},"properties":{"peak_name":"1133无名峰","peak_elev":1133,"peak_lon":113.948913,"peak_lat":36.952424,"base_elev":810,"distance_m":417.8,"vertical_relief_m":323.0,"max_jut":197.8252,"search_radius_m":500,"elev_angle_deg":37.7075}},{"type":"Feature","geometry":{"type":"Point","coordinates":[113.62336379609349,35.74320158712426]},"properties":{"peak_name":"1134无名峰(1)","peak_elev":1134,"peak_lon":113.618243,"peak_lat":35.740237,"base_elev":700,"distance_m":568.1,"vertical_relief_m":434.0,"max_jut":263.5893,"search_radius_m":750,"elev_angle_deg":37.378}},{"type":"Feature","geometry":{"type":"Point","coordinates":[113.94514033086509,36.92601332172443]},"properties":{"peak_name":"1141无名峰","peak_elev":1141,"peak_lon":113.935708,"peak_lat":36.924396,"base_elev":638,"distance_m":859.4,"vertical_relief_m":503.0,"max_jut":254.4931,"search_radius_m":1375,"elev_angle_deg":30.3401}},{"type":"Feature","geometry":{"type":"Point","coordinates":[113.99903924791226,36.89636891734849]},"properties":{"peak_name":"1144无名峰","peak_elev":1144,"peak_lon":113.995671,"peak_lat":36.894482,"base_elev":894,"distance_m":366.0,"vertical_relief_m":250.0,"max_jut":141.0866,"search_radius_m":375,"elev_angle_deg":34.3354}},{"type":"Feature","geometry":{"type":"Point","coordinates":[113.68157462650444,36.46841151599395]},"properties":{"peak_name":"1149无名峰","peak_elev":1149,"peak_lon":113.67887878417967,"peak_lat":36.475149,"base_elev":724,"distance_m":785.7,"vertical_relief_m":425.0,"max_jut":201.9462,"search_radius_m":1750,"elev_angle_deg":28.4098}},{"type":"Feature","geometry":{"type":"Point","coordinates":[113.33204014945352,35.469125593939395]},"properties":{"peak_name":"1152无名峰","peak_elev":1152,"peak_lon":113.330962,"peak_lat":35.461578369140625,"base_elev":488,"distance_m":843.1,"vertical_relief_m":664.0,"max_jut":410.2984,"search_radius_m":1375,"elev_angle_deg":38.2229}},{"type":"Feature","geometry":{"type":"Point","coordinates":[114.00254267752032,36.89825537944514]},"properties":{"peak_name":"1153无名峰","peak_elev":1153,"peak_lon":114.000926,"peak_lat":36.893404,"base_elev":775,"distance_m":557.3,"vertical_relief_m":378.0,"max_jut":211.9282,"search_radius_m":625,"elev_angle_deg":34.1479}},{"type":"Feature","geometry":{"type":"Point","coordinates":[113.94810477130268,36.94784238312854]},"properties":{"peak_name":"1156无名峰","peak_elev":1156,"peak_lon":113.951069,"peak_lat":36.946899,"base_elev":855,"distance_m":284.0,"vertical_relief_m":301.0,"max_jut":219.0995,"search_radius_m":500,"elev_angle_deg":46.6645}},{"type":"Feature","geometry":{"type":"Point","coordinates":[113.44522787525258,35.613574691625814]},"properties":{"peak_name":"1165无名峰(1)","peak_elev":1165,"peak_lon":113.447923,"peak_lat":35.613305,"base_elev":755,"distance_m":246.0,"vertical_relief_m":410.0,"max_jut":351.772,"search_radius_m":375,"elev_angle_deg":59.0362}},{"type":"Feature","geometry":{"type":"Point","coordinates":[113.6769932185554,36.424483898600506]},"properties":{"peak_name":"半山寨1173","peak_elev":1173,"peak_lon":113.674837,"peak_lat":36.420711,"base_elev":881,"distance_m":461.2,"vertical_relief_m":292.0,"max_jut":156.0635,"search_radius_m":1625,"elev_angle_deg":32.3392}},{"type":"Feature","geometry":{"type":"Point","coordinates":[113.55679863354024,36.80743570422066]},"properties":{"peak_name":"1176无名峰","peak_elev":1176,"peak_lon":113.558416,"peak_lat":36.804471,"base_elev":857,"distance_m":359.3,"vertical_relief_m":319.0,"max_jut":211.6478,"search_radius_m":500,"elev_angle_deg":41.5999}},{"type":"Feature","geometry":{"type":"Point","coordinates":[113.89528383259646,36.87561783428533]},"properties":{"peak_name":"1178无名峰","peak_elev":1178,"peak_lon":113.879653,"peak_lat":36.871306,"base_elev":678,"distance_m":1473.5,"vertical_relief_m":500.0,"max_jut":160.9333,"search_radius_m":1500,"elev_angle_deg":18.7435}},{"type":"Feature","geometry":{"type":"Point","coordinates":[113.74059394067108,36.137202670739086]},"properties":{"peak_name":"1179无名峰","peak_elev":1179,"peak_lon":113.732913,"peak_lat":36.136664,"base_elev":628,"distance_m":693.9,"vertical_relief_m":551.0,"max_jut":343.1084,"search_radius_m":1250,"elev_angle_deg":38.4518}},{"type":"Feature","geometry":{"type":"Point","coordinates":[113.77401126924032,36.22856133513404]},"properties":{"peak_name":"四方垴1182","peak_elev":1182,"peak_lon":113.768621,"peak_lat":36.233951,"base_elev":656,"distance_m":769.7,"vertical_relief_m":526.0,"max_jut":296.7007,"search_radius_m":2500,"elev_angle_deg":34.348}},{"type":"Feature","geometry":{"type":"Point","coordinates":[113.74706181071674,36.18705916900772]},"properties":{"peak_name":"马鞍垴1184","peak_elev":1184,"peak_lon":113.744636,"peak_lat":36.193797,"base_elev":613,"distance_m":778.8,"vertical_relief_m":571.0,"max_jut":337.2291,"search_radius_m":2000,"elev_angle_deg":36.2481}},{"type":"Feature","geometry":{"type":"Point","coordinates":[113.48780801971984,36.70421927807533]},"properties":{"peak_name":"1199无名峰","peak_elev":1199,"peak_lon":113.484844,"peak_lat":36.706914,"base_elev":826,"distance_m":399.5,"vertical_relief_m":373.0,"max_jut":254.5532,"search_radius_m":1875,"elev_angle_deg":43.0353}},{"type":"Feature","geometry":{"type":"Point","coordinates":[113.97047282187728,36.90229779822368]},"properties":{"peak_name":"1203无名峰","peak_elev":1203,"peak_lon":113.975324,"peak_lat":36.901489,"base_elev":798,"distance_m":441.6,"vertical_relief_m":405.0,"max_jut":274.066,"search_radius_m":1125,"elev_angle_deg":42.5245}},{"type":"Feature","geometry":{"type":"Point","coordinates":[113.74032444608584,36.1463654866371]},"properties":{"peak_name":"1213无名峰","peak_elev":1213,"peak_lon":113.732509,"peak_lat":36.145692,"base_elev":664,"distance_m":707.3,"vertical_relief_m":549.0,"max_jut":337.0853,"search_radius_m":1625,"elev_angle_deg":37.8183}},{"type":"Feature","geometry":{"type":"Point","coordinates":[113.9338215582852,36.9362541159634]},"properties":{"peak_name":"1215无名峰","peak_elev":1215,"peak_lon":113.928027,"peak_lat":36.933559,"base_elev":799,"distance_m":596.6,"vertical_relief_m":416.0,"max_jut":238.1329,"search_radius_m":875,"elev_angle_deg":34.8875}},{"type":"Feature","geometry":{"type":"Point","coordinates":[113.76323148583089,36.25281584780527]},"properties":{"peak_name":"黄路垴1217","peak_elev":1217,"peak_lon":113.771047,"peak_lat":36.247426,"base_elev":574,"distance_m":922.6,"vertical_relief_m":643.0,"max_jut":367.7692,"search_radius_m":2250,"elev_angle_deg":34.8743}},{"type":"Feature","geometry":{"type":"Point","coordinates":[113.80230820069008,36.83222920606236]},"properties":{"peak_name":"1219无名峰","peak_elev":1219,"peak_lon":113.803117,"peak_lat":36.827109,"base_elev":796,"distance_m":572.8,"vertical_relief_m":423.0,"max_jut":250.9791,"search_radius_m":750,"elev_angle_deg":36.445}},{"type":"Feature","geometry":{"type":"Point","coordinates":[113.7295446626764,36.3350116963022]},"properties":{"peak_name":"1220无名峰","peak_elev":1220,"peak_lon":113.723077,"peak_lat":36.330969,"base_elev":734,"distance_m":733.8,"vertical_relief_m":486.0,"max_jut":268.4842,"search_radius_m":1125,"elev_angle_deg":33.5167}},{"type":"Feature","geometry":{"type":"Point","coordinates":[113.56542246026775,36.83142072230665]},"properties":{"peak_name":"1225无名峰","peak_elev":1225,"peak_lon":113.567309,"peak_lat":36.836272,"base_elev":818,"distance_m":564.1,"vertical_relief_m":407.0,"max_jut":237.8999,"search_radius_m":750,"elev_angle_deg":35.8106}},{"type":"Feature","geometry":{"type":"Point","coordinates":[113.5460188501308,36.806896715050186]},"properties":{"peak_name":"聚梁1227","peak_elev":1227,"peak_lon":113.546558,"peak_lat":36.803393,"base_elev":794,"distance_m":391.8,"vertical_relief_m":433.0,"max_jut":320.7975,"search_radius_m":1125,"elev_angle_deg":47.8596}},{"type":"Feature","geometry":{"type":"Point","coordinates":[113.57108184655772,36.40400231012258]},"properties":{"peak_name":"1229无名峰","peak_elev":1229,"peak_lon":113.576202,"peak_lat":36.4083137512207,"base_elev":839,"distance_m":663.2,"vertical_relief_m":390.0,"max_jut":197.7015,"search_radius_m":750,"elev_angle_deg":30.458}},{"type":"Feature","geometry":{"type":"Point","coordinates":[113.9761322081672,36.86079563209736]},"properties":{"peak_name":"1230无名峰","peak_elev":1230,"peak_lon":113.98556518554688,"peak_lat":36.86888122558594,"base_elev":594,"distance_m":1229.9,"vertical_relief_m":636.0,"max_jut":292.15,"search_radius_m":2250,"elev_angle_deg":27.3442}},{"type":"Feature","geometry":{"type":"Point","coordinates":[113.41369700878,35.458615305115195]},"properties":{"peak_name":"1231无名峰","peak_elev":1231,"peak_lon":113.411811,"peak_lat":35.45187759399414,"base_elev":434,"distance_m":766.9,"vertical_relief_m":797.0,"max_jut":573.7541,"search_radius_m":1375,"elev_angle_deg":46.1026}},{"type":"Feature","geometry":{"type":"Point","coordinates":[113.73116163018784,36.33312523420555]},"properties":{"peak_name":"1233无名峰","peak_elev":1233,"peak_lon":113.728197,"peak_lat":36.328813,"base_elev":763,"distance_m":547.6,"vertical_relief_m":470.0,"max_jut":305.9362,"search_radius_m":875,"elev_angle_deg":40.6392}},{"type":"Feature","geometry":{"type":"Point","coordinates":[113.63953347120764,36.45278083005027]},"properties":{"peak_name":"1234无名峰","peak_elev":1234,"peak_lon":113.635491,"peak_lat":36.447391,"base_elev":867,"distance_m":699.3,"vertical_relief_m":367.0,"max_jut":170.4219,"search_radius_m":750,"elev_angle_deg":27.691}},{"type":"Feature","geometry":{"type":"Point","coordinates":[113.77104682880272,36.349833898490175]},"properties":{"peak_name":"1236无名峰","peak_elev":1236,"peak_lon":113.754742,"peak_lat":36.333125,"base_elev":352,"distance_m":2362.3,"vertical_relief_m":884.0,"max_jut":309.7071,"search_radius_m":2500,"elev_angle_deg":20.5164}},{"type":"Feature","geometry":{"type":"Point","coordinates":[113.74059394067108,36.15040790541564]},"properties":{"peak_name":"东垴1240","peak_elev":1240,"peak_lon":113.732913,"peak_lat":36.151486,"base_elev":669,"distance_m":701.5,"vertical_relief_m":571.0,"max_jut":360.931,"search_radius_m":1875,"elev_angle_deg":39.1446}},{"type":"Feature","geometry":{"type":"Point","coordinates":[113.43687354311028,35.497961514559634]},"properties":{"peak_name":"走头顶1242","peak_elev":1242,"peak_lon":113.42825317382812,"peak_lat":35.507124,"base_elev":296,"distance_m":1282.6,"vertical_relief_m":946.0,"max_jut":561.3244,"search_radius_m":1375,"elev_angle_deg":36.4112}},{"type":"Feature","geometry":{"type":"Point","coordinates":[113.89959574596024,36.91280808704788]},"properties":{"peak_name":"1264无名峰","peak_elev":1264,"peak_lon":113.885852,"peak_lat":36.91065216064453,"base_elev":736,"distance_m":1247.9,"vertical_relief_m":528.0,"max_jut":206.118,"search_radius_m":2500,"elev_angle_deg":22.9337}},{"type":"Feature","geometry":{"type":"Point","coordinates":[113.64707931959424,36.49158805032423]},"properties":{"peak_name":"1265无名峰","peak_elev":1265,"peak_lon":113.643037,"peak_lat":36.496707916259766,"base_elev":771,"distance_m":673.8,"vertical_relief_m":494.0,"max_jut":291.9486,"search_radius_m":2000,"elev_angle_deg":36.2472}},{"type":"Feature","geometry":{"type":"Point","coordinates":[113.96912534895108,36.93787108347481]},"properties":{"peak_name":"1270无名峰","peak_elev":1270,"peak_lon":113.974246,"peak_lat":36.941375,"base_elev":853,"distance_m":599.4,"vertical_relief_m":417.0,"max_jut":238.2278,"search_radius_m":1500,"elev_angle_deg":34.8262}},{"type":"Feature","geometry":{"type":"Point","coordinates":[113.85890206358962,36.99823787056764]},"properties":{"peak_name":"1271无名峰","peak_elev":1271,"peak_lon":113.856207,"peak_lat":37.000124,"base_elev":914,"distance_m":318.4,"vertical_relief_m":357.0,"max_jut":266.4951,"search_radius_m":1125,"elev_angle_deg":48.271}},{"type":"Feature","geometry":{"type":"Point","coordinates":[113.6602845542708,36.32423191289277]},"properties":{"peak_name":"1272无名峰(2)","peak_elev":1272,"peak_lon":113.655703,"peak_lat":36.318034,"base_elev":676,"distance_m":801.4,"vertical_relief_m":596.0,"max_jut":355.4515,"search_radius_m":1250,"elev_angle_deg":36.6381}},{"type":"Feature","geometry":{"type":"Point","coordinates":[113.64465386832713,36.4875456315457]},"properties":{"peak_name":"1277无名峰","peak_elev":1277,"peak_lon":113.639533,"peak_lat":36.491858,"base_elev":757,"distance_m":663.0,"vertical_relief_m":520.0,"max_jut":320.9302,"search_radius_m":1375,"elev_angle_deg":38.1076}},{"type":"Feature","geometry":{"type":"Point","coordinates":[113.62228581775254,35.81758209264936]},"properties":{"peak_name":"1280无名峰","peak_elev":1280,"peak_lon":113.634144,"peak_lat":35.81785202026367,"base_elev":638,"distance_m":1072.1,"vertical_relief_m":642.0,"max_jut":330.3914,"search_radius_m":1375,"elev_angle_deg":30.9142}},{"type":"Feature","geometry":{"type":"Point","coordinates":[113.63306560116196,36.40346332095211]},"properties":{"peak_name":"1281无名峰","peak_elev":1281,"peak_lon":113.638994,"peak_lat":36.411009,"base_elev":832,"distance_m":991.9,"vertical_relief_m":449.0,"max_jut":185.0376,"search_radius_m":1000,"elev_angle_deg":24.3547}},{"type":"Feature","geometry":{"type":"Point","coordinates":[113.43310061891697,35.533804294396]},"properties":{"peak_name":"1282无名峰","peak_elev":1282,"peak_lon":113.426363,"peak_lat":35.527606,"base_elev":620,"distance_m":920.0,"vertical_relief_m":662.0,"max_jut":386.5991,"search_radius_m":1500,"elev_angle_deg":35.7375}},{"type":"Feature","geometry":{"type":"Point","coordinates":[113.2056471889779,35.45376440258095]},"properties":{"peak_name":"1290无名峰","peak_elev":1290,"peak_lon":113.211576,"peak_lat":35.4561882019043,"base_elev":910,"distance_m":601.7,"vertical_relief_m":380.0,"max_jut":203.1169,"search_radius_m":625,"elev_angle_deg":32.2742}},{"type":"Feature","geometry":{"type":"Point","coordinates":[113.33985549242536,35.50496837377577]},"properties":{"peak_name":"1295无名峰","peak_elev":1295,"peak_lon":113.338778,"peak_lat":35.509011,"base_elev":1050,"distance_m":459.1,"vertical_relief_m":245.0,"max_jut":115.1764,"search_radius_m":500,"elev_angle_deg":28.0867}},{"type":"Feature","geometry":{"type":"Point","coordinates":[113.53523906672136,36.821449422652925]},"properties":{"peak_name":"1298无名峰","peak_elev":1298,"peak_lon":113.5328140258789,"peak_lat":36.824144,"base_elev":869,"distance_m":369.1,"vertical_relief_m":429.0,"max_jut":325.135,"search_radius_m":1500,"elev_angle_deg":49.2922}},{"type":"Feature","geometry":{"type":"Point","coordinates":[113.5182609078515,35.4871817311502]},"properties":{"peak_name":"1300无名峰","peak_elev":1300,"peak_lon":113.505864,"peak_lat":35.49607467651367,"base_elev":361,"distance_m":1496.3,"vertical_relief_m":939.0,"max_jut":499.2495,"search_radius_m":3250,"elev_angle_deg":32.1102}},{"type":"Feature","geometry":{"type":"Point","coordinates":[113.45573816407678,35.475323969399824]},"properties":{"peak_name":"1301无名峰(2)","peak_elev":1301,"peak_lon":113.463149,"peak_lat":35.494458,"base_elev":219,"distance_m":2226.9,"vertical_relief_m":1082.0,"max_jut":472.175,"search_radius_m":2750,"elev_angle_deg":25.9141}},{"type":"Feature","geometry":{"type":"Point","coordinates":[113.51583545658436,35.516826135526145]},"properties":{"peak_name":"1302无名峰","peak_elev":1302,"peak_lon":113.507212,"peak_lat":35.511436462402344,"base_elev":533,"distance_m":984.6,"vertical_relief_m":769.0,"max_jut":473.5047,"search_radius_m":1000,"elev_angle_deg":37.9908}},{"type":"Feature","geometry":{"type":"Point","coordinates":[113.7295446626764,36.27221945794225]},"properties":{"peak_name":"垴尖1303","peak_elev":1303,"peak_lon":113.736821,"peak_lat":36.2824592590332,"base_elev":507,"distance_m":1310.9,"vertical_relief_m":796.0,"max_jut":412.8476,"search_radius_m":1875,"elev_angle_deg":31.2668}},{"type":"Feature","geometry":{"type":"Point","coordinates":[113.96346596266112,36.9467644047876]},"properties":{"peak_name":"1305无名峰","peak_elev":1305,"peak_lon":113.9664306640625,"peak_lat":36.95026779174805,"base_elev":921,"distance_m":470.0,"vertical_relief_m":384.0,"max_jut":242.8702,"search_radius_m":500,"elev_angle_deg":39.2496}},{"type":"Feature","geometry":{"type":"Point","coordinates":[113.8812701141642,36.92682180548015]},"properties":{"peak_name":"1307无名峰","peak_elev":1305,"peak_lon":113.882752,"peak_lat":36.923723,"base_elev":780,"distance_m":368.4,"vertical_relief_m":525.0,"max_jut":429.5605,"search_radius_m":625,"elev_angle_deg":54.9421}},{"type":"Feature","geometry":{"type":"Point","coordinates":[113.73736000564824,36.33231675044984]},"properties":{"peak_name":"1308无名峰","peak_elev":1308,"peak_lon":113.740594,"peak_lat":36.324771,"base_elev":767,"distance_m":886.2,"vertical_relief_m":541.0,"max_jut":281.5511,"search_radius_m":5250,"elev_angle_deg":31.4029}},{"type":"Feature","geometry":{"type":"Point","coordinates":[113.56191903065972,36.8265698197724]},"properties":{"peak_name":"1315无名峰","peak_elev":1315,"peak_lon":113.566231,"peak_lat":36.823471,"base_elev":840,"distance_m":516.0,"vertical_relief_m":475.0,"max_jut":321.7754,"search_radius_m":1000,"elev_angle_deg":42.6309}},{"type":"Feature","geometry":{"type":"Point","coordinates":[113.51879989702196,36.82818678728382]},"properties":{"peak_name":"1323无名峰","peak_elev":1323,"peak_lon":113.519474,"peak_lat":36.83195877075195,"base_elev":877,"distance_m":422.9,"vertical_relief_m":446.0,"max_jut":323.3517,"search_radius_m":625,"elev_angle_deg":46.5229}},{"type":"Feature","geometry":{"type":"Point","coordinates":[113.58779051084235,36.87211440467726]},"properties":{"peak_name":"1325无名峰","peak_elev":1325,"peak_lon":113.588868,"peak_lat":36.875887,"base_elev":966,"distance_m":429.5,"vertical_relief_m":359.0,"max_jut":229.9829,"search_radius_m":875,"elev_angle_deg":39.8908}},{"type":"Feature","geometry":{"type":"Point","coordinates":[113.4710993554352,36.6980209026149]},"properties":{"peak_name":"1327无名峰","peak_elev":1327,"peak_lon":113.467731,"peak_lat":36.703546,"base_elev":842,"distance_m":683.0,"vertical_relief_m":485.0,"max_jut":280.5793,"search_radius_m":2000,"elev_angle_deg":35.3787}},{"type":"Feature","geometry":{"type":"Point","coordinates":[113.40669014956386,35.43112685742114]},"properties":{"peak_name":"1332无名峰","peak_elev":1332,"peak_lon":113.388904,"peak_lat":35.449183,"base_elev":341,"distance_m":2573.2,"vertical_relief_m":991.0,"max_jut":356.031,"search_radius_m":4500,"elev_angle_deg":21.0629}},{"type":"Feature","geometry":{"type":"Point","coordinates":[113.60234321844509,35.80761079299563]},"properties":{"peak_name":"1340无名峰","peak_elev":1340,"peak_lon":113.604499,"peak_lat":35.814079,"base_elev":774,"distance_m":743.7,"vertical_relief_m":566.0,"max_jut":342.3895,"search_radius_m":1375,"elev_angle_deg":37.2733}},{"type":"Feature","geometry":{"type":"Point","coordinates":[113.4363345539398,35.48825970949114]},"properties":{"peak_name":"1341无名峰","peak_elev":1341,"peak_lon":113.412619,"peak_lat":35.482061,"base_elev":269,"distance_m":2259.3,"vertical_relief_m":1072.0,"max_jut":460.2133,"search_radius_m":3000,"elev_angle_deg":25.3836}},{"type":"Feature","geometry":{"type":"Point","coordinates":[113.7265802222388,36.27653137130602]},"properties":{"peak_name":"1343无名峰(3)","peak_elev":1343,"peak_lon":113.729006,"peak_lat":36.28784942626953,"base_elev":602,"distance_m":1274.7,"vertical_relief_m":741.0,"max_jut":371.8675,"search_radius_m":1375,"elev_angle_deg":30.17}},{"type":"Feature","geometry":{"type":"Point","coordinates":[113.55329520393217,35.54943498033968]},"properties":{"peak_name":"1344无名峰","peak_elev":1344,"peak_lon":113.553834,"peak_lat":35.561562,"base_elev":389,"distance_m":1346.4,"vertical_relief_m":955.0,"max_jut":551.7045,"search_radius_m":1375,"elev_angle_deg":35.348}},{"type":"Feature","geometry":{"type":"Point","coordinates":[113.3484793191529,35.456998337603785]},"properties":{"peak_name":"1345无名峰","peak_elev":1345,"peak_lon":113.372195,"peak_lat":35.463197,"base_elev":425,"distance_m":2260.0,"vertical_relief_m":920.0,"max_jut":347.4351,"search_radius_m":3000,"elev_angle_deg":22.1502}},{"type":"Feature","geometry":{"type":"Point","coordinates":[113.74328888652344,36.29701295978395]},"properties":{"peak_name":"1349无名峰","peak_elev":1349,"peak_lon":113.751643,"peak_lat":36.30563735961914,"base_elev":628,"distance_m":1216.1,"vertical_relief_m":721.0,"max_jut":367.5918,"search_radius_m":1750,"elev_angle_deg":30.6628}},{"type":"Feature","geometry":{"type":"Point","coordinates":[113.5926414133766,36.86941945882491]},"properties":{"peak_name":"1350无名峰","peak_elev":1348,"peak_lon":113.595741,"peak_lat":36.874944,"base_elev":917,"distance_m":672.5,"vertical_relief_m":431.0,"max_jut":232.3571,"search_radius_m":750,"elev_angle_deg":32.6555}},{"type":"Feature","geometry":{"type":"Point","coordinates":[113.63225711740628,35.64618353643935]},"properties":{"peak_name":"1352无名峰","peak_elev":1352,"peak_lon":113.629293,"peak_lat":35.652382,"base_elev":787,"distance_m":738.3,"vertical_relief_m":565.0,"max_jut":343.0346,"search_radius_m":750,"elev_angle_deg":37.4258}},{"type":"Feature","geometry":{"type":"Point","coordinates":[113.62444177443444,36.85729220248929]},"properties":{"peak_name":"小寨山1354","peak_elev":1354,"peak_lon":113.625789,"peak_lat":36.853789,"base_elev":981,"distance_m":406.9,"vertical_relief_m":373.0,"max_jut":251.8248,"search_radius_m":875,"elev_angle_deg":42.5111}},{"type":"Feature","geometry":{"type":"Point","coordinates":[113.58617354333091,35.59848299485261]},"properties":{"peak_name":"天界山老爷顶1361","peak_elev":1361,"peak_lon":113.588599,"peak_lat":35.607915,"base_elev":484,"distance_m":1069.3,"vertical_relief_m":877.0,"max_jut":555.4804,"search_radius_m":1625,"elev_angle_deg":39.3573}},{"type":"Feature","geometry":{"type":"Point","coordinates":[113.87022083616952,36.86968895341014]},"properties":{"peak_name":"1363无名峰","peak_elev":1363,"peak_lon":113.866717,"peak_lat":36.873731,"base_elev":945,"distance_m":546.6,"vertical_relief_m":418.0,"max_jut":253.8175,"search_radius_m":1000,"elev_angle_deg":37.4061}},{"type":"Feature","geometry":{"type":"Point","coordinates":[113.35306072710192,35.49041566617303]},"properties":{"peak_name":"箭眼山1366","peak_elev":1366,"peak_lon":113.351444,"peak_lat":35.493919,"base_elev":1072,"distance_m":415.5,"vertical_relief_m":294.0,"max_jut":169.642,"search_radius_m":750,"elev_angle_deg":35.2825}},{"type":"Feature","geometry":{"type":"Point","coordinates":[113.60449917512696,35.92618841049941]},"properties":{"peak_name":"1374无名峰(2)","peak_elev":1374,"peak_lon":113.608542,"peak_lat":35.916217,"base_elev":582,"distance_m":1165.0,"vertical_relief_m":792.0,"max_jut":444.7468,"search_radius_m":1625,"elev_angle_deg":34.209}},{"type":"Feature","geometry":{"type":"Point","coordinates":[113.361145564659,35.56183173126053]},"properties":{"peak_name":"走背山1376","peak_elev":1376,"peak_lon":113.354678,"peak_lat":35.569647,"base_elev":923,"distance_m":1046.7,"vertical_relief_m":453.0,"max_jut":179.8009,"search_radius_m":1125,"elev_angle_deg":23.4024}},{"type":"Feature","geometry":{"type":"Point","coordinates":[113.62147733399684,35.60225591904591]},"properties":{"peak_name":"1385无名峰","peak_elev":1385,"peak_lon":113.627137,"peak_lat":35.595788,"base_elev":622,"distance_m":882.1,"vertical_relief_m":763.0,"max_jut":498.9697,"search_radius_m":1625,"elev_angle_deg":40.8592}},{"type":"Feature","geometry":{"type":"Point","coordinates":[113.58886848918328,35.8501909374629]},"properties":{"peak_name":"1387无名峰","peak_elev":1387,"peak_lon":113.59857177734376,"peak_lat":35.849652,"base_elev":797,"distance_m":878.6,"vertical_relief_m":590.0,"max_jut":329.4331,"search_radius_m":1250,"elev_angle_deg":33.8823}},{"type":"Feature","geometry":{"type":"Point","coordinates":[113.63710801994053,36.852441299955046]},"properties":{"peak_name":"大寨山1391","peak_elev":1391,"peak_lon":113.628215,"peak_lat":36.849207,"base_elev":935,"distance_m":870.6,"vertical_relief_m":456.0,"max_jut":211.8454,"search_radius_m":1125,"elev_angle_deg":27.6445}},{"type":"Feature","geometry":{"type":"Point","coordinates":[113.8287186700432,36.877234801796746]},"properties":{"peak_name":"1401无名峰","peak_elev":1401,"peak_lon":113.831414,"peak_lat":36.873192,"base_elev":989,"distance_m":509.0,"vertical_relief_m":412.0,"max_jut":259.0645,"search_radius_m":1375,"elev_angle_deg":38.9878}},{"type":"Feature","geometry":{"type":"Point","coordinates":[113.62363329067873,35.81919906016077]},"properties":{"peak_name":"1403无名峰","peak_elev":1403,"peak_lon":113.629832,"peak_lat":35.827284,"base_elev":681,"distance_m":1057.6,"vertical_relief_m":722.0,"max_jut":406.831,"search_radius_m":1500,"elev_angle_deg":34.3205}},{"type":"Feature","geometry":{"type":"Point","coordinates":[113.90256018639782,36.94945935063996]},"properties":{"peak_name":"1407无名峰","peak_elev":1407,"peak_lon":113.907681,"peak_lat":36.95188522338867,"base_elev":918,"distance_m":529.6,"vertical_relief_m":489.0,"max_jut":331.9389,"search_radius_m":1625,"elev_angle_deg":42.7175}},{"type":"Feature","geometry":{"type":"Point","coordinates":[113.5926414133766,35.71355718274832]},"properties":{"peak_name":"1408无名峰(2)","peak_elev":1408,"peak_lon":113.596145,"peak_lat":35.718139,"base_elev":809,"distance_m":599.1,"vertical_relief_m":599.0,"max_jut":423.3183,"search_radius_m":1125,"elev_angle_deg":44.9952}},{"type":"Feature","geometry":{"type":"Point","coordinates":[113.73412607062542,36.25847523409522]},"properties":{"peak_name":"1414无名峰","peak_elev":1414,"peak_lon":113.722268,"peak_lat":36.245944,"base_elev":479,"distance_m":1752.0,"vertical_relief_m":935.0,"max_jut":440.058,"search_radius_m":2500,"elev_angle_deg":28.0878}},{"type":"Feature","geometry":{"type":"Point","coordinates":[113.41639195463236,36.86295158877925]},"properties":{"peak_name":"1416无名峰","peak_elev":1416,"peak_lon":113.413428,"peak_lat":36.861335,"base_elev":1078,"distance_m":319.4,"vertical_relief_m":338.0,"max_jut":245.7632,"search_radius_m":625,"elev_angle_deg":46.6207}},{"type":"Feature","geometry":{"type":"Point","coordinates":[113.80581163029817,36.94299148059429]},"properties":{"peak_name":"1417无名峰","peak_elev":1417,"peak_lon":113.810932,"peak_lat":36.945417,"base_elev":1027,"distance_m":529.6,"vertical_relief_m":390.0,"max_jut":231.4397,"search_radius_m":750,"elev_angle_deg":36.3681}},{"type":"Feature","geometry":{"type":"Point","coordinates":[113.88342607084608,36.973983357896415]},"properties":{"peak_name":"1420无名峰","peak_elev":1420,"peak_lon":113.89205169677734,"peak_lat":36.975331,"base_elev":915,"distance_m":782.5,"vertical_relief_m":505.0,"max_jut":274.2673,"search_radius_m":1250,"elev_angle_deg":32.8369}},{"type":"Feature","geometry":{"type":"Point","coordinates":[113.622824806923,36.2778788442322]},"properties":{"peak_name":"1422无名峰","peak_elev":1422,"peak_lon":113.622555,"peak_lat":36.280574,"base_elev":1157,"distance_m":300.0,"vertical_relief_m":265.0,"max_jut":175.2219,"search_radius_m":375,"elev_angle_deg":41.4552}},{"type":"Feature","geometry":{"type":"Point","coordinates":[113.52445928331193,35.52006007054897]},"properties":{"peak_name":"1426无名峰","peak_elev":1426,"peak_lon":113.512871,"peak_lat":35.527606,"base_elev":436,"distance_m":1343.8,"vertical_relief_m":990.0,"max_jut":587.4177,"search_radius_m":1375,"elev_angle_deg":36.3797}},{"type":"Feature","geometry":{"type":"Point","coordinates":[113.52014736994816,35.50092595499723]},"properties":{"peak_name":"1428无名峰","peak_elev":1428,"peak_lon":113.500744,"peak_lat":35.503082275390625,"base_elev":406,"distance_m":1776.6,"vertical_relief_m":1022.0,"max_jut":510.4448,"search_radius_m":4000,"elev_angle_deg":29.9099}},{"type":"Feature","geometry":{"type":"Point","coordinates":[113.4392989943774,36.713382093973344]},"properties":{"peak_name":"1431无名峰(2)","peak_elev":1431,"peak_lon":113.440646,"peak_lat":36.723084,"base_elev":884,"distance_m":1083.4,"vertical_relief_m":547.0,"max_jut":246.1615,"search_radius_m":2500,"elev_angle_deg":26.7888}},{"type":"Feature","geometry":{"type":"Point","coordinates":[113.68049664816348,35.99490952973455]},"properties":{"peak_name":"1434无名峰","peak_elev":1434,"peak_lon":113.672951,"peak_lat":35.989789,"base_elev":776,"distance_m":886.4,"vertical_relief_m":658.0,"max_jut":392.3029,"search_radius_m":1250,"elev_angle_deg":36.5876}},{"type":"Feature","geometry":{"type":"Point","coordinates":[113.5236507995562,35.50092595499723]},"properties":{"peak_name":"狼牙寨1439","peak_elev":1439,"peak_lon":113.494815,"peak_lat":35.509281158447266,"base_elev":348,"distance_m":2775.5,"vertical_relief_m":1091.0,"max_jut":399.7494,"search_radius_m":6000,"elev_angle_deg":21.4589}},{"type":"Feature","geometry":{"type":"Point","coordinates":[113.38486108815977,36.79908137207835]},"properties":{"peak_name":"跑马站1453","peak_elev":1453,"peak_lon":113.388095,"peak_lat":36.802585,"base_elev":1037,"distance_m":484.2,"vertical_relief_m":416.0,"max_jut":271.0174,"search_radius_m":625,"elev_angle_deg":40.6675}},{"type":"Feature","geometry":{"type":"Point","coordinates":[113.59749231591084,36.87966025306387]},"properties":{"peak_name":"1456无名峰","peak_elev":1456,"peak_lon":113.601804,"peak_lat":36.882086,"base_elev":1018,"distance_m":469.3,"vertical_relief_m":438.0,"max_jut":299.0045,"search_radius_m":625,"elev_angle_deg":43.0242}},{"type":"Feature","geometry":{"type":"Point","coordinates":[113.8152439407814,36.94272198600906]},"properties":{"peak_name":"1459无名峰(2)","peak_elev":1459,"peak_lon":113.816052,"peak_lat":36.94487762451172,"base_elev":1135,"distance_m":249.8,"vertical_relief_m":324.0,"max_jut":256.4306,"search_radius_m":375,"elev_angle_deg":52.3682}},{"type":"Feature","geometry":{"type":"Point","coordinates":[113.4694823879238,36.76296909765674]},"properties":{"peak_name":"四方山1463","peak_elev":1463,"peak_lon":113.462745,"peak_lat":36.76889801025391,"base_elev":868,"distance_m":891.5,"vertical_relief_m":595.0,"max_jut":330.3021,"search_radius_m":1375,"elev_angle_deg":33.7197}},{"type":"Feature","geometry":{"type":"Point","coordinates":[113.49023347098696,35.91756458377186]},"properties":{"peak_name":"1467无名峰(2)","peak_elev":1467,"peak_lon":113.493467,"peak_lat":35.921068,"base_elev":972,"distance_m":486.1,"vertical_relief_m":495.0,"max_jut":353.0875,"search_radius_m":875,"elev_angle_deg":45.5197}},{"type":"Feature","geometry":{"type":"Point","coordinates":[113.51287101614678,35.51817360845232]},"properties":{"peak_name":"玉路尖1468","peak_elev":1468,"peak_lon":113.501283,"peak_lat":35.533265,"base_elev":587,"distance_m":1976.9,"vertical_relief_m":881.0,"max_jut":358.3349,"search_radius_m":2000,"elev_angle_deg":24.02}},{"type":"Feature","geometry":{"type":"Point","coordinates":[113.55221722559122,35.84075862697964]},"properties":{"peak_name":"1471无名峰","peak_elev":1471,"peak_lon":113.553295,"peak_lat":35.845611572265625,"base_elev":864,"distance_m":547.2,"vertical_relief_m":607.0,"max_jut":450.4418,"search_radius_m":750,"elev_angle_deg":47.9659}},{"type":"Feature","geometry":{"type":"Point","coordinates":[113.35872011339188,36.755153754684905]},"properties":{"peak_name":"晒布崖1472","peak_elev":1472,"peak_lon":113.357642,"peak_lat":36.75703811645508,"base_elev":979,"distance_m":230.2,"vertical_relief_m":493.0,"max_jut":446.5992,"search_radius_m":375,"elev_angle_deg":64.9704}},{"type":"Feature","geometry":{"type":"Point","coordinates":[113.61662643146258,35.75964075682365]},"properties":{"peak_name":"1481无名峰","peak_elev":1481,"peak_lon":113.617974,"peak_lat":35.767187,"base_elev":931,"distance_m":846.1,"vertical_relief_m":550.0,"max_jut":299.3176,"search_radius_m":875,"elev_angle_deg":33.0255}},{"type":"Feature","geometry":{"type":"Point","coordinates":[113.55599014978452,35.52464147849798]},"properties":{"peak_name":"张良垴1487","peak_elev":1487,"peak_lon":113.543593,"peak_lat":35.535691,"base_elev":303,"distance_m":1663.5,"vertical_relief_m":1184.0,"max_jut":686.5097,"search_radius_m":2500,"elev_angle_deg":35.4414}},{"type":"Feature","geometry":{"type":"Point","coordinates":[113.39914430117724,36.81120862841396]},"properties":{"peak_name":"老婆山1488","peak_elev":1488,"peak_lon":113.398875,"peak_lat":36.815521,"base_elev":1056,"distance_m":479.2,"vertical_relief_m":432.0,"max_jut":288.9553,"search_radius_m":875,"elev_angle_deg":42.0347}},{"type":"Feature","geometry":{"type":"Point","coordinates":[113.81254899492905,36.893673971496135]},"properties":{"peak_name":"1491无名峰","peak_elev":1491,"peak_lon":113.830066,"peak_lat":36.89313507080078,"base_elev":791,"distance_m":1562.5,"vertical_relief_m":700.0,"max_jut":286.7395,"search_radius_m":1625,"elev_angle_deg":24.1324}},{"type":"Feature","geometry":{"type":"Point","coordinates":[113.53389159379518,35.5157481571852]},"properties":{"peak_name":"1494无名峰","peak_elev":1497,"peak_lon":113.510311,"peak_lat":35.546605,"base_elev":276,"distance_m":4036.7,"vertical_relief_m":1221.0,"max_jut":353.2156,"search_radius_m":9500,"elev_angle_deg":16.8292}},{"type":"Feature","geometry":{"type":"Point","coordinates":[113.79880477108202,36.88019924223434]},"properties":{"peak_name":"1495无名峰(2)","peak_elev":1495,"peak_lon":113.792067,"peak_lat":36.882086,"base_elev":960,"distance_m":636.1,"vertical_relief_m":535.0,"max_jut":344.7334,"search_radius_m":1625,"elev_angle_deg":40.0659}},{"type":"Feature","geometry":{"type":"Point","coordinates":[113.3926764311316,36.81013065007302]},"properties":{"peak_name":"桃花寨1501","peak_elev":1501,"peak_lon":113.387287,"peak_lat":36.80851364135742,"base_elev":1047,"distance_m":513.3,"vertical_relief_m":454.0,"max_jut":301.0807,"search_radius_m":625,"elev_angle_deg":41.4919}},{"type":"Feature","geometry":{"type":"Point","coordinates":[113.41100206292762,36.85082433244363]},"properties":{"peak_name":"1505无名峰","peak_elev":1505,"peak_lon":113.408846,"peak_lat":36.853519,"base_elev":1087,"distance_m":355.5,"vertical_relief_m":418.0,"max_jut":318.3093,"search_radius_m":1125,"elev_angle_deg":49.6196}},{"type":"Feature","geometry":{"type":"Point","coordinates":[113.64869628710564,35.617347615819114]},"properties":{"peak_name":"1511无名峰","peak_elev":1511,"peak_lon":113.638321,"peak_lat":35.61195755004883,"base_elev":652,"distance_m":1114.1,"vertical_relief_m":859.0,"max_jut":524.8151,"search_radius_m":4750,"elev_angle_deg":37.6332}},{"type":"Feature","geometry":{"type":"Point","coordinates":[113.55086975266504,35.54754851824303]},"properties":{"peak_name":"1512无名峰(1)","peak_elev":1512,"peak_lon":113.537126,"peak_lat":35.540542,"base_elev":437,"distance_m":1468.9,"vertical_relief_m":1075.0,"max_jut":635.2871,"search_radius_m":2750,"elev_angle_deg":36.1982}},{"type":"Feature","geometry":{"type":"Point","coordinates":[113.38998148527922,36.812825595925375]},"properties":{"peak_name":"馍馍山1513","peak_elev":1513,"peak_lon":113.391868,"peak_lat":36.81686782836914,"base_elev":1063,"distance_m":479.1,"vertical_relief_m":450.0,"max_jut":307.834,"search_radius_m":625,"elev_angle_deg":43.206}},{"type":"Feature","geometry":{"type":"Point","coordinates":[113.47271632294664,36.75973516263391]},"properties":{"peak_name":"大寨垴1515","peak_elev":1515,"peak_lon":113.459242,"peak_lat":36.754076,"base_elev":827,"distance_m":1357.2,"vertical_relief_m":688.0,"max_jut":311.4125,"search_radius_m":4250,"elev_angle_deg":26.8816}},{"type":"Feature","geometry":{"type":"Point","coordinates":[113.46813491499762,35.60926277826204]},"properties":{"peak_name":"1519无名峰","peak_elev":1519,"peak_lon":113.472447,"peak_lat":35.609263,"base_elev":1280,"distance_m":390.7,"vertical_relief_m":239.0,"max_jut":124.9215,"search_radius_m":750,"elev_angle_deg":31.4551}},{"type":"Feature","geometry":{"type":"Point","coordinates":[113.42070386799612,36.8505548378584]},"properties":{"peak_name":"1522无名峰","peak_elev":1522,"peak_lon":113.423938,"peak_lat":36.852172,"base_elev":1141,"distance_m":339.7,"vertical_relief_m":381.0,"max_jut":284.5183,"search_radius_m":1000,"elev_angle_deg":48.2798}},{"type":"Feature","geometry":{"type":"Point","coordinates":[113.61366199102498,35.733769276641006]},"properties":{"peak_name":"1524无名峰","peak_elev":1524,"peak_lon":113.6039581298828,"peak_lat":35.736734,"base_elev":768,"distance_m":937.5,"vertical_relief_m":756.0,"max_jut":475.0728,"search_radius_m":1500,"elev_angle_deg":38.8827}},{"type":"Feature","geometry":{"type":"Point","coordinates":[113.40318671995578,36.827378303528114]},"properties":{"peak_name":"园山1525","peak_elev":1525,"peak_lon":113.399683,"peak_lat":36.828726,"base_elev":1051,"distance_m":346.5,"vertical_relief_m":474.0,"max_jut":382.8579,"search_radius_m":875,"elev_angle_deg":53.8327}},{"type":"Feature","geometry":{"type":"Point","coordinates":[113.5460188501308,35.551590937021565]},"properties":{"peak_name":"1527无名峰","peak_elev":1527,"peak_lon":113.530119,"peak_lat":35.541889,"base_elev":446,"distance_m":1799.3,"vertical_relief_m":1081.0,"max_jut":556.9676,"search_radius_m":4500,"elev_angle_deg":30.997}},{"type":"Feature","geometry":{"type":"Point","coordinates":[113.70340368790852,36.25712776116904]},"properties":{"peak_name":"枪杆闯头1528","peak_elev":1528,"peak_lon":113.709872,"peak_lat":36.240958,"base_elev":554,"distance_m":1886.1,"vertical_relief_m":974.0,"max_jut":446.3196,"search_radius_m":3500,"elev_angle_deg":27.3123}},{"type":"Feature","geometry":{"type":"Point","coordinates":[113.6476183087647,35.599021984023075]},"properties":{"peak_name":"1530无名峰","peak_elev":1530,"peak_lon":113.637647,"peak_lat":35.605491638183594,"base_elev":644,"distance_m":1154.0,"vertical_relief_m":886.0,"max_jut":539.7525,"search_radius_m":4750,"elev_angle_deg":37.5158}},{"type":"Feature","geometry":{"type":"Point","coordinates":[113.4716383446057,35.63809869888228]},"properties":{"peak_name":"1531无名峰","peak_elev":1531,"peak_lon":113.48161315917967,"peak_lat":35.632439,"base_elev":880,"distance_m":1100.3,"vertical_relief_m":651.0,"max_jut":331.6892,"search_radius_m":1500,"elev_angle_deg":30.611}},{"type":"Feature","geometry":{"type":"Point","coordinates":[113.6551641571513,35.62354599127954]},"properties":{"peak_name":"九峰山1532","peak_elev":1532,"peak_lon":113.631988,"peak_lat":35.620851,"base_elev":470,"distance_m":2120.8,"vertical_relief_m":1062.0,"max_jut":476.3402,"search_radius_m":5250,"elev_angle_deg":26.5996}},{"type":"Feature","geometry":{"type":"Point","coordinates":[113.53119664794282,35.58446927642034]},"properties":{"peak_name":"1536无名峰(2)","peak_elev":1536,"peak_lon":113.525268,"peak_lat":35.572612,"base_elev":560,"distance_m":1421.1,"vertical_relief_m":976.0,"max_jut":551.9555,"search_radius_m":1750,"elev_angle_deg":34.481}},{"type":"Feature","geometry":{"type":"Point","coordinates":[113.60800260473503,36.93975754557147]},"properties":{"peak_name":"1537无名峰(2)","peak_elev":1537,"peak_lon":113.616087,"peak_lat":36.931807,"base_elev":927,"distance_m":1138.9,"vertical_relief_m":610.0,"max_jut":287.9389,"search_radius_m":2250,"elev_angle_deg":28.1737}},{"type":"Feature","geometry":{"type":"Point","coordinates":[113.63495206325862,36.2883891330564]},"properties":{"peak_name":"1538无名峰","peak_elev":1538,"peak_lon":113.631449,"peak_lat":36.282191,"base_elev":1104,"distance_m":756.4,"vertical_relief_m":434.0,"max_jut":215.7826,"search_radius_m":875,"elev_angle_deg":29.8459}},{"type":"Feature","geometry":{"type":"Point","coordinates":[113.50505567317494,35.90624581119196]},"properties":{"peak_name":"1539无名峰","peak_elev":1539,"peak_lon":113.49454498291016,"peak_lat":35.905707,"base_elev":858,"distance_m":950.7,"vertical_relief_m":681.0,"max_jut":397.1598,"search_radius_m":1125,"elev_angle_deg":35.6146}},{"type":"Feature","geometry":{"type":"Point","coordinates":[113.55733762271068,35.62731891547284]},"properties":{"peak_name":"1540无名峰(2)","peak_elev":1540,"peak_lon":113.543324,"peak_lat":35.628397,"base_elev":501,"distance_m":1275.1,"vertical_relief_m":1039.0,"max_jut":657.2112,"search_radius_m":1750,"elev_angle_deg":39.1745}},{"type":"Feature","geometry":{"type":"Point","coordinates":[113.51718292951055,36.76485555975339]},"properties":{"peak_name":"1541无名峰","peak_elev":1541,"peak_lon":113.54790496826172,"peak_lat":36.755019,"base_elev":632,"distance_m":2952.4,"vertical_relief_m":909.0,"max_jut":267.8856,"search_radius_m":5000,"elev_angle_deg":17.1128}},{"type":"Feature","geometry":{"type":"Point","coordinates":[113.39617986073964,36.88262469350146]},"properties":{"peak_name":"1544无名峰","peak_elev":1544,"peak_lon":113.393215,"peak_lat":36.885859,"base_elev":1163,"distance_m":445.7,"vertical_relief_m":381.0,"max_jut":247.4861,"search_radius_m":625,"elev_angle_deg":40.525}},{"type":"Feature","geometry":{"type":"Point","coordinates":[113.58779051084235,35.79440555831908]},"properties":{"peak_name":"1545无名峰","peak_elev":1545,"peak_lon":113.585096,"peak_lat":35.806533,"base_elev":688,"distance_m":1367.5,"vertical_relief_m":857.0,"max_jut":454.4409,"search_radius_m":1625,"elev_angle_deg":32.075}},{"type":"Feature","geometry":{"type":"Point","coordinates":[113.70340368790852,36.25712776116904]},"properties":{"peak_name":"东坪岭1546","peak_elev":1546,"peak_lon":113.705021,"peak_lat":36.232873,"base_elev":554,"distance_m":2695.3,"vertical_relief_m":992.0,"max_jut":342.0076,"search_radius_m":4500,"elev_angle_deg":20.206}},{"type":"Feature","geometry":{"type":"Point","coordinates":[113.53793401257371,35.558328301652466]},"properties":{"peak_name":"1547无名峰","peak_elev":1547,"peak_lon":113.5328140258789,"peak_lat":35.569917,"base_elev":576,"distance_m":1367.0,"vertical_relief_m":971.0,"max_jut":561.6737,"search_radius_m":1750,"elev_angle_deg":35.3867}},{"type":"Feature","geometry":{"type":"Point","coordinates":[113.47298581753188,36.91738949499689]},"properties":{"peak_name":"1549无名峰(1)","peak_elev":1549,"peak_lon":113.471773,"peak_lat":36.920893,"base_elev":1221,"distance_m":403.5,"vertical_relief_m":328.0,"max_jut":206.6729,"search_radius_m":500,"elev_angle_deg":39.1072}},{"type":"Feature","geometry":{"type":"Point","coordinates":[113.56650043860871,35.77661891569351]},"properties":{"peak_name":"1550无名峰","peak_elev":1550,"peak_lon":113.568117,"peak_lat":35.771499,"base_elev":1013,"distance_m":586.6,"vertical_relief_m":537.0,"max_jut":362.2338,"search_radius_m":1500,"elev_angle_deg":42.4724}},{"type":"Feature","geometry":{"type":"Point","coordinates":[113.48241812801513,35.62731891547284]},"properties":{"peak_name":"1551无名峰","peak_elev":1551,"peak_lon":113.485383,"peak_lat":35.629205,"base_elev":1297,"distance_m":340.5,"vertical_relief_m":254.0,"max_jut":151.9372,"search_radius_m":375,"elev_angle_deg":36.7215}},{"type":"Feature","geometry":{"type":"Point","coordinates":[113.68238311026012,35.99544851890502]},"properties":{"peak_name":"1553无名峰(2)","peak_elev":1553,"peak_lon":113.679284,"peak_lat":36.006498,"base_elev":753,"distance_m":1257.5,"vertical_relief_m":800.0,"max_jut":428.837,"search_radius_m":1375,"elev_angle_deg":32.4638}},{"type":"Feature","geometry":{"type":"Point","coordinates":[113.58159213538192,35.723258987816806]},"properties":{"peak_name":"1554无名峰(2)","peak_elev":1554,"peak_lon":113.587252,"peak_lat":35.728111267089844,"base_elev":938,"distance_m":743.0,"vertical_relief_m":616.0,"max_jut":393.1414,"search_radius_m":1000,"elev_angle_deg":39.6612}},{"type":"Feature","geometry":{"type":"Point","coordinates":[113.5249982724824,36.75919617346344]},"properties":{"peak_name":"1559无名峰","peak_elev":1559,"peak_lon":113.537934,"peak_lat":36.752998,"base_elev":824,"distance_m":1344.4,"vertical_relief_m":735.0,"max_jut":352.8989,"search_radius_m":4000,"elev_angle_deg":28.666}},{"type":"Feature","geometry":{"type":"Point","coordinates":[113.5460188501308,35.551590937021565]},"properties":{"peak_name":"1562无名峰","peak_elev":1562,"peak_lon":113.536856,"peak_lat":35.549704,"base_elev":446,"distance_m":856.8,"vertical_relief_m":1116.0,"max_jut":885.8565,"search_radius_m":1125,"elev_angle_deg":52.485}},{"type":"Feature","geometry":{"type":"Point","coordinates":[113.48080116050372,35.5833912980794]},"properties":{"peak_name":"1564无名峰","peak_elev":1564,"peak_lon":113.482957,"peak_lat":35.581504821777344,"base_elev":1324,"distance_m":286.3,"vertical_relief_m":240.0,"max_jut":154.1565,"search_radius_m":625,"elev_angle_deg":39.9725}},{"type":"Feature","geometry":{"type":"Point","coordinates":[113.7182258900965,36.09354454793088]},"properties":{"peak_name":"海螺山1568","peak_elev":1568,"peak_lon":113.713105,"peak_lat":36.104863,"base_elev":648,"distance_m":1337.9,"vertical_relief_m":920.0,"max_jut":520.725,"search_radius_m":2250,"elev_angle_deg":34.5142}},{"type":"Feature","geometry":{"type":"Point","coordinates":[113.53523906672136,35.5585977962377]},"properties":{"peak_name":"1569无名峰","peak_elev":1569,"peak_lon":113.509907,"peak_lat":35.564796447753906,"base_elev":618,"distance_m":2397.4,"vertical_relief_m":951.0,"max_jut":351.2469,"search_radius_m":8500,"elev_angle_deg":21.6372}},{"type":"Feature","geometry":{"type":"Point","coordinates":[113.5912939404504,35.78389526949488]},"properties":{"peak_name":"1573无名峰","peak_elev":1573,"peak_lon":113.595875,"peak_lat":35.777697,"base_elev":944,"distance_m":802.8,"vertical_relief_m":629.0,"max_jut":387.6883,"search_radius_m":875,"elev_angle_deg":38.079}},{"type":"Feature","geometry":{"type":"Point","coordinates":[113.52715422916428,35.58554725476129]},"properties":{"peak_name":"1577无名峰","peak_elev":1577,"peak_lon":113.509368,"peak_lat":35.595788,"base_elev":587,"distance_m":1972.1,"vertical_relief_m":990.0,"max_jut":444.4434,"search_radius_m":3250,"elev_angle_deg":26.6568}},{"type":"Feature","geometry":{"type":"Point","coordinates":[113.5144879836582,35.65750230901926]},"properties":{"peak_name":"1581无名峰","peak_elev":1581,"peak_lon":113.518261,"peak_lat":35.656424,"base_elev":1346,"distance_m":362.0,"vertical_relief_m":235.0,"max_jut":128.1167,"search_radius_m":375,"elev_angle_deg":32.9905}},{"type":"Feature","geometry":{"type":"Point","coordinates":[113.69909177454475,36.01054021567823]},"properties":{"peak_name":"1582无名峰","peak_elev":1582,"peak_lon":113.690737,"peak_lat":36.022398,"base_elev":652,"distance_m":1516.0,"vertical_relief_m":930.0,"max_jut":485.9321,"search_radius_m":2500,"elev_angle_deg":31.5273}},{"type":"Feature","geometry":{"type":"Point","coordinates":[113.62902318238343,35.6796008650086]},"properties":{"peak_name":"1583无名峰","peak_elev":1583,"peak_lon":113.623364,"peak_lat":35.686877,"base_elev":914,"distance_m":956.1,"vertical_relief_m":669.0,"max_jut":383.3039,"search_radius_m":1000,"elev_angle_deg":34.9812}},{"type":"Feature","geometry":{"type":"Point","coordinates":[113.68373058318632,36.03236927708234]},"properties":{"peak_name":"洪峪岭1585","peak_elev":1585,"peak_lon":113.683192,"peak_lat":36.022937,"base_elev":837,"distance_m":1047.7,"vertical_relief_m":748.0,"max_jut":434.0141,"search_radius_m":2750,"elev_angle_deg":35.5247}},{"type":"Feature","geometry":{"type":"Point","coordinates":[113.60261271303033,35.64214111766081]},"properties":{"peak_name":"1590无名峰","peak_elev":1590,"peak_lon":113.607598,"peak_lat":35.644297,"base_elev":1124,"distance_m":511.0,"vertical_relief_m":466.0,"max_jut":314.2378,"search_radius_m":875,"elev_angle_deg":42.3629}},{"type":"Feature","geometry":{"type":"Point","coordinates":[113.70636812834611,36.19433552280909]},"properties":{"peak_name":"1591无名峰(2)","peak_elev":1591,"peak_lon":113.69989776611328,"peak_lat":36.20403671264648,"base_elev":702,"distance_m":1223.7,"vertical_relief_m":889.0,"max_jut":522.1438,"search_radius_m":1750,"elev_angle_deg":35.9979}},{"type":"Feature","geometry":{"type":"Point","coordinates":[113.80042173859344,36.89960285237132]},"properties":{"peak_name":"1593无名峰","peak_elev":1593,"peak_lon":113.794223,"peak_lat":36.905532,"base_elev":1003,"distance_m":859.2,"vertical_relief_m":590.0,"max_jut":333.9499,"search_radius_m":875,"elev_angle_deg":34.4768}},{"type":"Feature","geometry":{"type":"Point","coordinates":[113.4762197525547,36.92628281630967]},"properties":{"peak_name":"1595无名峰","peak_elev":1595,"peak_lon":113.475411,"peak_lat":36.928708,"base_elev":1269,"distance_m":278.6,"vertical_relief_m":326.0,"max_jut":247.6463,"search_radius_m":750,"elev_angle_deg":49.4828}},{"type":"Feature","geometry":{"type":"Point","coordinates":[113.48457408469702,36.79988985583405]},"properties":{"peak_name":"南洞山1596","peak_elev":1596,"peak_lon":113.484574,"peak_lat":36.806358,"base_elev":970,"distance_m":717.8,"vertical_relief_m":626.0,"max_jut":410.9873,"search_radius_m":2750,"elev_angle_deg":41.092}},{"type":"Feature","geometry":{"type":"Point","coordinates":[113.84785278559497,36.93355917011104]},"properties":{"peak_name":"1597无名峰","peak_elev":1597,"peak_lon":113.83841705322266,"peak_lat":36.92789840698242,"base_elev":1043,"distance_m":1049.5,"vertical_relief_m":554.0,"max_jut":258.7836,"search_radius_m":1250,"elev_angle_deg":27.8282}},{"type":"Feature","geometry":{"type":"Point","coordinates":[113.69397137742529,36.1673860642855]},"properties":{"peak_name":"1599无名峰","peak_elev":1599,"peak_lon":113.690737,"peak_lat":36.153642,"base_elev":663,"distance_m":1552.6,"vertical_relief_m":936.0,"max_jut":482.5651,"search_radius_m":1875,"elev_angle_deg":31.0841}},{"type":"Feature","geometry":{"type":"Point","coordinates":[113.56515296568251,35.586894727687465]},"properties":{"peak_name":"东把头1600","peak_elev":1600,"peak_lon":113.559224,"peak_lat":35.578001,"base_elev":537,"distance_m":1123.6,"vertical_relief_m":1063.0,"max_jut":730.08,"search_radius_m":2750,"elev_angle_deg":43.4125}},{"type":"Feature","geometry":{"type":"Point","coordinates":[113.70178672039712,36.19191007154196]},"properties":{"peak_name":"1601无名峰","peak_elev":1601,"peak_lon":113.68911743164062,"peak_lat":36.18517303466797,"base_elev":697,"distance_m":1362.9,"vertical_relief_m":904.0,"max_jut":500.0121,"search_radius_m":2000,"elev_angle_deg":33.556}},{"type":"Feature","geometry":{"type":"Point","coordinates":[113.71472246048845,36.09623949378324]},"properties":{"peak_name":"1602无名峰","peak_elev":1602,"peak_lon":113.706368,"peak_lat":36.10136032104492,"base_elev":762,"distance_m":942.8,"vertical_relief_m":840.0,"max_jut":559.0131,"search_radius_m":2250,"elev_angle_deg":41.6999}},{"type":"Feature","geometry":{"type":"Point","coordinates":[113.6980137962038,36.06228317604352]},"properties":{"peak_name":"1604无名峰(2)","peak_elev":1604,"peak_lon":113.699227,"peak_lat":36.073198,"base_elev":716,"distance_m":1216.0,"vertical_relief_m":888.0,"max_jut":522.9795,"search_radius_m":4000,"elev_angle_deg":36.1393}},{"type":"Feature","geometry":{"type":"Point","coordinates":[113.5837480920638,35.568299601306194]},"properties":{"peak_name":"关山1605","peak_elev":1605,"peak_lon":113.551139,"peak_lat":35.57234191894531,"base_elev":235,"distance_m":2989.9,"vertical_relief_m":1370.0,"max_jut":571.7244,"search_radius_m":3000,"elev_angle_deg":24.6177}},{"type":"Feature","geometry":{"type":"Point","coordinates":[113.36033708090328,36.72119743694518]},"properties":{"peak_name":"1607无名峰","peak_elev":1607,"peak_lon":113.357103,"peak_lat":36.724701,"base_elev":1137,"distance_m":484.4,"vertical_relief_m":470.0,"max_jut":327.2138,"search_radius_m":2500,"elev_angle_deg":44.1356}},{"type":"Feature","geometry":{"type":"Point","coordinates":[113.5249982724824,35.86878606384417]},"properties":{"peak_name":"1609无名峰","peak_elev":1609,"peak_lon":113.526076,"peak_lat":35.869864,"base_elev":1446,"distance_m":154.2,"vertical_relief_m":163.0,"max_jut":118.3875,"search_radius_m":750,"elev_angle_deg":46.5891}},{"type":"Feature","geometry":{"type":"Point","coordinates":[113.37515928309124,36.72847379074656]},"properties":{"peak_name":"九龙山1612","peak_elev":1612,"peak_lon":113.368691,"peak_lat":36.727935,"base_elev":1118,"distance_m":580.9,"vertical_relief_m":494.0,"max_jut":320.454,"search_radius_m":3000,"elev_angle_deg":40.378}},{"type":"Feature","geometry":{"type":"Point","coordinates":[113.675376251044,35.99733498100167]},"properties":{"peak_name":"1613无名峰","peak_elev":1613,"peak_lon":113.669178,"peak_lat":36.006228,"base_elev":863,"distance_m":1134.0,"vertical_relief_m":750.0,"max_jut":413.4248,"search_radius_m":4500,"elev_angle_deg":33.4797}},{"type":"Feature","geometry":{"type":"Point","coordinates":[113.55787661188116,35.628666388399026]},"properties":{"peak_name":"花山1615","peak_elev":1615,"peak_lon":113.572968,"peak_lat":35.634326,"base_elev":512,"distance_m":1504.3,"vertical_relief_m":1103.0,"max_jut":652.8478,"search_radius_m":1875,"elev_angle_deg":36.25}},{"type":"Feature","geometry":{"type":"Point","coordinates":[113.60153473468938,35.79251909622242]},"properties":{"peak_name":"1616无名峰","peak_elev":1616,"peak_lon":113.610159,"peak_lat":35.774192810058594,"base_elev":654,"distance_m":2177.8,"vertical_relief_m":962.0,"max_jut":388.1921,"search_radius_m":3250,"elev_angle_deg":23.8325}},{"type":"Feature","geometry":{"type":"Point","coordinates":[113.48699953596412,35.547279023657794]},"properties":{"peak_name":"1618无名峰","peak_elev":1618,"peak_lon":113.489694,"peak_lat":35.562371,"base_elev":854,"distance_m":1692.2,"vertical_relief_m":764.0,"max_jut":313.8291,"search_radius_m":10000,"elev_angle_deg":24.2984}},{"type":"Feature","geometry":{"type":"Point","coordinates":[113.70717661210185,36.14367054078475]},"properties":{"peak_name":"1621无名峰(2)","peak_elev":1621,"peak_lon":113.699631,"peak_lat":36.148252,"base_elev":795,"distance_m":848.3,"vertical_relief_m":826.0,"max_jut":576.4585,"search_radius_m":2250,"elev_angle_deg":44.2369}},{"type":"Feature","geometry":{"type":"Point","coordinates":[113.40749863331956,36.9001418415418]},"properties":{"peak_name":"1625无名峰","peak_elev":1625,"peak_lon":113.41207885742188,"peak_lat":36.90391540527344,"base_elev":1115,"distance_m":584.8,"vertical_relief_m":510.0,"max_jut":335.223,"search_radius_m":1125,"elev_angle_deg":41.0915}},{"type":"Feature","geometry":{"type":"Point","coordinates":[113.71068004170988,36.09246656958993]},"properties":{"peak_name":"南岭1627","peak_elev":1627,"peak_lon":113.699092,"peak_lat":36.09435272216797,"base_elev":766,"distance_m":1064.4,"vertical_relief_m":861.0,"max_jut":542.1953,"search_radius_m":1500,"elev_angle_deg":38.9696}},{"type":"Feature","geometry":{"type":"Point","coordinates":[113.69531885035146,36.06363064896969]},"properties":{"peak_name":"1632无名峰","peak_elev":1632,"peak_lon":113.692893,"peak_lat":36.074141,"base_elev":757,"distance_m":1186.5,"vertical_relief_m":875.0,"max_jut":518.6642,"search_radius_m":4250,"elev_angle_deg":36.4074}},{"type":"Feature","geometry":{"type":"Point","coordinates":[113.361145564659,36.721736426115655]},"properties":{"peak_name":"纱帽山1636","peak_elev":1636,"peak_lon":113.361685,"peak_lat":36.72847366333008,"base_elev":1145,"distance_m":749.2,"vertical_relief_m":491.0,"max_jut":268.763,"search_radius_m":3000,"elev_angle_deg":33.2395}},{"type":"Feature","geometry":{"type":"Point","coordinates":[113.70421217166424,36.192449060712434]},"properties":{"peak_name":"1637无名峰","peak_elev":1637,"peak_lon":113.683731,"peak_lat":36.206193,"base_elev":673,"distance_m":2391.4,"vertical_relief_m":964.0,"max_jut":360.5896,"search_radius_m":5250,"elev_angle_deg":21.9549}},{"type":"Feature","geometry":{"type":"Point","coordinates":[113.61662643146258,35.74697451131756]},"properties":{"peak_name":"莲花盆山1638","peak_elev":1638,"peak_lon":113.60423278808594,"peak_lat":35.742932,"base_elev":800,"distance_m":1207.4,"vertical_relief_m":838.0,"max_jut":478.3231,"search_radius_m":1625,"elev_angle_deg":34.7627}},{"type":"Feature","geometry":{"type":"Point","coordinates":[113.83761199135598,36.9543102531742]},"properties":{"peak_name":"1642无名峰(2)","peak_elev":1642,"peak_lon":113.830066,"peak_lat":36.946225,"base_elev":1095,"distance_m":1121.1,"vertical_relief_m":547.0,"max_jut":239.7765,"search_radius_m":2000,"elev_angle_deg":26.0084}},{"type":"Feature","geometry":{"type":"Point","coordinates":[113.48807751430508,36.94245249142382]},"properties":{"peak_name":"大里洼山1643","peak_elev":1643,"peak_lon":113.488347,"peak_lat":36.94811248779297,"base_elev":1177,"distance_m":628.6,"vertical_relief_m":466.0,"max_jut":277.1716,"search_radius_m":750,"elev_angle_deg":36.5506}},{"type":"Feature","geometry":{"type":"Point","coordinates":[113.70744610668709,36.08896313998186]},"properties":{"peak_name":"1645无名峰","peak_elev":1645,"peak_lon":113.692624,"peak_lat":36.088155,"base_elev":803,"distance_m":1337.9,"vertical_relief_m":842.0,"max_jut":449.2017,"search_radius_m":3000,"elev_angle_deg":32.184}},{"type":"Feature","geometry":{"type":"Point","coordinates":[113.69612733410716,36.05716277892404]},"properties":{"peak_name":"小西天1648","peak_elev":1648,"peak_lon":113.680766,"peak_lat":36.057702,"base_elev":747,"distance_m":1385.3,"vertical_relief_m":901.0,"max_jut":492.0274,"search_radius_m":2000,"elev_angle_deg":33.04}},{"type":"Feature","geometry":{"type":"Point","coordinates":[113.61851289355924,35.669360070769635]},"properties":{"peak_name":"窟窿山1649","peak_elev":1649,"peak_lon":113.612315,"peak_lat":35.667204,"base_elev":1152,"distance_m":610.0,"vertical_relief_m":497.0,"max_jut":314.2163,"search_radius_m":625,"elev_angle_deg":39.1716}},{"type":"Feature","geometry":{"type":"Point","coordinates":[113.52257282121526,36.84705140825033]},"properties":{"peak_name":"东洞山1652","peak_elev":1652,"peak_lon":113.509637,"peak_lat":36.853789,"base_elev":906,"distance_m":1374.8,"vertical_relief_m":746.0,"max_jut":356.09,"search_radius_m":3500,"elev_angle_deg":28.4853}},{"type":"Feature","geometry":{"type":"Point","coordinates":[113.7077156012723,36.14367054078475]},"properties":{"peak_name":"1653无名峰","peak_elev":1653,"peak_lon":113.685887,"peak_lat":36.139628,"base_elev":783,"distance_m":2015.2,"vertical_relief_m":870.0,"max_jut":345.4294,"search_radius_m":3750,"elev_angle_deg":23.3508}},{"type":"Feature","geometry":{"type":"Point","coordinates":[113.6362995361848,35.64591404185412]},"properties":{"peak_name":"1656无名峰","peak_elev":1656,"peak_lon":113.619052,"peak_lat":35.650765,"base_elev":647,"distance_m":1652.1,"vertical_relief_m":1009.0,"max_jut":526.6015,"search_radius_m":2500,"elev_angle_deg":31.414}},{"type":"Feature","geometry":{"type":"Point","coordinates":[113.5228423158005,35.65292090107025]},"properties":{"peak_name":"1657无名峰","peak_elev":1657,"peak_lon":113.526885,"peak_lat":35.654268,"base_elev":1400,"distance_m":395.4,"vertical_relief_m":257.0,"max_jut":140.212,"search_radius_m":625,"elev_angle_deg":33.0228}},{"type":"Feature","geometry":{"type":"Point","coordinates":[113.61366199102498,35.74939996258469]},"properties":{"peak_name":"1660无名峰(1)","peak_elev":1660,"peak_lon":113.599379,"peak_lat":35.759910583496094,"base_elev":861,"distance_m":1740.3,"vertical_relief_m":799.0,"max_jut":333.4574,"search_radius_m":5000,"elev_angle_deg":24.6606}},{"type":"Feature","geometry":{"type":"Point","coordinates":[113.6783406914816,36.045844006344126]},"properties":{"peak_name":"梯垴1670","peak_elev":1670,"peak_lon":113.671334,"peak_lat":36.059319,"base_elev":786,"distance_m":1623.0,"vertical_relief_m":884.0,"max_jut":422.365,"search_radius_m":3250,"elev_angle_deg":28.5758}},{"type":"Feature","geometry":{"type":"Point","coordinates":[113.49589285727691,36.94460844810571]},"properties":{"peak_name":"1671无名峰","peak_elev":1671,"peak_lon":113.493198,"peak_lat":36.951615,"base_elev":1166,"distance_m":813.8,"vertical_relief_m":505.0,"max_jut":265.9751,"search_radius_m":1125,"elev_angle_deg":31.8215}},{"type":"Feature","geometry":{"type":"Point","coordinates":[113.5069421352716,35.65642433067831]},"properties":{"peak_name":"大山1674","peak_elev":1674,"peak_lon":113.510446,"peak_lat":35.654268,"base_elev":1334,"distance_m":397.4,"vertical_relief_m":340.0,"max_jut":221.1197,"search_radius_m":750,"elev_angle_deg":40.549}},{"type":"Feature","geometry":{"type":"Point","coordinates":[113.6333350957472,35.662892200723974]},"properties":{"peak_name":"1676无名峰","peak_elev":1676,"peak_lon":113.616626,"peak_lat":35.657637,"base_elev":704,"distance_m":1621.5,"vertical_relief_m":972.0,"max_jut":500.3678,"search_radius_m":1625,"elev_angle_deg":30.9404}},{"type":"Feature","geometry":{"type":"Point","coordinates":[113.56353599817112,36.97721729291925]},"properties":{"peak_name":"青铜山1680","peak_elev":1680,"peak_lon":113.570139,"peak_lat":36.981799,"base_elev":1181,"distance_m":777.3,"vertical_relief_m":499.0,"max_jut":269.6749,"search_radius_m":3000,"elev_angle_deg":32.6991}},{"type":"Feature","geometry":{"type":"Point","coordinates":[113.42905820013844,36.90580122783175]},"properties":{"peak_name":"1682无名峰(1)","peak_elev":1682,"peak_lon":113.423399,"peak_lat":36.907149,"base_elev":1225,"distance_m":526.1,"vertical_relief_m":457.0,"max_jut":300.0467,"search_radius_m":750,"elev_angle_deg":40.9794}},{"type":"Feature","geometry":{"type":"Point","coordinates":[113.36437949968182,36.83977505444896]},"properties":{"peak_name":"1689无名峰","peak_elev":1689,"peak_lon":113.360607,"peak_lat":36.843009,"base_elev":1285,"distance_m":492.0,"vertical_relief_m":404.0,"max_jut":256.3982,"search_radius_m":500,"elev_angle_deg":39.3907}},{"type":"Feature","geometry":{"type":"Point","coordinates":[113.63683852535527,35.64591404185412]},"properties":{"peak_name":"1698无名峰","peak_elev":1698,"peak_lon":113.618513,"peak_lat":35.636212,"base_elev":637,"distance_m":1978.3,"vertical_relief_m":1061.0,"max_jut":501.821,"search_radius_m":4000,"elev_angle_deg":28.2055}},{"type":"Feature","geometry":{"type":"Point","coordinates":[113.6362995361848,35.64591404185412]},"properties":{"peak_name":"1699无名峰(2)","peak_elev":1699,"peak_lon":113.619321,"peak_lat":35.642948150634766,"base_elev":647,"distance_m":1572.5,"vertical_relief_m":1052.0,"max_jut":585.7797,"search_radius_m":3000,"elev_angle_deg":33.7825}},{"type":"Feature","geometry":{"type":"Point","coordinates":[113.6106975505874,35.59956097319355]},"properties":{"peak_name":"1703无名峰(1)","peak_elev":1703,"peak_lon":113.610428,"peak_lat":35.615461,"base_elev":489,"distance_m":1764.3,"vertical_relief_m":1214.0,"max_jut":687.1444,"search_radius_m":2000,"elev_angle_deg":34.5315}},{"type":"Feature","geometry":{"type":"Point","coordinates":[113.23178816374578,36.65005086644292]},"properties":{"peak_name":"伟回山1716","peak_elev":1716,"peak_lon":113.219661,"peak_lat":36.648973,"base_elev":1166,"distance_m":1091.0,"vertical_relief_m":550.0,"max_jut":248.0374,"search_radius_m":1125,"elev_angle_deg":26.7538}},{"type":"Feature","geometry":{"type":"Point","coordinates":[113.65543365173654,36.19945591992857]},"properties":{"peak_name":"枕头垴1727","peak_elev":1727,"peak_lon":113.652469,"peak_lat":36.200534,"base_elev":1510,"distance_m":292.2,"vertical_relief_m":217.0,"max_jut":129.4984,"search_radius_m":750,"elev_angle_deg":36.5991}},{"type":"Feature","geometry":{"type":"Point","coordinates":[113.34039448159584,36.72092794235995]},"properties":{"peak_name":"梨花背1730","peak_elev":1730,"peak_lon":113.337969,"peak_lat":36.72497177124024,"base_elev":1240,"distance_m":498.3,"vertical_relief_m":490.0,"max_jut":343.3444,"search_radius_m":1125,"elev_angle_deg":44.5188}},{"type":"Feature","geometry":{"type":"Point","coordinates":[113.61635693687737,35.60252541363114]},"properties":{"peak_name":"十字岭1731","peak_elev":1731,"peak_lon":113.617974,"peak_lat":35.620851,"base_elev":560,"distance_m":2038.5,"vertical_relief_m":1171.0,"max_jut":582.3282,"search_radius_m":5250,"elev_angle_deg":29.8749}},{"type":"Feature","geometry":{"type":"Point","coordinates":[113.4740637958728,36.89690790651896]},"properties":{"peak_name":"1736无名峰","peak_elev":1736,"peak_lon":113.468404,"peak_lat":36.898794,"base_elev":1301,"distance_m":546.2,"vertical_relief_m":435.0,"max_jut":271.2915,"search_radius_m":2750,"elev_angle_deg":38.5342}},{"type":"Feature","geometry":{"type":"Point","coordinates":[113.36518798343754,36.89017054188807]},"properties":{"peak_name":"1741无名峰","peak_elev":1741,"peak_lon":113.357912,"peak_lat":36.888284,"base_elev":1247,"distance_m":681.5,"vertical_relief_m":494.0,"max_jut":290.2802,"search_radius_m":750,"elev_angle_deg":35.9373}},{"type":"Feature","geometry":{"type":"Point","coordinates":[113.46759592582715,36.8828941880867]},"properties":{"peak_name":"北洞山1746","peak_elev":1746,"peak_lon":113.468674,"peak_lat":36.891249,"base_elev":1133,"distance_m":932.2,"vertical_relief_m":613.0,"max_jut":336.3638,"search_radius_m":1625,"elev_angle_deg":33.3283}},{"type":"Feature","geometry":{"type":"Point","coordinates":[113.45007877778684,36.98718859257298]},"properties":{"peak_name":"罗圈1752","peak_elev":1752,"peak_lon":113.441994,"peak_lat":36.989345,"base_elev":1240,"distance_m":758.5,"vertical_relief_m":512.0,"max_jut":286.8341,"search_radius_m":1250,"elev_angle_deg":34.02}},{"type":"Feature","geometry":{"type":"Point","coordinates":[113.28083617825872,36.59237902520245]},"properties":{"peak_name":"广志山玉皇顶1807","peak_elev":1796,"peak_lon":113.27867889404295,"peak_lat":36.59965515136719,"base_elev":1179,"distance_m":830.2,"vertical_relief_m":617.0,"max_jut":367.6195,"search_radius_m":2250,"elev_angle_deg":36.6195}},{"type":"Feature","geometry":{"type":"Point","coordinates":[113.3670744455342,36.871036426336325]},"properties":{"peak_name":"1801无名峰","peak_elev":1801,"peak_lon":113.365727,"peak_lat":36.876426,"base_elev":1328,"distance_m":610.1,"vertical_relief_m":473.0,"max_jut":289.498,"search_radius_m":750,"elev_angle_deg":37.7858}},{"type":"Feature","geometry":{"type":"Point","coordinates":[113.43768202686596,36.94918985605472]},"properties":{"peak_name":"1869无名峰","peak_elev":1869,"peak_lon":113.434987,"peak_lat":36.950807,"base_elev":1560,"distance_m":299.7,"vertical_relief_m":309.0,"max_jut":221.8878,"search_radius_m":375,"elev_angle_deg":45.8753}},{"type":"Feature","geometry":{"type":"Point","coordinates":[113.3056296801004,36.757040216781554]},"properties":{"peak_name":"墓岭山1897","peak_elev":1897,"peak_lon":113.297545,"peak_lat":36.75272750854492,"base_elev":1378,"distance_m":866.2,"vertical_relief_m":519.0,"max_jut":266.9511,"search_radius_m":1000,"elev_angle_deg":30.9287}},{"type":"Feature","geometry":{"type":"Point","coordinates":[113.29458040210574,36.65301530688051]},"properties":{"peak_name":"板门山1899","peak_elev":1899,"peak_lon":113.286765,"peak_lat":36.65840530395508,"base_elev":1345,"distance_m":919.8,"vertical_relief_m":554.0,"max_jut":285.935,"search_radius_m":1000,"elev_angle_deg":31.0608}},{"type":"Feature","geometry":{"type":"Point","coordinates":[113.32880621443068,36.75380628175872]},"properties":{"peak_name":"1907无名峰","peak_elev":1907,"peak_lon":113.318296,"peak_lat":36.77024459838867,"base_elev":1107,"distance_m":2051.5,"vertical_relief_m":800.0,"max_jut":290.3856,"search_radius_m":2250,"elev_angle_deg":21.3037}},{"type":"Feature","geometry":{"type":"Point","coordinates":[113.34955729749385,36.81713750928915]},"properties":{"peak_name":"板山1916","peak_elev":1916,"peak_lon":113.34524536132812,"peak_lat":36.819832,"base_elev":1543,"distance_m":487.3,"vertical_relief_m":373.0,"max_jut":226.8287,"search_radius_m":500,"elev_angle_deg":37.432}},{"type":"Feature","geometry":{"type":"Point","coordinates":[113.31479249599842,36.75946566804868]},"properties":{"peak_name":"1924无名峰","peak_elev":1924,"peak_lon":113.31101989746094,"peak_lat":36.7651252746582,"base_elev":1348,"distance_m":712.7,"vertical_relief_m":576.0,"max_jut":361.8354,"search_radius_m":1125,"elev_angle_deg":38.9449}},{"type":"Feature","geometry":{"type":"Point","coordinates":[113.3220688497998,36.781564224038014]},"properties":{"peak_name":"甲鸡水1932","peak_elev":1932,"peak_lon":113.315062,"peak_lat":36.780756,"base_elev":1433,"distance_m":631.9,"vertical_relief_m":499.0,"max_jut":309.6855,"search_radius_m":875,"elev_angle_deg":38.2975}},{"type":"Feature","geometry":{"type":"Point","coordinates":[113.30266523966282,36.68454617335311]},"properties":{"peak_name":"马儿背1972","peak_elev":1972,"peak_lon":113.290538,"peak_lat":36.681043,"base_elev":1380,"distance_m":1151.5,"vertical_relief_m":592.0,"max_jut":271.0562,"search_radius_m":3000,"elev_angle_deg":27.2082}},{"type":"Feature","geometry":{"type":"Point","coordinates":[113.31290603390175,36.71823299650759]},"properties":{"peak_name":"1989无名峰","peak_elev":1989,"peak_lon":113.306169,"peak_lat":36.721736,"base_elev":1456,"distance_m":716.5,"vertical_relief_m":533.0,"max_jut":318.3455,"search_radius_m":750,"elev_angle_deg":36.6453}},{"type":"Feature","geometry":{"type":"Point","coordinates":[113.30428220717424,36.66756801448325]},"properties":{"peak_name":"1993无名峰","peak_elev":1993,"peak_lon":113.297006,"peak_lat":36.6705322265625,"base_elev":1501,"distance_m":728.9,"vertical_relief_m":492.0,"max_jut":275.5292,"search_radius_m":1000,"elev_angle_deg":34.0189}},{"type":"Feature","geometry":{"type":"Point","coordinates":[113.34066397618106,36.79908137207835]},"properties":{"peak_name":"2002无名峰(2)","peak_elev":2002,"peak_lon":113.336622,"peak_lat":36.804741,"base_elev":1461,"distance_m":724.3,"vertical_relief_m":541.0,"max_jut":323.5616,"search_radius_m":2750,"elev_angle_deg":36.7571}},{"type":"Feature","geometry":{"type":"Point","coordinates":[113.36222354299994,36.80554924212401]},"properties":{"peak_name":"黄岩垴2008","peak_elev":2008,"peak_lon":113.340125,"peak_lat":36.809053,"base_elev":1234,"distance_m":2009.9,"vertical_relief_m":774.0,"max_jut":278.6739,"search_radius_m":3250,"elev_angle_deg":21.0614}},{"type":"Feature","geometry":{"type":"Point","coordinates":[113.39159845279065,36.90957415202505]},"properties":{"peak_name":"南天池2029","peak_elev":2029,"peak_lon":113.408846,"peak_lat":36.929247,"base_elev":1073,"distance_m":2669.9,"vertical_relief_m":956.0,"max_jut":322.1298,"search_radius_m":3500,"elev_angle_deg":19.7007}},{"type":"Feature","geometry":{"type":"Point","coordinates":[113.43310061891697,36.93652361054863]},"properties":{"peak_name":"北天池2101","peak_elev":2101,"peak_lon":113.421243,"peak_lat":36.945147,"base_elev":1451,"distance_m":1425.3,"vertical_relief_m":650.0,"max_jut":269.795,"search_radius_m":5750,"elev_angle_deg":24.5151}},{"type":"Feature","geometry":{"type":"Point","coordinates":[113.47271632294664,35.44972198380241]},"properties":{"peak_name":"鱼鳞石633","peak_elev":633,"peak_lon":113.470156,"peak_lat":35.453495025634766,"base_elev":205,"distance_m":478.8,"vertical_relief_m":428.0,"max_jut":285.0506,"search_radius_m":750,"elev_angle_deg":41.7936}},{"type":"Feature","geometry":{"type":"Point","coordinates":[113.58698202708663,35.5405416590269]},"properties":{"peak_name":"666无名峰","peak_elev":666,"peak_lon":113.580514,"peak_lat":35.546471,"base_elev":249,"distance_m":881.4,"vertical_relief_m":417.0,"max_jut":178.3106,"search_radius_m":1250,"elev_angle_deg":25.3193}},{"type":"Feature","geometry":{"type":"Point","coordinates":[114.09093690147768,35.646992020195064]},"properties":{"peak_name":"老寨706","peak_elev":706,"peak_lon":114.086894,"peak_lat":35.650495,"base_elev":377,"distance_m":534.0,"vertical_relief_m":329.0,"max_jut":172.5726,"search_radius_m":625,"elev_angle_deg":31.6374}},{"type":"Feature","geometry":{"type":"Point","coordinates":[113.48376560094133,35.45403389716619]},"properties":{"peak_name":"西天大顶710","peak_elev":710,"peak_lon":113.478106,"peak_lat":35.458346,"base_elev":158,"distance_m":702.0,"vertical_relief_m":552.0,"max_jut":341.2305,"search_radius_m":1000,"elev_angle_deg":38.1788}},{"type":"Feature","geometry":{"type":"Point","coordinates":[113.88854646796555,36.36465610067815]},"properties":{"peak_name":"830无名峰","peak_elev":830,"peak_lon":113.891241,"peak_lat":36.36115264892578,"base_elev":466,"distance_m":457.8,"vertical_relief_m":364.0,"max_jut":226.4064,"search_radius_m":500,"elev_angle_deg":38.4885}},{"type":"Feature","geometry":{"type":"Point","coordinates":[114.0257192118506,35.63163082883662]},"properties":{"peak_name":"方山844","peak_elev":844,"peak_lon":114.023294,"peak_lat":35.638099,"base_elev":347,"distance_m":750.5,"vertical_relief_m":497.0,"max_jut":274.0604,"search_radius_m":1625,"elev_angle_deg":33.5135}},{"type":"Feature","geometry":{"type":"Point","coordinates":[113.82305928375324,36.42906530654952]},"properties":{"peak_name":"847无名峰","peak_elev":847,"peak_lon":113.813357,"peak_lat":36.423136,"base_elev":329,"distance_m":1090.8,"vertical_relief_m":518.0,"max_jut":222.3252,"search_radius_m":1375,"elev_angle_deg":25.4021}},{"type":"Feature","geometry":{"type":"Point","coordinates":[114.11842534917174,36.93571512679293]},"properties":{"peak_name":"851无名峰","peak_elev":851,"peak_lon":114.115461,"peak_lat":36.934368,"base_elev":551,"distance_m":303.5,"vertical_relief_m":300.0,"max_jut":211.0464,"search_radius_m":625,"elev_angle_deg":44.6677}},{"type":"Feature","geometry":{"type":"Point","coordinates":[113.92816217199524,36.37220194906475]},"properties":{"peak_name":"东家垴852","peak_elev":852,"peak_lon":113.938133,"peak_lat":36.372202,"base_elev":305,"distance_m":894.8,"vertical_relief_m":547.0,"max_jut":285.7866,"search_radius_m":1625,"elev_angle_deg":31.4379}},{"type":"Feature","geometry":{"type":"Point","coordinates":[113.85755459066344,36.29916891646583]},"properties":{"peak_name":"863无名峰","peak_elev":863,"peak_lon":113.852704,"peak_lat":36.295935,"base_elev":472,"distance_m":564.5,"vertical_relief_m":391.0,"max_jut":222.7248,"search_radius_m":625,"elev_angle_deg":34.7083}},{"type":"Feature","geometry":{"type":"Point","coordinates":[113.99014592659948,36.40993119099777]},"properties":{"peak_name":"878无名峰","peak_elev":878,"peak_lon":113.988259,"peak_lat":36.407236,"base_elev":683,"distance_m":343.6,"vertical_relief_m":195.0,"max_jut":96.1641,"search_radius_m":375,"elev_angle_deg":29.5758}},{"type":"Feature","geometry":{"type":"Point","coordinates":[113.84920025852112,36.31156566738668]},"properties":{"peak_name":"879无名峰","peak_elev":879,"peak_lon":113.83869171142578,"peak_lat":36.306445,"base_elev":405,"distance_m":1101.6,"vertical_relief_m":474.0,"max_jut":187.5178,"search_radius_m":1375,"elev_angle_deg":23.2814}},{"type":"Feature","geometry":{"type":"Point","coordinates":[114.16073599905378,36.55411079409895]},"properties":{"peak_name":"响堂山890","peak_elev":890,"peak_lon":114.170438,"peak_lat":36.546834,"base_elev":432,"distance_m":1186.0,"vertical_relief_m":458.0,"max_jut":165.0293,"search_radius_m":2500,"elev_angle_deg":21.1152}},{"type":"Feature","geometry":{"type":"Point","coordinates":[113.44819231569018,35.47209003437699]},"properties":{"peak_name":"902无名峰","peak_elev":902,"peak_lon":113.444689,"peak_lat":35.464814,"base_elev":229,"distance_m":867.6,"vertical_relief_m":673.0,"max_jut":412.0654,"search_radius_m":1500,"elev_angle_deg":37.8008}},{"type":"Feature","geometry":{"type":"Point","coordinates":[114.0497042299366,36.9009503252975]},"properties":{"peak_name":"红枫山奶奶顶914","peak_elev":914,"peak_lon":114.053477,"peak_lat":36.90095138549805,"base_elev":636,"distance_m":336.3,"vertical_relief_m":278.0,"max_jut":177.3826,"search_radius_m":625,"elev_angle_deg":39.5786}},{"type":"Feature","geometry":{"type":"Point","coordinates":[113.77562823675174,36.49077956656853]},"properties":{"peak_name":"921无名峰","peak_elev":921,"peak_lon":113.780614,"peak_lat":36.492666,"base_elev":633,"distance_m":493.3,"vertical_relief_m":288.0,"max_jut":145.3622,"search_radius_m":625,"elev_angle_deg":30.2774}},{"type":"Feature","geometry":{"type":"Point","coordinates":[113.13989051018036,35.36537017862359]},"properties":{"peak_name":"926无名峰","peak_elev":926,"peak_lon":113.133153,"peak_lat":35.366448,"base_elev":464,"distance_m":623.9,"vertical_relief_m":462.0,"max_jut":275.3161,"search_radius_m":875,"elev_angle_deg":36.5201}},{"type":"Feature","geometry":{"type":"Point","coordinates":[113.8677953849024,36.30132487314772]},"properties":{"peak_name":"934无名峰","peak_elev":934,"peak_lon":113.874533,"peak_lat":36.302403,"base_elev":612,"distance_m":616.9,"vertical_relief_m":322.0,"max_jut":149.2515,"search_radius_m":625,"elev_angle_deg":27.563}},{"type":"Feature","geometry":{"type":"Point","coordinates":[114.05105170286278,36.95565772610038]},"properties":{"peak_name":"950无名峰","peak_elev":950,"peak_lon":114.044853,"peak_lat":36.95700454711914,"base_elev":565,"distance_m":571.9,"vertical_relief_m":385.0,"max_jut":215.291,"search_radius_m":625,"elev_angle_deg":33.9482}},{"type":"Feature","geometry":{"type":"Point","coordinates":[113.74436686486438,36.25820573950998]},"properties":{"peak_name":"鸡关寨957","peak_elev":957,"peak_lon":113.747331,"peak_lat":36.26359558105469,"base_elev":459,"distance_m":654.7,"vertical_relief_m":498.0,"max_jut":301.2327,"search_radius_m":1125,"elev_angle_deg":37.2586}},{"type":"Feature","geometry":{"type":"Point","coordinates":[113.01753996848328,35.421694546937886]},"properties":{"peak_name":"966无名峰","peak_elev":966,"peak_lon":113.024277,"peak_lat":35.419269,"base_elev":456,"distance_m":668.4,"vertical_relief_m":510.0,"max_jut":309.657,"search_radius_m":750,"elev_angle_deg":37.3442}},{"type":"Feature","geometry":{"type":"Point","coordinates":[113.87102931992524,36.37813082993994]},"properties":{"peak_name":"968无名峰","peak_elev":968,"peak_lon":113.88153839111328,"peak_lat":36.388102,"base_elev":304,"distance_m":1453.8,"vertical_relief_m":664.0,"max_jut":275.8221,"search_radius_m":1875,"elev_angle_deg":24.5478}},{"type":"Feature","geometry":{"type":"Point","coordinates":[113.04502841617732,35.493649601195855]},"properties":{"peak_name":"河西寨凹山974","peak_elev":974,"peak_lon":113.036135,"peak_lat":35.492841,"base_elev":641,"distance_m":811.9,"vertical_relief_m":333.0,"max_jut":126.5965,"search_radius_m":875,"elev_angle_deg":22.3009}},{"type":"Feature","geometry":{"type":"Point","coordinates":[113.01807895765374,35.423850503619775]},"properties":{"peak_name":"985无名峰","peak_elev":985,"peak_lon":113.025355,"peak_lat":35.427893,"base_elev":458,"distance_m":798.6,"vertical_relief_m":527.0,"max_jut":290.437,"search_radius_m":875,"elev_angle_deg":33.421}},{"type":"Feature","geometry":{"type":"Point","coordinates":[113.67214231602117,36.51018317670551]},"properties":{"peak_name":"986无名峰","peak_elev":986,"peak_lon":113.668908,"peak_lat":36.504793,"base_elev":576,"distance_m":664.6,"vertical_relief_m":410.0,"max_jut":215.0713,"search_radius_m":750,"elev_angle_deg":31.671}},{"type":"Feature","geometry":{"type":"Point","coordinates":[113.50909809195348,36.77806079442995]},"properties":{"peak_name":"大寨顶989","peak_elev":989,"peak_lon":113.505056,"peak_lat":36.776174,"base_elev":633,"distance_m":417.2,"vertical_relief_m":356.0,"max_jut":231.2488,"search_radius_m":750,"elev_angle_deg":40.4744}},{"type":"Feature","geometry":{"type":"Point","coordinates":[113.64492336291237,35.93858516142026]},"properties":{"peak_name":"993无名峰","peak_elev":993,"peak_lon":113.649101,"peak_lat":35.942089,"base_elev":510,"distance_m":541.5,"vertical_relief_m":483.0,"max_jut":321.5019,"search_radius_m":1000,"elev_angle_deg":41.7319}},{"type":"Feature","geometry":{"type":"Point","coordinates":[113.56326650358588,35.5480875074135]},"properties":{"peak_name":"996无名峰","peak_elev":996,"peak_lon":113.564883,"peak_lat":35.555633,"base_elev":367,"distance_m":849.9,"vertical_relief_m":629.0,"max_jut":373.6821,"search_radius_m":1125,"elev_angle_deg":36.5047}},{"type":"Feature","geometry":{"type":"Point","coordinates":[113.47864520382184,36.70152433222297]},"properties":{"peak_name":"东大寨脑1360","peak_elev":1356,"peak_lon":113.472716,"peak_lat":36.703948974609375,"base_elev":823,"distance_m":594.2,"vertical_relief_m":533.0,"max_jut":356.177,"search_radius_m":2000,"elev_angle_deg":41.8922}},{"type":"Feature","geometry":{"type":"Point","coordinates":[113.35845061880664,35.42870140615402]},"properties":{"peak_name":"云台山1368","peak_elev":1297,"peak_lon":113.37718200683594,"peak_lat":35.44891357421875,"base_elev":270,"distance_m":2814.5,"vertical_relief_m":1027.0,"max_jut":351.8718,"search_radius_m":3500,"elev_angle_deg":20.0468}},{"type":"Feature","geometry":{"type":"Point","coordinates":[113.90067372430116,36.95835267195274]},"properties":{"peak_name":"五指山1348","peak_elev":1397,"peak_lon":113.905255,"peak_lat":36.957544,"base_elev":973,"distance_m":417.8,"vertical_relief_m":424.0,"max_jut":302.3421,"search_radius_m":875,"elev_angle_deg":45.422}},{"type":"Feature","geometry":{"type":"Point","coordinates":[114.06587390505076,36.95700519902656]},"properties":{"peak_name":"五指山873","peak_elev":955,"peak_lon":114.072611,"peak_lat":36.955927,"base_elev":515,"distance_m":611.8,"vertical_relief_m":440.0,"max_jut":257.2589,"search_radius_m":750,"elev_angle_deg":35.7233}},{"type":"Feature","geometry":{"type":"Point","coordinates":[113.87695820080042,36.94703389937283]},"properties":{"peak_name":"北寨1288","peak_elev":1283,"peak_lon":113.872916,"peak_lat":36.94568634033203,"base_elev":800,"distance_m":389.9,"vertical_relief_m":483.0,"max_jut":376.0862,"search_radius_m":875,"elev_angle_deg":51.0879}},{"type":"Feature","geometry":{"type":"Point","coordinates":[113.95376415759264,36.95889166112321]},"properties":{"peak_name":"北武当山天柱峰1465","peak_elev":1435,"peak_lon":113.959154,"peak_lat":36.958353,"base_elev":950,"distance_m":483.7,"vertical_relief_m":485.0,"max_jut":343.7844,"search_radius_m":2000,"elev_angle_deg":45.0769}},{"type":"Feature","geometry":{"type":"Point","coordinates":[113.61339249643976,35.696040034707984]},"properties":{"peak_name":"华山1576","peak_elev":1513,"peak_lon":113.624711,"peak_lat":35.694423,"base_elev":878,"distance_m":1040.0,"vertical_relief_m":635.0,"max_jut":331.4153,"search_radius_m":1125,"elev_angle_deg":31.4073}},{"type":"Feature","geometry":{"type":"Point","coordinates":[113.875341233289,36.93814057806005]},"properties":{"peak_name":"南寨1223","peak_elev":1227,"peak_lon":113.875341,"peak_lat":36.934368,"base_elev":772,"distance_m":418.7,"vertical_relief_m":455.0,"max_jut":334.5218,"search_radius_m":625,"elev_angle_deg":47.3791}},{"type":"Feature","geometry":{"type":"Point","coordinates":[113.5745852761658,36.68697162462024]},"properties":{"peak_name":"合山尖1136","peak_elev":1122,"peak_lon":113.580514,"peak_lat":36.68966674804688,"base_elev":744,"distance_m":608.5,"vertical_relief_m":378.0,"max_jut":199.6569,"search_radius_m":1375,"elev_angle_deg":31.8485}},{"type":"Feature","geometry":{"type":"Point","coordinates":[113.53685603423276,36.72550935030896]},"properties":{"peak_name":"大泥池岭1323","peak_elev":1316,"peak_lon":113.546827,"peak_lat":36.726587,"base_elev":726,"distance_m":898.7,"vertical_relief_m":590.0,"max_jut":324.3039,"search_radius_m":1250,"elev_angle_deg":33.2851}},{"type":"Feature","geometry":{"type":"Point","coordinates":[114.00550711795792,36.94514743727618]},"properties":{"peak_name":"天平架1230","peak_elev":1241,"peak_lon":114.009819,"peak_lat":36.939488,"base_elev":754,"distance_m":736.2,"vertical_relief_m":487.0,"max_jut":268.5334,"search_radius_m":2000,"elev_angle_deg":33.4848}},{"type":"Feature","geometry":{"type":"Point","coordinates":[113.94702679296176,36.967784982436]},"properties":{"peak_name":"小寨1070","peak_elev":1043,"peak_lon":113.944871,"peak_lat":36.964012145996094,"base_elev":795,"distance_m":460.6,"vertical_relief_m":248.0,"max_jut":117.4574,"search_radius_m":500,"elev_angle_deg":28.2993}},{"type":"Feature","geometry":{"type":"Point","coordinates":[113.53766451798847,36.72901277991703]},"properties":{"peak_name":"常闯垴1483","peak_elev":1508,"peak_lon":113.538473,"peak_lat":36.740062,"base_elev":784,"distance_m":1228.3,"vertical_relief_m":724.0,"max_jut":367.0986,"search_radius_m":1250,"elev_angle_deg":30.5165}},{"type":"Feature","geometry":{"type":"Point","coordinates":[113.80042173859344,36.995003935544815]},"properties":{"peak_name":"玉皇顶1747","peak_elev":1723,"peak_lon":113.795032,"peak_lat":36.99446487426758,"base_elev":1326,"distance_m":483.5,"vertical_relief_m":397.0,"max_jut":252.2718,"search_radius_m":1750,"elev_angle_deg":39.3893}},{"type":"Feature","geometry":{"type":"Point","coordinates":[113.7880249876726,37.00416675144283]},"properties":{"peak_name":"摩天岭1747.5","peak_elev":1746,"peak_lon":113.789642,"peak_lat":36.994734,"base_elev":1202,"distance_m":1056.7,"vertical_relief_m":544.0,"max_jut":248.6334,"search_radius_m":1250,"elev_angle_deg":27.2399}},{"type":"Feature","geometry":{"type":"Point","coordinates":[113.7077156012723,36.502906822904144]},"properties":{"peak_name":"杨岐山1090","peak_elev":1105,"peak_lon":113.699361,"peak_lat":36.48700714111328,"base_elev":409,"distance_m":1916.6,"vertical_relief_m":696.0,"max_jut":237.2772,"search_radius_m":2500,"elev_angle_deg":19.9581}},{"type":"Feature","geometry":{"type":"Point","coordinates":[113.81686090829282,36.94164400766812]},"properties":{"peak_name":"板山1550","peak_elev":1625,"peak_lon":113.825754,"peak_lat":36.94380187988281,"base_elev":1138,"distance_m":827.6,"vertical_relief_m":487.0,"max_jut":247.3519,"search_radius_m":875,"elev_angle_deg":30.4746}},{"type":"Feature","geometry":{"type":"Point","coordinates":[113.30670765844135,36.7047582672458]},"properties":{"peak_name":"桦树凹2012","peak_elev":2012,"peak_lon":113.299701,"peak_lat":36.709609,"base_elev":1420,"distance_m":825.7,"vertical_relief_m":592.0,"max_jut":345.0707,"search_radius_m":1125,"elev_angle_deg":35.6393}},{"type":"Feature","geometry":{"type":"Point","coordinates":[113.62983166613914,36.23691566727635]},"properties":{"peak_name":"槐树坪1356","peak_elev":1404,"peak_lon":113.639803,"peak_lat":36.231526,"base_elev":708,"distance_m":1077.6,"vertical_relief_m":696.0,"max_jut":377.8656,"search_radius_m":1250,"elev_angle_deg":32.8576}},{"type":"Feature","geometry":{"type":"Point","coordinates":[113.9270841936543,36.39591747256551]},"properties":{"peak_name":"炉峰山/老爷山1087.6","peak_elev":1090,"peak_lon":113.918191,"peak_lat":36.402116,"base_elev":533,"distance_m":1053.4,"vertical_relief_m":557.0,"max_jut":260.4656,"search_radius_m":1250,"elev_angle_deg":27.8683}},{"type":"Feature","geometry":{"type":"Point","coordinates":[113.9249282369724,36.86941945882491]},"properties":{"peak_name":"白菜脑/白云山/柏台垴1308.9","peak_elev":1311,"peak_lon":113.926545,"peak_lat":36.874001,"base_elev":869,"distance_m":528.5,"vertical_relief_m":442.0,"max_jut":283.2911,"search_radius_m":2500,"elev_angle_deg":39.9067}},{"type":"Feature","geometry":{"type":"Point","coordinates":[113.66621343514598,36.4312212632314]},"properties":{"peak_name":"瞌睡垴1180","peak_elev":1200,"peak_lon":113.666483,"peak_lat":36.425023,"base_elev":816,"distance_m":688.2,"vertical_relief_m":384.0,"max_jut":186.8095,"search_radius_m":875,"elev_angle_deg":29.1605}},{"type":"Feature","geometry":{"type":"Point","coordinates":[113.54979177432408,36.69343949466589]},"properties":{"peak_name":"石门北山1028","peak_elev":1021,"peak_lon":113.554104,"peak_lat":36.692901,"base_elev":683,"distance_m":390.0,"vertical_relief_m":338.0,"max_jut":221.6521,"search_radius_m":1250,"elev_angle_deg":40.9144}},{"type":"Feature","geometry":{"type":"Point","coordinates":[114.0278751685325,36.891787509399485]},"properties":{"peak_name":"罗锅寨/轿顶山/锣鼓寨1090","peak_elev":1094,"peak_lon":114.023563,"peak_lat":36.891249,"base_elev":772,"distance_m":389.0,"vertical_relief_m":322.0,"max_jut":205.5948,"search_radius_m":625,"elev_angle_deg":39.6167}},{"type":"Feature","geometry":{"type":"Point","coordinates":[113.8295271537989,36.85324978371075]},"properties":{"peak_name":"罗锅寨1325.6","peak_elev":1319,"peak_lon":113.837073,"peak_lat":36.852441,"base_elev":847,"distance_m":678.9,"vertical_relief_m":472.0,"max_jut":269.8378,"search_radius_m":1125,"elev_angle_deg":34.8087}},{"type":"Feature","geometry":{"type":"Point","coordinates":[113.51394899448772,36.76216061390104]},"properties":{"peak_name":"羊大垴/西大垴/老坟尖1562.9","peak_elev":1559,"peak_lon":113.537665,"peak_lat":36.749494,"base_elev":620,"distance_m":2541.8,"vertical_relief_m":939.0,"max_jut":325.6653,"search_radius_m":4000,"elev_angle_deg":20.2754}},{"type":"Feature","geometry":{"type":"Point","coordinates":[113.80284718986056,36.9362541159634]},"properties":{"peak_name":"茅草圪道1770","peak_elev":1773,"peak_lon":113.779671,"peak_lat":36.929786,"base_elev":900,"distance_m":2186.0,"vertical_relief_m":873.0,"max_jut":324.2901,"search_radius_m":2500,"elev_angle_deg":21.7698}},{"type":"Feature","geometry":{"type":"Point","coordinates":[113.88666000586892,36.984493646720615]},"properties":{"peak_name":"茶壶山1421","peak_elev":1434,"peak_lon":113.891511,"peak_lat":36.986919,"base_elev":1049,"distance_m":508.9,"vertical_relief_m":385.0,"max_jut":232.4547,"search_radius_m":1000,"elev_angle_deg":37.1087}},{"type":"Feature","geometry":{"type":"Point","coordinates":[113.5236507995562,36.66810700365372]},"properties":{"peak_name":"西辽城南山1166.3","peak_elev":1178,"peak_lon":113.516913,"peak_lat":36.674036,"base_elev":659,"distance_m":892.0,"vertical_relief_m":519.0,"max_jut":261.0012,"search_radius_m":1250,"elev_angle_deg":30.1925}},{"type":"Feature","geometry":{"type":"Point","coordinates":[113.97424574607057,36.86618552380207]},"properties":{"peak_name":"道沟太祖山A1258","peak_elev":1253,"peak_lon":113.981657,"peak_lat":36.872653,"base_elev":669,"distance_m":975.6,"vertical_relief_m":584.0,"max_jut":299.9524,"search_radius_m":1750,"elev_angle_deg":30.905}},{"type":"Feature","geometry":{"type":"Point","coordinates":[113.9766711973377,36.95107631815137]},"properties":{"peak_name":"道沟太祖山B1325","peak_elev":1285,"peak_lon":113.971551,"peak_lat":36.94649505615234,"base_elev":815,"distance_m":683.0,"vertical_relief_m":470.0,"max_jut":266.427,"search_radius_m":1125,"elev_angle_deg":34.5334}},{"type":"Feature","geometry":{"type":"Point","coordinates":[113.77266379631416,36.95377126400373]},"properties":{"peak_name":"青崖寨/青岩寨1898.7","peak_elev":1899,"peak_lon":113.7694320678711,"peak_lat":36.965899,"base_elev":1186,"distance_m":1376.3,"vertical_relief_m":713.0,"max_jut":327.5118,"search_radius_m":1500,"elev_angle_deg":27.3867}},{"type":"Feature","geometry":{"type":"Point","coordinates":[113.7023257095676,36.519615487188766]},"properties":{"peak_name":"韩王山1191.1","peak_elev":1195,"peak_lon":113.703134,"peak_lat":36.532821,"base_elev":453,"distance_m":1467.2,"vertical_relief_m":742.0,"max_jut":334.3244,"search_radius_m":2750,"elev_angle_deg":26.8269}},{"type":"Feature","geometry":{"type":"Point","coordinates":[113.86536993363528,36.92008444084925]},"properties":{"peak_name":"马武寨/马虎寨1571","peak_elev":1573,"peak_lon":113.853782,"peak_lat":36.916581,"base_elev":1005,"distance_m":1103.3,"vertical_relief_m":568.0,"max_jut":260.3444,"search_radius_m":2250,"elev_angle_deg":27.2403}},{"type":"Feature","geometry":{"type":"Point","coordinates":[113.98933744284378,36.93544563220769]},"properties":{"peak_name":"麦秸垛山1079","peak_elev":1087,"peak_lon":113.992302,"peak_lat":36.937467,"base_elev":812,"distance_m":346.5,"vertical_relief_m":275.0,"max_jut":171.0084,"search_radius_m":375,"elev_angle_deg":38.4373}},{"type":"Feature","geometry":{"type":"Point","coordinates":[113.4934674060098,36.74814689546877]},"properties":{"peak_name":"黄路垴/黄栌垴1356","peak_elev":1387,"peak_lon":113.475411,"peak_lat":36.740871,"base_elev":609,"distance_m":1803.4,"vertical_relief_m":778.0,"max_jut":308.5414,"search_radius_m":2500,"elev_angle_deg":23.3357}}]}