{"type":"FeatureCollection","features":[{"type":"Feature","geometry":{"type":"Point","coordinates":[110.50800639076698,40.61808913945567]},"properties":{"peak_name":"1304无名峰","peak_elev":1304,"peak_lon":110.510162,"peak_lat":40.61754989624024,"base_elev":1071,"distance_m":192.0,"vertical_relief_m":233.0,"max_jut":179.9782,"search_radius_m":375,"elev_angle_deg":50.5103}},{"type":"Feature","geometry":{"type":"Point","coordinates":[110.2616883398614,40.58467181088643]},"properties":{"peak_name":"1336无名峰","peak_elev":1336,"peak_lon":110.2641143798828,"peak_lat":40.584941,"base_elev":1153,"distance_m":207.6,"vertical_relief_m":183.0,"max_jut":121.1934,"search_radius_m":375,"elev_angle_deg":41.3963}},{"type":"Feature","geometry":{"type":"Point","coordinates":[110.2948361738454,40.58952271342067]},"properties":{"peak_name":"1377无名峰","peak_elev":1377,"peak_lon":110.291872,"peak_lat":40.590062,"base_elev":1193,"distance_m":258.0,"vertical_relief_m":184.0,"max_jut":107.0092,"search_radius_m":625,"elev_angle_deg":35.4956}},{"type":"Feature","geometry":{"type":"Point","coordinates":[110.19215873687055,40.58790574590925]},"properties":{"peak_name":"1396无名峰","peak_elev":1396,"peak_lon":110.193506,"peak_lat":40.58952331542969,"base_elev":1204,"distance_m":212.8,"vertical_relief_m":192.0,"max_jut":128.6111,"search_radius_m":250,"elev_angle_deg":42.0585}},{"type":"Feature","geometry":{"type":"Point","coordinates":[109.38502245408915,40.64072668461548]},"properties":{"peak_name":"1397无名峰","peak_elev":1397,"peak_lon":109.383136,"peak_lat":40.645308,"base_elev":1120,"distance_m":533.2,"vertical_relief_m":277.0,"max_jut":127.604,"search_radius_m":625,"elev_angle_deg":27.4521}},{"type":"Feature","geometry":{"type":"Point","coordinates":[109.04222534166917,40.662825240604825]},"properties":{"peak_name":"1400无名峰(1)","peak_elev":1400,"peak_lon":109.038991,"peak_lat":40.662017,"base_elev":1158,"distance_m":287.9,"vertical_relief_m":242.0,"max_jut":155.9254,"search_radius_m":500,"elev_angle_deg":40.0494}},{"type":"Feature","geometry":{"type":"Point","coordinates":[110.4751280513682,40.608656828972414]},"properties":{"peak_name":"1413无名峰","peak_elev":1413,"peak_lon":110.472703,"peak_lat":40.607579,"base_elev":1201,"distance_m":237.6,"vertical_relief_m":212.0,"max_jut":141.2685,"search_radius_m":250,"elev_angle_deg":41.7411}},{"type":"Feature","geometry":{"type":"Point","coordinates":[110.4818654159991,40.6137772260919]},"properties":{"peak_name":"1460无名峰","peak_elev":1460,"peak_lon":110.48455810546876,"peak_lat":40.612969,"base_elev":1287,"distance_m":244.9,"vertical_relief_m":173.0,"max_jut":99.9482,"search_radius_m":250,"elev_angle_deg":35.2378}},{"type":"Feature","geometry":{"type":"Point","coordinates":[109.2966282301318,41.08647072859559]},"properties":{"peak_name":"1462无名峰","peak_elev":1462,"peak_lon":109.298245,"peak_lat":41.088626861572266,"base_elev":1298,"distance_m":275.3,"vertical_relief_m":164.0,"max_jut":83.9125,"search_radius_m":375,"elev_angle_deg":30.7828}},{"type":"Feature","geometry":{"type":"Point","coordinates":[110.24524917016204,40.58601928381261]},"properties":{"peak_name":"1464无名峰","peak_elev":1464,"peak_lon":110.246866,"peak_lat":40.588714,"base_elev":1169,"distance_m":329.1,"vertical_relief_m":295.0,"max_jut":196.8468,"search_radius_m":500,"elev_angle_deg":41.8725}},{"type":"Feature","geometry":{"type":"Point","coordinates":[108.8861879768176,40.66632867021288]},"properties":{"peak_name":"1466无名峰","peak_elev":1466,"peak_lon":108.886727,"peak_lat":40.668485,"base_elev":1245,"distance_m":243.8,"vertical_relief_m":221.0,"max_jut":148.3448,"search_radius_m":375,"elev_angle_deg":42.1917}},{"type":"Feature","geometry":{"type":"Point","coordinates":[110.23851180553112,40.5965295726368]},"properties":{"peak_name":"1468无名峰","peak_elev":1468,"peak_lon":110.242015,"peak_lat":40.597338,"base_elev":1249,"distance_m":309.8,"vertical_relief_m":219.0,"max_jut":126.5971,"search_radius_m":375,"elev_angle_deg":35.2568}},{"type":"Feature","geometry":{"type":"Point","coordinates":[109.14975368117828,41.12123553009101]},"properties":{"peak_name":"1476无名峰","peak_elev":1476,"peak_lon":109.148406,"peak_lat":41.123122,"base_elev":1301,"distance_m":238.1,"vertical_relief_m":175.0,"max_jut":103.6084,"search_radius_m":375,"elev_angle_deg":36.3153}},{"type":"Feature","geometry":{"type":"Point","coordinates":[110.38349989238802,40.59087018634685]},"properties":{"peak_name":"1477无名峰","peak_elev":1477,"peak_lon":110.38592529296876,"peak_lat":40.58952331542969,"base_elev":1175,"distance_m":254.0,"vertical_relief_m":302.0,"max_jut":231.2282,"search_radius_m":500,"elev_angle_deg":49.9342}},{"type":"Feature","geometry":{"type":"Point","coordinates":[109.21524086539056,40.67872542113373]},"properties":{"peak_name":"1489无名峰","peak_elev":1489,"peak_lon":109.210794,"peak_lat":40.67791748046875,"base_elev":1202,"distance_m":386.5,"vertical_relief_m":287.0,"max_jut":171.3555,"search_radius_m":500,"elev_angle_deg":36.5962}},{"type":"Feature","geometry":{"type":"Point","coordinates":[110.7066239000858,40.63371982539935]},"properties":{"peak_name":"1493无名峰(2)","peak_elev":1493,"peak_lon":110.710666,"peak_lat":40.635066986083984,"base_elev":1130,"distance_m":373.2,"vertical_relief_m":363.0,"max_jut":253.3334,"search_radius_m":375,"elev_angle_deg":44.2062}},{"type":"Feature","geometry":{"type":"Point","coordinates":[109.28261451169952,40.99672903171205]},"properties":{"peak_name":"1496无名峰","peak_elev":1496,"peak_lon":109.278572,"peak_lat":40.996999,"base_elev":1283,"distance_m":341.5,"vertical_relief_m":213.0,"max_jut":112.9403,"search_radius_m":625,"elev_angle_deg":31.9526}},{"type":"Feature","geometry":{"type":"Point","coordinates":[110.48887227521524,40.64153516837119]},"properties":{"peak_name":"1498无名峰","peak_elev":1498,"peak_lon":110.490489,"peak_lat":40.640996,"base_elev":1288,"distance_m":149.3,"vertical_relief_m":210.0,"max_jut":171.267,"search_radius_m":500,"elev_angle_deg":54.589}},{"type":"Feature","geometry":{"type":"Point","coordinates":[110.40856288881494,40.59976350765963]},"properties":{"peak_name":"1518无名峰","peak_elev":1518,"peak_lon":110.402634,"peak_lat":40.597608,"base_elev":1194,"distance_m":556.0,"vertical_relief_m":324.0,"max_jut":163.3483,"search_radius_m":625,"elev_angle_deg":30.2308}},{"type":"Feature","geometry":{"type":"Point","coordinates":[108.81584989007104,40.71726314682247]},"properties":{"peak_name":"1527无名峰","peak_elev":1527,"peak_lon":108.813155,"peak_lat":40.716455,"base_elev":1381,"distance_m":244.7,"vertical_relief_m":146.0,"max_jut":74.9075,"search_radius_m":375,"elev_angle_deg":30.8224}},{"type":"Feature","geometry":{"type":"Point","coordinates":[108.97889411413873,40.660669283922935]},"properties":{"peak_name":"1531无名峰","peak_elev":1531,"peak_lon":108.977008,"peak_lat":40.65716552734375,"base_elev":1197,"distance_m":420.5,"vertical_relief_m":334.0,"max_jut":207.6353,"search_radius_m":750,"elev_angle_deg":38.4599}},{"type":"Feature","geometry":{"type":"Point","coordinates":[110.50423346657368,40.63264184705841]},"properties":{"peak_name":"1532无名峰(2)","peak_elev":1532,"peak_lon":110.496418,"peak_lat":40.628869,"base_elev":1121,"distance_m":782.8,"vertical_relief_m":411.0,"max_jut":191.2741,"search_radius_m":1000,"elev_angle_deg":27.7012}},{"type":"Feature","geometry":{"type":"Point","coordinates":[110.24417119182108,40.57523950040317]},"properties":{"peak_name":"1537无名峰","peak_elev":1537,"peak_lon":110.243363,"peak_lat":40.5800895690918,"base_elev":1102,"distance_m":542.9,"vertical_relief_m":435.0,"max_jut":271.7866,"search_radius_m":750,"elev_angle_deg":38.7035}},{"type":"Feature","geometry":{"type":"Point","coordinates":[110.45572444123124,40.6137772260919]},"properties":{"peak_name":"1539无名峰","peak_elev":1539,"peak_lon":110.448718,"peak_lat":40.614047,"base_elev":1220,"distance_m":593.7,"vertical_relief_m":319.0,"max_jut":151.2891,"search_radius_m":875,"elev_angle_deg":28.2495}},{"type":"Feature","geometry":{"type":"Point","coordinates":[109.1748166776052,41.064102678021015]},"properties":{"peak_name":"1540无名峰","peak_elev":1540,"peak_lon":109.179398,"peak_lat":41.063833,"base_elev":1241,"distance_m":386.2,"vertical_relief_m":299.0,"max_jut":183.321,"search_radius_m":750,"elev_angle_deg":37.7474}},{"type":"Feature","geometry":{"type":"Point","coordinates":[110.43766830402042,40.60111098058581]},"properties":{"peak_name":"1551无名峰","peak_elev":1553,"peak_lon":110.4480438232422,"peak_lat":40.60420989990234,"base_elev":1110,"distance_m":943.2,"vertical_relief_m":443.0,"max_jut":188.6466,"search_radius_m":1250,"elev_angle_deg":25.1584}},{"type":"Feature","geometry":{"type":"Point","coordinates":[109.38744790535628,41.08323679357276]},"properties":{"peak_name":"1555无名峰","peak_elev":1555,"peak_lon":109.389334,"peak_lat":41.085123,"base_elev":1393,"distance_m":262.7,"vertical_relief_m":162.0,"max_jut":85.0477,"search_radius_m":375,"elev_angle_deg":31.661}},{"type":"Feature","geometry":{"type":"Point","coordinates":[108.76248996219434,40.66578968104242]},"properties":{"peak_name":"1556无名峰","peak_elev":1556,"peak_lon":108.764107,"peak_lat":40.673875,"base_elev":1067,"distance_m":908.2,"vertical_relief_m":489.0,"max_jut":231.6,"search_radius_m":2000,"elev_angle_deg":28.2993}},{"type":"Feature","geometry":{"type":"Point","coordinates":[110.43227841231572,40.6288689228651]},"properties":{"peak_name":"1558无名峰","peak_elev":1558,"peak_lon":110.429044,"peak_lat":40.627791,"base_elev":1264,"distance_m":298.7,"vertical_relief_m":294.0,"max_jut":206.4396,"search_radius_m":500,"elev_angle_deg":44.5457}},{"type":"Feature","geometry":{"type":"Point","coordinates":[109.00880801309992,40.664172713531]},"properties":{"peak_name":"1566无名峰(1)","peak_elev":1566,"peak_lon":109.002879,"peak_lat":40.662017,"base_elev":1218,"distance_m":555.6,"vertical_relief_m":348.0,"max_jut":184.9688,"search_radius_m":875,"elev_angle_deg":32.061}},{"type":"Feature","geometry":{"type":"Point","coordinates":[108.8584300345383,40.6431521358826]},"properties":{"peak_name":"1584无名峰","peak_elev":1584,"peak_lon":108.862472,"peak_lat":40.650698,"base_elev":1053,"distance_m":905.0,"vertical_relief_m":531.0,"max_jut":268.5633,"search_radius_m":1500,"elev_angle_deg":30.4019}},{"type":"Feature","geometry":{"type":"Point","coordinates":[108.8937338252042,40.68977469912841]},"properties":{"peak_name":"1591无名峰","peak_elev":1591,"peak_lon":108.890769,"peak_lat":40.69085311889648,"base_elev":1385,"distance_m":277.8,"vertical_relief_m":206.0,"max_jut":122.8605,"search_radius_m":375,"elev_angle_deg":36.5584}},{"type":"Feature","geometry":{"type":"Point","coordinates":[108.9080170382217,40.6423436521269]},"properties":{"peak_name":"1597无名峰","peak_elev":1597,"peak_lon":108.910712,"peak_lat":40.6498908996582,"base_elev":1148,"distance_m":868.6,"vertical_relief_m":449.0,"max_jut":206.0185,"search_radius_m":1250,"elev_angle_deg":27.3355}},{"type":"Feature","geometry":{"type":"Point","coordinates":[110.96345223981558,40.70648336341303]},"properties":{"peak_name":"1602无名峰","peak_elev":1602,"peak_lon":110.955098,"peak_lat":40.706483,"base_elev":1118,"distance_m":706.0,"vertical_relief_m":484.0,"max_jut":274.1472,"search_radius_m":1000,"elev_angle_deg":34.4327}},{"type":"Feature","geometry":{"type":"Point","coordinates":[109.09531577496062,40.67495249694044]},"properties":{"peak_name":"1603无名峰","peak_elev":1603,"peak_lon":109.089117,"peak_lat":40.674414,"base_elev":1226,"distance_m":527.5,"vertical_relief_m":377.0,"max_jut":219.5729,"search_radius_m":875,"elev_angle_deg":35.5531}},{"type":"Feature","geometry":{"type":"Point","coordinates":[110.93758075963294,40.69543408541836]},"properties":{"peak_name":"1606无名峰","peak_elev":1606,"peak_lon":110.943779,"peak_lat":40.698399,"base_elev":1181,"distance_m":618.7,"vertical_relief_m":425.0,"max_jut":240.865,"search_radius_m":750,"elev_angle_deg":34.4861}},{"type":"Feature","geometry":{"type":"Point","coordinates":[109.3168403240245,41.0738044830895]},"properties":{"peak_name":"1611无名峰","peak_elev":1611,"peak_lon":109.316706,"peak_lat":41.075958251953125,"base_elev":1428,"distance_m":239.5,"vertical_relief_m":183.0,"max_jut":111.033,"search_radius_m":375,"elev_angle_deg":37.3832}},{"type":"Feature","geometry":{"type":"Point","coordinates":[109.31818779695068,41.06706711845861]},"properties":{"peak_name":"1612无名峰","peak_elev":1612,"peak_lon":109.318457,"peak_lat":41.070571,"base_elev":1401,"distance_m":389.8,"vertical_relief_m":211.0,"max_jut":100.3506,"search_radius_m":500,"elev_angle_deg":28.4268}},{"type":"Feature","geometry":{"type":"Point","coordinates":[109.51545783334332,41.18591423054762]},"properties":{"peak_name":"1613无名峰","peak_elev":1613,"peak_lon":109.515458,"peak_lat":41.18806838989258,"base_elev":1444,"distance_m":239.2,"vertical_relief_m":169.0,"max_jut":97.4282,"search_radius_m":375,"elev_angle_deg":35.242}},{"type":"Feature","geometry":{"type":"Point","coordinates":[109.61274537861348,40.68761874244652]},"properties":{"peak_name":"1614无名峰","peak_elev":1614,"peak_lon":109.609511,"peak_lat":40.696108,"base_elev":1211,"distance_m":981.6,"vertical_relief_m":403.0,"max_jut":152.9287,"search_radius_m":1000,"elev_angle_deg":22.3208}},{"type":"Feature","geometry":{"type":"Point","coordinates":[108.78216306691655,40.660669283922935]},"properties":{"peak_name":"1616无名峰","peak_elev":1616,"peak_lon":108.783645,"peak_lat":40.668485,"base_elev":1080,"distance_m":876.9,"vertical_relief_m":536.0,"max_jut":279.2842,"search_radius_m":1750,"elev_angle_deg":31.4351}},{"type":"Feature","geometry":{"type":"Point","coordinates":[109.30471306768888,41.14522054817701]},"properties":{"peak_name":"1622无名峰","peak_elev":1622,"peak_lon":109.308755,"peak_lat":41.147107,"base_elev":1375,"distance_m":398.8,"vertical_relief_m":247.0,"max_jut":130.2044,"search_radius_m":500,"elev_angle_deg":31.7723}},{"type":"Feature","geometry":{"type":"Point","coordinates":[110.56810368327456,40.627521449938925]},"properties":{"peak_name":"1628无名峰","peak_elev":1628,"peak_lon":110.574033,"peak_lat":40.627791,"base_elev":1265,"distance_m":502.6,"vertical_relief_m":363.0,"max_jut":212.9036,"search_radius_m":1125,"elev_angle_deg":35.8385}},{"type":"Feature","geometry":{"type":"Point","coordinates":[109.08103256194312,40.67603047528138]},"properties":{"peak_name":"1638无名峰","peak_elev":1638,"peak_lon":109.085883,"peak_lat":40.679803,"base_elev":1214,"distance_m":586.2,"vertical_relief_m":424.0,"max_jut":248.5787,"search_radius_m":750,"elev_angle_deg":35.8783}},{"type":"Feature","geometry":{"type":"Point","coordinates":[108.79725476368976,40.66525069187195]},"properties":{"peak_name":"1639无名峰","peak_elev":1639,"peak_lon":108.803453,"peak_lat":40.66579055786133,"base_elev":1211,"distance_m":527.5,"vertical_relief_m":428.0,"max_jut":270.0635,"search_radius_m":875,"elev_angle_deg":39.055}},{"type":"Feature","geometry":{"type":"Point","coordinates":[108.95356162312656,40.65824383265581]},"properties":{"peak_name":"1640无名峰","peak_elev":1640,"peak_lon":108.95719909667967,"peak_lat":40.657435,"base_elev":1328,"distance_m":320.5,"vertical_relief_m":312.0,"max_jut":217.8956,"search_radius_m":750,"elev_angle_deg":44.2301}},{"type":"Feature","geometry":{"type":"Point","coordinates":[110.47917047014674,40.63371982539935]},"properties":{"peak_name":"1643无名峰","peak_elev":1643,"peak_lon":110.479305,"peak_lat":40.63048553466797,"base_elev":1388,"distance_m":359.3,"vertical_relief_m":255.0,"max_jut":147.4446,"search_radius_m":500,"elev_angle_deg":35.3638}},{"type":"Feature","geometry":{"type":"Point","coordinates":[110.68829826828976,40.6784559265485]},"properties":{"peak_name":"1648无名峰","peak_elev":1648,"peak_lon":110.68209838867188,"peak_lat":40.678456,"base_elev":1249,"distance_m":524.2,"vertical_relief_m":399.0,"max_jut":242.064,"search_radius_m":750,"elev_angle_deg":37.2769}},{"type":"Feature","geometry":{"type":"Point","coordinates":[109.02928960157784,40.73127686525473]},"properties":{"peak_name":"1650无名峰","peak_elev":1650,"peak_lon":109.0317153930664,"peak_lat":40.73100662231445,"base_elev":1453,"distance_m":207.1,"vertical_relief_m":197.0,"max_jut":135.949,"search_radius_m":500,"elev_angle_deg":43.5683}},{"type":"Feature","geometry":{"type":"Point","coordinates":[110.54304068684765,40.6385707279336]},"properties":{"peak_name":"1654无名峰","peak_elev":1654,"peak_lon":110.545736,"peak_lat":40.640727,"base_elev":1347,"distance_m":330.6,"vertical_relief_m":307.0,"max_jut":208.9494,"search_radius_m":375,"elev_angle_deg":42.8802}},{"type":"Feature","geometry":{"type":"Point","coordinates":[110.98258635536732,40.74556007827223]},"properties":{"peak_name":"1667无名峰","peak_elev":1667,"peak_lon":110.98797607421876,"peak_lat":40.741248,"base_elev":1335,"distance_m":660.7,"vertical_relief_m":332.0,"max_jut":149.127,"search_radius_m":1250,"elev_angle_deg":26.6794}},{"type":"Feature","geometry":{"type":"Point","coordinates":[110.707971373012,40.62536549325704]},"properties":{"peak_name":"1670无名峰(2)","peak_elev":1670,"peak_lon":110.701234,"peak_lat":40.6215934753418,"base_elev":1096,"distance_m":707.4,"vertical_relief_m":574.0,"max_jut":361.9216,"search_radius_m":875,"elev_angle_deg":39.0566}},{"type":"Feature","geometry":{"type":"Point","coordinates":[108.9462852693252,40.65635737055917]},"properties":{"peak_name":"1675无名峰","peak_elev":1675,"peak_lon":108.939278,"peak_lat":40.65797424316406,"base_elev":1298,"distance_m":619.2,"vertical_relief_m":377.0,"max_jut":196.3737,"search_radius_m":1000,"elev_angle_deg":31.3352}},{"type":"Feature","geometry":{"type":"Point","coordinates":[109.60439104647116,41.171361522944885]},"properties":{"peak_name":"1683无名峰","peak_elev":1683,"peak_lon":109.608433,"peak_lat":41.171901,"base_elev":1474,"distance_m":344.4,"vertical_relief_m":209.0,"max_jut":108.6149,"search_radius_m":625,"elev_angle_deg":31.2516}},{"type":"Feature","geometry":{"type":"Point","coordinates":[109.24758021561888,41.14926296695554]},"properties":{"peak_name":"1691无名峰","peak_elev":1691,"peak_lon":109.250814,"peak_lat":41.153036,"base_elev":1406,"distance_m":499.3,"vertical_relief_m":285.0,"max_jut":141.278,"search_radius_m":625,"elev_angle_deg":29.7177}},{"type":"Feature","geometry":{"type":"Point","coordinates":[109.26078545029544,41.1511494290522]},"properties":{"peak_name":"1697无名峰","peak_elev":1697,"peak_lon":109.261324,"peak_lat":41.153844,"base_elev":1495,"distance_m":302.6,"vertical_relief_m":202.0,"max_jut":112.0504,"search_radius_m":625,"elev_angle_deg":33.725}},{"type":"Feature","geometry":{"type":"Point","coordinates":[110.72575801563757,40.64045719003025]},"properties":{"peak_name":"1700无名峰","peak_elev":1700,"peak_lon":110.719021,"peak_lat":40.63883972167969,"base_elev":1242,"distance_m":597.5,"vertical_relief_m":458.0,"max_jut":279.0032,"search_radius_m":875,"elev_angle_deg":37.4711}},{"type":"Feature","geometry":{"type":"Point","coordinates":[110.99094068750964,40.8452730748095]},"properties":{"peak_name":"1703无名峰","peak_elev":1703,"peak_lon":110.988515,"peak_lat":40.848777,"base_elev":1411,"distance_m":439.6,"vertical_relief_m":292.0,"max_jut":161.5107,"search_radius_m":625,"elev_angle_deg":33.5937}},{"type":"Feature","geometry":{"type":"Point","coordinates":[109.02201324777648,40.67387451859949]},"properties":{"peak_name":"1704无名峰","peak_elev":1704,"peak_lon":109.017162,"peak_lat":40.67764663696289,"base_elev":1324,"distance_m":586.3,"vertical_relief_m":380.0,"max_jut":206.7729,"search_radius_m":625,"elev_angle_deg":32.9486}},{"type":"Feature","geometry":{"type":"Point","coordinates":[108.83633147854896,40.64773354383161]},"properties":{"peak_name":"1708无名峰","peak_elev":1708,"peak_lon":108.838487,"peak_lat":40.658244,"base_elev":1046,"distance_m":1181.3,"vertical_relief_m":662.0,"max_jut":323.3251,"search_radius_m":2500,"elev_angle_deg":29.2663}},{"type":"Feature","geometry":{"type":"Point","coordinates":[109.43460945777257,40.67037108899142]},"properties":{"peak_name":"1714无名峰","peak_elev":1714,"peak_lon":109.4292221069336,"peak_lat":40.670641,"base_elev":1369,"distance_m":456.5,"vertical_relief_m":345.0,"max_jut":208.3461,"search_radius_m":500,"elev_angle_deg":37.0802}},{"type":"Feature","geometry":{"type":"Point","coordinates":[110.4390157769466,40.62671296618322]},"properties":{"peak_name":"1716无名峰","peak_elev":1716,"peak_lon":110.44737243652344,"peak_lat":40.629408,"base_elev":1204,"distance_m":767.8,"vertical_relief_m":512.0,"max_jut":284.4554,"search_radius_m":875,"elev_angle_deg":33.697}},{"type":"Feature","geometry":{"type":"Point","coordinates":[110.92168057910402,40.90159744312379]},"properties":{"peak_name":"1718无名峰","peak_elev":1718,"peak_lon":110.91952514648438,"peak_lat":40.902675,"base_elev":1565,"distance_m":217.5,"vertical_relief_m":153.0,"max_jut":88.1128,"search_radius_m":375,"elev_angle_deg":35.1244}},{"type":"Feature","geometry":{"type":"Point","coordinates":[109.28396198462572,40.68249834532704]},"properties":{"peak_name":"1725无名峰","peak_elev":1725,"peak_lon":109.273721,"peak_lat":40.68923568725586,"base_elev":1235,"distance_m":1144.2,"vertical_relief_m":490.0,"max_jut":193.0459,"search_radius_m":1375,"elev_angle_deg":23.1829}},{"type":"Feature","geometry":{"type":"Point","coordinates":[108.83013310308854,40.64854202758732]},"properties":{"peak_name":"1727无名峰","peak_elev":1727,"peak_lon":108.83174896240234,"peak_lat":40.658782958984375,"base_elev":1041,"distance_m":1145.4,"vertical_relief_m":686.0,"max_jut":352.1433,"search_radius_m":2000,"elev_angle_deg":30.9181}},{"type":"Feature","geometry":{"type":"Point","coordinates":[110.97827444200357,40.75526188334072]},"properties":{"peak_name":"1734无名峰","peak_elev":1734,"peak_lon":110.972076,"peak_lat":40.742326,"base_elev":1212,"distance_m":1528.9,"vertical_relief_m":522.0,"max_jut":168.5283,"search_radius_m":2000,"elev_angle_deg":18.851}},{"type":"Feature","geometry":{"type":"Point","coordinates":[109.20607804949256,40.6746830023552]},"properties":{"peak_name":"1746无名峰","peak_elev":1746,"peak_lon":109.196646,"peak_lat":40.679534,"base_elev":1211,"distance_m":962.3,"vertical_relief_m":535.0,"max_jut":260.2259,"search_radius_m":1000,"elev_angle_deg":29.0723}},{"type":"Feature","geometry":{"type":"Point","coordinates":[110.526332022563,40.65474040304775]},"properties":{"peak_name":"1754无名峰(1)","peak_elev":1754,"peak_lon":110.530644,"peak_lat":40.647195,"base_elev":1283,"distance_m":913.8,"vertical_relief_m":471.0,"max_jut":215.662,"search_radius_m":1500,"elev_angle_deg":27.2679}},{"type":"Feature","geometry":{"type":"Point","coordinates":[110.51204880954552,40.6318333633027]},"properties":{"peak_name":"1755无名峰","peak_elev":1755,"peak_lon":110.525793,"peak_lat":40.64126586914063,"base_elev":1106,"distance_m":1564.9,"vertical_relief_m":649.0,"max_jut":248.796,"search_radius_m":1875,"elev_angle_deg":22.5249}},{"type":"Feature","geometry":{"type":"Point","coordinates":[110.71902065100666,40.77143155845487]},"properties":{"peak_name":"1764无名峰","peak_elev":1764,"peak_lon":110.716056,"peak_lat":40.773318,"base_elev":1553,"distance_m":326.4,"vertical_relief_m":211.0,"max_jut":114.6303,"search_radius_m":375,"elev_angle_deg":32.8805}},{"type":"Feature","geometry":{"type":"Point","coordinates":[109.4680267863418,40.67198805650284]},"properties":{"peak_name":"1773无名峰","peak_elev":1773,"peak_lon":109.465871,"peak_lat":40.67764663696289,"base_elev":1361,"distance_m":654.3,"vertical_relief_m":412.0,"max_jut":219.3776,"search_radius_m":1375,"elev_angle_deg":32.1978}},{"type":"Feature","geometry":{"type":"Point","coordinates":[110.81792516378822,40.66174726226388]},"properties":{"peak_name":"1786无名峰","peak_elev":1786,"peak_lon":110.828166,"peak_lat":40.664306640625,"base_elev":1226,"distance_m":911.4,"vertical_relief_m":560.0,"max_jut":293.624,"search_radius_m":1375,"elev_angle_deg":31.5682}},{"type":"Feature","geometry":{"type":"Point","coordinates":[110.40694592130352,40.61539419360331]},"properties":{"peak_name":"1787无名峰","peak_elev":1787,"peak_lon":110.39967346191406,"peak_lat":40.6215934753418,"base_elev":1364,"distance_m":923.4,"vertical_relief_m":423.0,"max_jut":176.2316,"search_radius_m":2000,"elev_angle_deg":24.612}},{"type":"Feature","geometry":{"type":"Point","coordinates":[110.63197389997548,40.82856441052488]},"properties":{"peak_name":"1790无名峰","peak_elev":1790,"peak_lon":110.627662,"peak_lat":40.82856369018555,"base_elev":1610,"distance_m":363.7,"vertical_relief_m":180.0,"max_jut":80.0014,"search_radius_m":375,"elev_angle_deg":26.3314}},{"type":"Feature","geometry":{"type":"Point","coordinates":[109.58283147965228,40.730737876084255]},"properties":{"peak_name":"1795无名峰","peak_elev":1795,"peak_lon":109.580137,"peak_lat":40.72804260253906,"base_elev":1498,"distance_m":376.0,"vertical_relief_m":297.0,"max_jut":184.096,"search_radius_m":750,"elev_angle_deg":38.305}},{"type":"Feature","geometry":{"type":"Point","coordinates":[109.33759140708766,40.664711702701474]},"properties":{"peak_name":"1798无名峰","peak_elev":1798,"peak_lon":109.334627,"peak_lat":40.669158,"base_elev":1407,"distance_m":553.7,"vertical_relief_m":391.0,"max_jut":225.4532,"search_radius_m":750,"elev_angle_deg":35.2282}},{"type":"Feature","geometry":{"type":"Point","coordinates":[110.6764405065394,40.62698246076845]},"properties":{"peak_name":"1803无名峰","peak_elev":1803,"peak_lon":110.679944,"peak_lat":40.630351,"base_elev":1441,"distance_m":477.3,"vertical_relief_m":362.0,"max_jut":218.7854,"search_radius_m":500,"elev_angle_deg":37.1779}},{"type":"Feature","geometry":{"type":"Point","coordinates":[110.53630332221674,40.6574353489001]},"properties":{"peak_name":"1806无名峰","peak_elev":1806,"peak_lon":110.541963,"peak_lat":40.65258407592773,"base_elev":1390,"distance_m":720.6,"vertical_relief_m":416.0,"max_jut":208.032,"search_radius_m":750,"elev_angle_deg":29.9977}},{"type":"Feature","geometry":{"type":"Point","coordinates":[109.42652462021547,40.6671371539686]},"properties":{"peak_name":"1811无名峰","peak_elev":1811,"peak_lon":109.420057,"peak_lat":40.668754,"base_elev":1419,"distance_m":575.6,"vertical_relief_m":392.0,"max_jut":220.9825,"search_radius_m":625,"elev_angle_deg":34.256}},{"type":"Feature","geometry":{"type":"Point","coordinates":[110.86104429742596,40.70055448253784]},"properties":{"peak_name":"1812无名峰","peak_elev":1812,"peak_lon":110.852959,"peak_lat":40.701093,"base_elev":1293,"distance_m":685.9,"vertical_relief_m":519.0,"max_jut":313.6551,"search_radius_m":875,"elev_angle_deg":37.1137}},{"type":"Feature","geometry":{"type":"Point","coordinates":[109.32465566699634,40.72076657643053]},"properties":{"peak_name":"1815无名峰","peak_elev":1815,"peak_lon":109.319805,"peak_lat":40.722384,"base_elev":1530,"distance_m":447.5,"vertical_relief_m":285.0,"max_jut":153.3176,"search_radius_m":625,"elev_angle_deg":32.4919}},{"type":"Feature","geometry":{"type":"Point","coordinates":[110.28351740126551,40.813742208336905]},"properties":{"peak_name":"1818无名峰","peak_elev":1818,"peak_lon":110.287829,"peak_lat":40.815629,"base_elev":1575,"distance_m":419.8,"vertical_relief_m":243.0,"max_jut":121.882,"search_radius_m":500,"elev_angle_deg":30.0643}},{"type":"Feature","geometry":{"type":"Point","coordinates":[110.56945115620076,40.64153516837119]},"properties":{"peak_name":"1823无名峰","peak_elev":1827,"peak_lon":110.564196,"peak_lat":40.64544296264648,"base_elev":1336,"distance_m":621.2,"vertical_relief_m":491.0,"max_jut":304.5864,"search_radius_m":1000,"elev_angle_deg":38.323}},{"type":"Feature","geometry":{"type":"Point","coordinates":[109.37343418692404,40.68707975327605]},"properties":{"peak_name":"1829无名峰","peak_elev":1829,"peak_lon":109.379767,"peak_lat":40.68680953979492,"base_elev":1464,"distance_m":536.2,"vertical_relief_m":365.0,"max_jut":205.755,"search_radius_m":625,"elev_angle_deg":34.2438}},{"type":"Feature","geometry":{"type":"Point","coordinates":[110.72818346690468,40.637762244177885]},"properties":{"peak_name":"1834无名峰","peak_elev":1834,"peak_lon":110.737256,"peak_lat":40.63883972167969,"base_elev":1228,"distance_m":776.7,"vertical_relief_m":606.0,"max_jut":373.3309,"search_radius_m":1125,"elev_angle_deg":37.9622}},{"type":"Feature","geometry":{"type":"Point","coordinates":[110.60313797935524,40.729120908572845]},"properties":{"peak_name":"1836无名峰","peak_elev":1836,"peak_lon":110.599365234375,"peak_lat":40.731816,"base_elev":1582,"distance_m":437.2,"vertical_relief_m":254.0,"max_jut":127.6655,"search_radius_m":500,"elev_angle_deg":30.1553}},{"type":"Feature","geometry":{"type":"Point","coordinates":[110.86050530825548,40.68761874244652]},"properties":{"peak_name":"1840无名峰","peak_elev":1840,"peak_lon":110.853498,"peak_lat":40.68303680419922,"base_elev":1226,"distance_m":780.9,"vertical_relief_m":614.0,"max_jut":379.7202,"search_radius_m":875,"elev_angle_deg":38.177}},{"type":"Feature","geometry":{"type":"Point","coordinates":[108.90074068442031,40.714568200970106]},"properties":{"peak_name":"1842无名峰","peak_elev":1842,"peak_lon":108.900471,"peak_lat":40.711334228515625,"base_elev":1582,"distance_m":359.9,"vertical_relief_m":260.0,"max_jut":152.1389,"search_radius_m":375,"elev_angle_deg":35.8452}},{"type":"Feature","geometry":{"type":"Point","coordinates":[110.6193076544694,40.62913841745034]},"properties":{"peak_name":"1843无名峰","peak_elev":1843,"peak_lon":110.616613,"peak_lat":40.63372039794922,"base_elev":1432,"distance_m":557.6,"vertical_relief_m":411.0,"max_jut":243.7634,"search_radius_m":625,"elev_angle_deg":36.3935}},{"type":"Feature","geometry":{"type":"Point","coordinates":[110.87209357542062,40.782211341864304]},"properties":{"peak_name":"1848无名峰","peak_elev":1848,"peak_lon":110.876136,"peak_lat":40.78302001953125,"base_elev":1550,"distance_m":352.8,"vertical_relief_m":298.0,"max_jut":192.5384,"search_radius_m":625,"elev_angle_deg":40.1868}},{"type":"Feature","geometry":{"type":"Point","coordinates":[108.92014429455732,40.69705105292977]},"properties":{"peak_name":"1849无名峰","peak_elev":1849,"peak_lon":108.912598,"peak_lat":40.697051,"base_elev":1514,"distance_m":637.8,"vertical_relief_m":335.0,"max_jut":156.0853,"search_radius_m":875,"elev_angle_deg":27.7104}},{"type":"Feature","geometry":{"type":"Point","coordinates":[110.70231198672204,40.627521449938925]},"properties":{"peak_name":"1852无名峰","peak_elev":1852,"peak_lon":110.686142,"peak_lat":40.62455749511719,"base_elev":1124,"distance_m":1407.2,"vertical_relief_m":728.0,"max_jut":335.1265,"search_radius_m":1875,"elev_angle_deg":27.3543}},{"type":"Feature","geometry":{"type":"Point","coordinates":[110.5877767879968,40.633450330814114]},"properties":{"peak_name":"1853无名峰","peak_elev":1853,"peak_lon":110.600713,"peak_lat":40.63129425048828,"base_elev":1236,"distance_m":1120.3,"vertical_relief_m":617.0,"max_jut":298.1897,"search_radius_m":1250,"elev_angle_deg":28.8436}},{"type":"Feature","geometry":{"type":"Point","coordinates":[110.62065512739557,40.62347903116039]},"properties":{"peak_name":"1854无名峰","peak_elev":1854,"peak_lon":110.629548,"peak_lat":40.627252,"base_elev":1286,"distance_m":861.2,"vertical_relief_m":568.0,"max_jut":313.0835,"search_radius_m":875,"elev_angle_deg":33.4066}},{"type":"Feature","geometry":{"type":"Point","coordinates":[110.59262769053105,40.643691125053074]},"properties":{"peak_name":"1864无名峰","peak_elev":1864,"peak_lon":110.589933,"peak_lat":40.648812,"base_elev":1349,"distance_m":612.6,"vertical_relief_m":515.0,"max_jut":331.2359,"search_radius_m":750,"elev_angle_deg":40.0531}},{"type":"Feature","geometry":{"type":"Point","coordinates":[109.2130849087087,40.68950520454317]},"properties":{"peak_name":"1870无名峰","peak_elev":1870,"peak_lon":109.198263,"peak_lat":40.689505,"base_elev":1284,"distance_m":1252.9,"vertical_relief_m":586.0,"max_jut":248.7899,"search_radius_m":2500,"elev_angle_deg":25.0662}},{"type":"Feature","geometry":{"type":"Point","coordinates":[108.90640007071028,40.70917830926539]},"properties":{"peak_name":"1872无名峰","peak_elev":1872,"peak_lon":108.905187,"peak_lat":40.707022,"base_elev":1644,"distance_m":260.5,"vertical_relief_m":228.0,"max_jut":150.109,"search_radius_m":750,"elev_angle_deg":41.1937}},{"type":"Feature","geometry":{"type":"Point","coordinates":[109.0726782298008,40.68357632366799]},"properties":{"peak_name":"1876无名峰","peak_elev":1876,"peak_lon":109.062707,"peak_lat":40.686271,"base_elev":1335,"distance_m":894.5,"vertical_relief_m":541.0,"max_jut":280.4237,"search_radius_m":1750,"elev_angle_deg":31.1658}},{"type":"Feature","geometry":{"type":"Point","coordinates":[110.62335007324792,40.63102487954699]},"properties":{"peak_name":"1881无名峰(2)","peak_elev":1881,"peak_lon":110.629009,"peak_lat":40.633989,"base_elev":1494,"distance_m":581.0,"vertical_relief_m":387.0,"max_jut":214.7392,"search_radius_m":625,"elev_angle_deg":33.6673}},{"type":"Feature","geometry":{"type":"Point","coordinates":[108.9050525977841,40.69893751502643]},"properties":{"peak_name":"1882无名峰","peak_elev":1882,"peak_lon":108.90990447998048,"peak_lat":40.703249,"base_elev":1558,"distance_m":630.4,"vertical_relief_m":324.0,"max_jut":148.1486,"search_radius_m":875,"elev_angle_deg":27.2013}},{"type":"Feature","geometry":{"type":"Point","coordinates":[110.64383166172586,40.61269924775095]},"properties":{"peak_name":"1885无名峰","peak_elev":1885,"peak_lon":110.656498,"peak_lat":40.618898,"base_elev":1138,"distance_m":1273.8,"vertical_relief_m":747.0,"max_jut":378.2756,"search_radius_m":1875,"elev_angle_deg":30.3888}},{"type":"Feature","geometry":{"type":"Point","coordinates":[109.36049844683272,40.67414401318473]},"properties":{"peak_name":"1906无名峰","peak_elev":1906,"peak_lon":109.345407,"peak_lat":40.672797,"base_elev":1325,"distance_m":1284.7,"vertical_relief_m":581.0,"max_jut":239.9027,"search_radius_m":1375,"elev_angle_deg":24.3347}},{"type":"Feature","geometry":{"type":"Point","coordinates":[110.89473112058045,40.76119076421591]},"properties":{"peak_name":"1908无名峰","peak_elev":1908,"peak_lon":110.88449096679688,"peak_lat":40.75094985961914,"base_elev":1393,"distance_m":1428.7,"vertical_relief_m":515.0,"max_jut":174.6561,"search_radius_m":1500,"elev_angle_deg":19.8226}},{"type":"Feature","geometry":{"type":"Point","coordinates":[109.06378490848805,40.691930655810296]},"properties":{"peak_name":"1911无名峰","peak_elev":1911,"peak_lon":109.0592041015625,"peak_lat":40.691122,"base_elev":1533,"distance_m":397.5,"vertical_relief_m":378.0,"max_jut":260.8117,"search_radius_m":500,"elev_angle_deg":43.5596}},{"type":"Feature","geometry":{"type":"Point","coordinates":[110.59855657140622,40.73774473530039]},"properties":{"peak_name":"1916无名峰","peak_elev":1916,"peak_lon":110.600443,"peak_lat":40.739631,"base_elev":1712,"distance_m":263.2,"vertical_relief_m":204.0,"max_jut":124.985,"search_radius_m":1750,"elev_angle_deg":37.7784}},{"type":"Feature","geometry":{"type":"Point","coordinates":[110.8772139725401,40.75014148622124]},"properties":{"peak_name":"1923无名峰","peak_elev":1923,"peak_lon":110.878292,"peak_lat":40.74717712402344,"base_elev":1674,"distance_m":341.6,"vertical_relief_m":249.0,"max_jut":146.5868,"search_radius_m":375,"elev_angle_deg":36.0892}},{"type":"Feature","geometry":{"type":"Point","coordinates":[110.6201161382251,40.62320953657515]},"properties":{"peak_name":"1926无名峰","peak_elev":1926,"peak_lon":110.609606,"peak_lat":40.631025,"base_elev":1282,"distance_m":1242.6,"vertical_relief_m":644.0,"max_jut":296.4966,"search_radius_m":1250,"elev_angle_deg":27.3963}},{"type":"Feature","geometry":{"type":"Point","coordinates":[110.72575801563757,40.69866802044119]},"properties":{"peak_name":"1929无名峰","peak_elev":1929,"peak_lon":110.723872,"peak_lat":40.695704,"base_elev":1613,"distance_m":365.7,"vertical_relief_m":316.0,"max_jut":206.5313,"search_radius_m":1000,"elev_angle_deg":40.8302}},{"type":"Feature","geometry":{"type":"Point","coordinates":[110.68991523580118,40.65527939221822]},"properties":{"peak_name":"1932无名峰","peak_elev":1932,"peak_lon":110.672668,"peak_lat":40.646386,"base_elev":1169,"distance_m":1761.6,"vertical_relief_m":763.0,"max_jut":303.5807,"search_radius_m":2250,"elev_angle_deg":23.4188}},{"type":"Feature","geometry":{"type":"Point","coordinates":[108.99182985423003,40.68707975327605]},"properties":{"peak_name":"1934无名峰","peak_elev":1934,"peak_lon":108.988596,"peak_lat":40.688158,"base_elev":1660,"distance_m":298.4,"vertical_relief_m":274.0,"max_jut":185.5018,"search_radius_m":375,"elev_angle_deg":42.5591}},{"type":"Feature","geometry":{"type":"Point","coordinates":[109.2508141506417,40.6965120637593]},"properties":{"peak_name":"1936无名峰","peak_elev":1936,"peak_lon":109.241921,"peak_lat":40.699477,"base_elev":1395,"distance_m":820.6,"vertical_relief_m":541.0,"max_jut":298.1839,"search_radius_m":1000,"elev_angle_deg":33.3958}},{"type":"Feature","geometry":{"type":"Point","coordinates":[110.93677227587725,40.71888011433388]},"properties":{"peak_name":"1937无名峰","peak_elev":1937,"peak_lon":110.926801,"peak_lat":40.717802,"base_elev":1405,"distance_m":851.0,"vertical_relief_m":532.0,"max_jut":282.5157,"search_radius_m":1250,"elev_angle_deg":32.0114}},{"type":"Feature","geometry":{"type":"Point","coordinates":[109.3807105407254,40.67252704567331]},"properties":{"peak_name":"1954无名峰","peak_elev":1954,"peak_lon":109.400114,"peak_lat":40.675491,"base_elev":1357,"distance_m":1673.2,"vertical_relief_m":597.0,"max_jut":201.0502,"search_radius_m":4500,"elev_angle_deg":19.6365}},{"type":"Feature","geometry":{"type":"Point","coordinates":[109.23168003508997,40.70917830926539]},"properties":{"peak_name":"1962无名峰","peak_elev":1962,"peak_lon":109.243538,"peak_lat":40.710391,"base_elev":1436,"distance_m":1011.0,"vertical_relief_m":526.0,"max_jut":243.2401,"search_radius_m":1250,"elev_angle_deg":27.4869}},{"type":"Feature","geometry":{"type":"Point","coordinates":[110.989054225413,40.835571269741]},"properties":{"peak_name":"1966无名峰","peak_elev":1966,"peak_lon":110.981508,"peak_lat":40.83098983764648,"base_elev":1537,"distance_m":814.9,"vertical_relief_m":429.0,"max_jut":200.0139,"search_radius_m":1500,"elev_angle_deg":27.7643}},{"type":"Feature","geometry":{"type":"Point","coordinates":[110.99228816043582,40.881654843816335]},"properties":{"peak_name":"1977无名峰","peak_elev":1977,"peak_lon":110.984877,"peak_lat":40.886506,"base_elev":1593,"distance_m":824.9,"vertical_relief_m":384.0,"max_jut":162.1885,"search_radius_m":3000,"elev_angle_deg":24.9625}},{"type":"Feature","geometry":{"type":"Point","coordinates":[110.59262769053105,40.643691125053074]},"properties":{"peak_name":"1998无名峰","peak_elev":1998,"peak_lon":110.585621,"peak_lat":40.656627,"base_elev":1349,"distance_m":1553.9,"vertical_relief_m":649.0,"max_jut":249.9566,"search_radius_m":1625,"elev_angle_deg":22.6683}},{"type":"Feature","geometry":{"type":"Point","coordinates":[110.9036244418932,40.68438480742369]},"properties":{"peak_name":"2004无名峰(2)","peak_elev":2004,"peak_lon":110.89015197753906,"peak_lat":40.682768,"base_elev":1253,"distance_m":1153.0,"vertical_relief_m":751.0,"max_jut":410.5883,"search_radius_m":1625,"elev_angle_deg":33.078}},{"type":"Feature","geometry":{"type":"Point","coordinates":[110.85781036240311,40.78706224439855]},"properties":{"peak_name":"2007无名峰","peak_elev":2007,"peak_lon":110.851612,"peak_lat":40.786254,"base_elev":1654,"distance_m":530.8,"vertical_relief_m":353.0,"max_jut":195.8011,"search_radius_m":875,"elev_angle_deg":33.6253}},{"type":"Feature","geometry":{"type":"Point","coordinates":[110.56136631864368,40.68761874244652]},"properties":{"peak_name":"2009无名峰","peak_elev":2009,"peak_lon":110.55947875976562,"peak_lat":40.679803,"base_elev":1594,"distance_m":882.5,"vertical_relief_m":415.0,"max_jut":176.4352,"search_radius_m":2250,"elev_angle_deg":25.1855}},{"type":"Feature","geometry":{"type":"Point","coordinates":[110.84568310606753,40.77897740684148]},"properties":{"peak_name":"2010无名峰","peak_elev":2010,"peak_lon":110.848648,"peak_lat":40.781133,"base_elev":1708,"distance_m":346.3,"vertical_relief_m":302.0,"max_jut":198.5631,"search_radius_m":375,"elev_angle_deg":41.0909}},{"type":"Feature","geometry":{"type":"Point","coordinates":[110.84271866562992,40.788948706495205]},"properties":{"peak_name":"2011无名峰","peak_elev":2011,"peak_lon":110.844875,"peak_lat":40.791644,"base_elev":1763,"distance_m":350.3,"vertical_relief_m":248.0,"max_jut":143.2733,"search_radius_m":375,"elev_angle_deg":35.2971}},{"type":"Feature","geometry":{"type":"Point","coordinates":[110.53468635470531,40.683306829082746]},"properties":{"peak_name":"2012无名峰","peak_elev":2012,"peak_lon":110.554629,"peak_lat":40.677378,"base_elev":1447,"distance_m":1810.0,"vertical_relief_m":565.0,"max_jut":168.6656,"search_radius_m":2750,"elev_angle_deg":17.336}},{"type":"Feature","geometry":{"type":"Point","coordinates":[110.74623960411547,40.70890881468015]},"properties":{"peak_name":"2022无名峰","peak_elev":2022,"peak_lon":110.755672,"peak_lat":40.705675,"base_elev":1563,"distance_m":874.3,"vertical_relief_m":459.0,"max_jut":213.6776,"search_radius_m":875,"elev_angle_deg":27.6991}},{"type":"Feature","geometry":{"type":"Point","coordinates":[110.70824086759724,40.66821513230954]},"properties":{"peak_name":"2025无名峰","peak_elev":2025,"peak_lon":110.721177,"peak_lat":40.662286,"base_elev":1335,"distance_m":1276.7,"vertical_relief_m":690.0,"max_jut":328.4344,"search_radius_m":1875,"elev_angle_deg":28.3893}},{"type":"Feature","geometry":{"type":"Point","coordinates":[110.68883725746024,40.65635737055917]},"properties":{"peak_name":"2026无名峰","peak_elev":2026,"peak_lon":110.659462,"peak_lat":40.659591,"base_elev":1172,"distance_m":2510.0,"vertical_relief_m":854.0,"max_jut":275.6876,"search_radius_m":3500,"elev_angle_deg":18.7903}},{"type":"Feature","geometry":{"type":"Point","coordinates":[109.40846848300468,40.65770484348534]},"properties":{"peak_name":"2029无名峰","peak_elev":2029,"peak_lon":109.399036,"peak_lat":40.667407,"base_elev":1306,"distance_m":1340.5,"vertical_relief_m":723.0,"max_jut":343.2246,"search_radius_m":3000,"elev_angle_deg":28.3402}},{"type":"Feature","geometry":{"type":"Point","coordinates":[109.37801559487303,40.69381711790695]},"properties":{"peak_name":"2030无名峰","peak_elev":2030,"peak_lon":109.383944,"peak_lat":40.698129,"base_elev":1604,"distance_m":693.1,"vertical_relief_m":426.0,"max_jut":223.1888,"search_radius_m":1000,"elev_angle_deg":31.5761}},{"type":"Feature","geometry":{"type":"Point","coordinates":[110.66781667981184,40.62536549325704]},"properties":{"peak_name":"2041无名峰(2)","peak_elev":2041,"peak_lon":110.653803,"peak_lat":40.629408,"base_elev":1314,"distance_m":1267.8,"vertical_relief_m":727.0,"max_jut":362.2135,"search_radius_m":1625,"elev_angle_deg":29.8314}},{"type":"Feature","geometry":{"type":"Point","coordinates":[110.9268009762235,40.70190195546402]},"properties":{"peak_name":"2042无名峰","peak_elev":2042,"peak_lon":110.910901,"peak_lat":40.710795,"base_elev":1293,"distance_m":1667.5,"vertical_relief_m":749.0,"max_jut":307.2016,"search_radius_m":6250,"elev_angle_deg":24.1884}},{"type":"Feature","geometry":{"type":"Point","coordinates":[110.76645169800815,40.62455700950133]},"properties":{"peak_name":"2046无名峰","peak_elev":2046,"peak_lon":110.749743,"peak_lat":40.64800262451172,"base_elev":1031,"distance_m":2962.5,"vertical_relief_m":1015.0,"max_jut":328.859,"search_radius_m":4750,"elev_angle_deg":18.9123}},{"type":"Feature","geometry":{"type":"Point","coordinates":[110.84756956816416,40.71888011433388]},"properties":{"peak_name":"2047无名峰(2)","peak_elev":2047,"peak_lon":110.855654,"peak_lat":40.728851,"base_elev":1404,"distance_m":1301.0,"vertical_relief_m":643.0,"max_jut":284.8486,"search_radius_m":1500,"elev_angle_deg":26.3002}},{"type":"Feature","geometry":{"type":"Point","coordinates":[110.68883725746024,40.65635737055917]},"properties":{"peak_name":"2050无名峰","peak_elev":2041,"peak_lon":110.665256,"peak_lat":40.657301,"base_elev":1172,"distance_m":1997.0,"vertical_relief_m":869.0,"max_jut":347.4789,"search_radius_m":3000,"elev_angle_deg":23.5164}},{"type":"Feature","geometry":{"type":"Point","coordinates":[110.82062010964056,40.681420366986096]},"properties":{"peak_name":"2051无名峰(1)","peak_elev":2051,"peak_lon":110.830591,"peak_lat":40.68465423583984,"base_elev":1484,"distance_m":916.2,"vertical_relief_m":567.0,"max_jut":298.798,"search_radius_m":1125,"elev_angle_deg":31.7517}},{"type":"Feature","geometry":{"type":"Point","coordinates":[110.54034574099528,40.65824383265581]},"properties":{"peak_name":"2052无名峰","peak_elev":2052,"peak_lon":110.552608,"peak_lat":40.668754,"base_elev":1434,"distance_m":1561.2,"vertical_relief_m":618.0,"max_jut":227.5412,"search_radius_m":1625,"elev_angle_deg":21.5961}},{"type":"Feature","geometry":{"type":"Point","coordinates":[110.6209246219808,40.60946531272812]},"properties":{"peak_name":"2055无名峰","peak_elev":2055,"peak_lon":110.633456,"peak_lat":40.652315,"base_elev":1077,"distance_m":4875.0,"vertical_relief_m":978.0,"max_jut":192.1591,"search_radius_m":8750,"elev_angle_deg":11.3438}},{"type":"Feature","geometry":{"type":"Point","coordinates":[109.12334321182514,40.68303733449751]},"properties":{"peak_name":"2064无名峰","peak_elev":2064,"peak_lon":109.114585,"peak_lat":40.695704,"base_elev":1299,"distance_m":1589.5,"vertical_relief_m":765.0,"max_jut":331.6267,"search_radius_m":1750,"elev_angle_deg":25.7007}},{"type":"Feature","geometry":{"type":"Point","coordinates":[110.30858039769244,40.82101856213827]},"properties":{"peak_name":"2067无名峰","peak_elev":2067,"peak_lon":110.309658,"peak_lat":40.82559967041016,"base_elev":1806,"distance_m":516.8,"vertical_relief_m":261.0,"max_jut":117.5502,"search_radius_m":3250,"elev_angle_deg":26.7952}},{"type":"Feature","geometry":{"type":"Point","coordinates":[110.9389282325591,40.80053697366034]},"properties":{"peak_name":"2069无名峰","peak_elev":2069,"peak_lon":110.949439,"peak_lat":40.81266403198242,"base_elev":1377,"distance_m":1612.5,"vertical_relief_m":692.0,"max_jut":272.8721,"search_radius_m":1875,"elev_angle_deg":23.2265}},{"type":"Feature","geometry":{"type":"Point","coordinates":[110.74354465826312,40.70001549336737]},"properties":{"peak_name":"2073无名峰","peak_elev":2073,"peak_lon":110.743545,"peak_lat":40.695704,"base_elev":1711,"distance_m":478.8,"vertical_relief_m":362.0,"max_jut":218.139,"search_radius_m":500,"elev_angle_deg":37.0914}},{"type":"Feature","geometry":{"type":"Point","coordinates":[109.35133563093468,40.68546278576464]},"properties":{"peak_name":"2079无名峰","peak_elev":2079,"peak_lon":109.353492,"peak_lat":40.696512,"base_elev":1547,"distance_m":1240.5,"vertical_relief_m":532.0,"max_jut":209.471,"search_radius_m":1375,"elev_angle_deg":23.2125}},{"type":"Feature","geometry":{"type":"Point","coordinates":[110.86427823244878,40.708369825509685]},"properties":{"peak_name":"2081无名峰","peak_elev":2081,"peak_lon":110.884221,"peak_lat":40.722384,"base_elev":1315,"distance_m":2293.8,"vertical_relief_m":766.0,"max_jut":242.8103,"search_radius_m":4750,"elev_angle_deg":18.4664}},{"type":"Feature","geometry":{"type":"Point","coordinates":[109.392837797061,40.68357632366799]},"properties":{"peak_name":"2083无名峰(2)","peak_elev":2083,"peak_lon":109.39148712158205,"peak_lat":40.688697,"base_elev":1623,"distance_m":580.0,"vertical_relief_m":460.0,"max_jut":285.6389,"search_radius_m":750,"elev_angle_deg":38.4181}},{"type":"Feature","geometry":{"type":"Point","coordinates":[108.9853619841844,40.67387451859949]},"properties":{"peak_name":"2084无名峰","peak_elev":2084,"peak_lon":108.991291,"peak_lat":40.703519,"base_elev":1260,"distance_m":3329.9,"vertical_relief_m":824.0,"max_jut":197.7039,"search_radius_m":10000,"elev_angle_deg":13.8989}},{"type":"Feature","geometry":{"type":"Point","coordinates":[110.8801784129777,40.809430294973126]},"properties":{"peak_name":"2099无名峰","peak_elev":2099,"peak_lon":110.889072,"peak_lat":40.81509017944336,"base_elev":1619,"distance_m":978.8,"vertical_relief_m":480.0,"max_jut":211.5059,"search_radius_m":2000,"elev_angle_deg":26.1232}},{"type":"Feature","geometry":{"type":"Point","coordinates":[110.86454772703402,40.708100330924445]},"properties":{"peak_name":"2100无名峰","peak_elev":2100,"peak_lon":110.893923,"peak_lat":40.722384,"base_elev":1315,"distance_m":2945.6,"vertical_relief_m":785.0,"max_jut":202.4271,"search_radius_m":5250,"elev_angle_deg":14.9225}},{"type":"Feature","geometry":{"type":"Point","coordinates":[108.9810500708206,40.67522199152568]},"properties":{"peak_name":"2107无名峰","peak_elev":2107,"peak_lon":108.977816,"peak_lat":40.69462585449219,"base_elev":1297,"distance_m":2172.1,"vertical_relief_m":810.0,"max_jut":282.7144,"search_radius_m":9250,"elev_angle_deg":20.451}},{"type":"Feature","geometry":{"type":"Point","coordinates":[110.81819465837346,40.6671371539686]},"properties":{"peak_name":"2109无名峰","peak_elev":2109,"peak_lon":110.830861,"peak_lat":40.67791748046875,"base_elev":1283,"distance_m":1606.3,"vertical_relief_m":826.0,"max_jut":377.8712,"search_radius_m":1625,"elev_angle_deg":27.2134}},{"type":"Feature","geometry":{"type":"Point","coordinates":[109.4394603603068,40.66578968104242]},"properties":{"peak_name":"2112无名峰","peak_elev":2112,"peak_lon":109.409007,"peak_lat":40.682364,"base_elev":1203,"distance_m":3165.0,"vertical_relief_m":909.0,"max_jut":251.2309,"search_radius_m":4750,"elev_angle_deg":16.0243}},{"type":"Feature","geometry":{"type":"Point","coordinates":[109.00126216471332,40.69300863415124]},"properties":{"peak_name":"2115无名峰(1)","peak_elev":2115,"peak_lon":108.996411,"peak_lat":40.694895,"base_elev":1731,"distance_m":460.4,"vertical_relief_m":384.0,"max_jut":246.1967,"search_radius_m":500,"elev_angle_deg":39.83}},{"type":"Feature","geometry":{"type":"Point","coordinates":[110.86751216747162,40.749602497050766]},"properties":{"peak_name":"2116无名峰(2)","peak_elev":2116,"peak_lon":110.865895,"peak_lat":40.74259567260742,"base_elev":1666,"distance_m":790.0,"vertical_relief_m":450.0,"max_jut":222.5282,"search_radius_m":1625,"elev_angle_deg":29.6667}},{"type":"Feature","geometry":{"type":"Point","coordinates":[108.9869789516958,40.67225755108808]},"properties":{"peak_name":"2124无名峰","peak_elev":2124,"peak_lon":109.00260925292967,"peak_lat":40.712951,"base_elev":1244,"distance_m":4708.1,"vertical_relief_m":880.0,"max_jut":161.5274,"search_radius_m":10000,"elev_angle_deg":10.5871}},{"type":"Feature","geometry":{"type":"Point","coordinates":[109.06755783268132,40.702440944634496]},"properties":{"peak_name":"2126无名峰","peak_elev":2126,"peak_lon":109.04761505126952,"peak_lat":40.698129,"base_elev":1385,"distance_m":1752.2,"vertical_relief_m":741.0,"max_jut":289.1691,"search_radius_m":2250,"elev_angle_deg":22.9234}},{"type":"Feature","geometry":{"type":"Point","coordinates":[110.61822967612844,40.60677036687576]},"properties":{"peak_name":"2127无名峰","peak_elev":2127,"peak_lon":110.626315,"peak_lat":40.662825,"base_elev":1047,"distance_m":6262.2,"vertical_relief_m":1080.0,"max_jut":183.3236,"search_radius_m":9000,"elev_angle_deg":9.7852}},{"type":"Feature","geometry":{"type":"Point","coordinates":[109.06674934892564,40.7032494283902]},"properties":{"peak_name":"2129无名峰","peak_elev":2129,"peak_lon":109.041956,"peak_lat":40.701632,"base_elev":1394,"distance_m":2103.0,"vertical_relief_m":735.0,"max_jut":243.0376,"search_radius_m":2750,"elev_angle_deg":19.2646}},{"type":"Feature","geometry":{"type":"Point","coordinates":[110.92814844914967,40.81967108921209]},"properties":{"peak_name":"2135无名峰","peak_elev":2135,"peak_lon":110.925049,"peak_lat":40.82856369018555,"base_elev":1655,"distance_m":1021.6,"vertical_relief_m":480.0,"max_jut":203.9532,"search_radius_m":1250,"elev_angle_deg":25.1665}},{"type":"Feature","geometry":{"type":"Point","coordinates":[109.2664448365854,40.70136296629355]},"properties":{"peak_name":"2137无名峰(1)","peak_elev":2137,"peak_lon":109.257552,"peak_lat":40.717533111572266,"base_elev":1442,"distance_m":1946.6,"vertical_relief_m":695.0,"max_jut":233.5423,"search_radius_m":2250,"elev_angle_deg":19.6482}},{"type":"Feature","geometry":{"type":"Point","coordinates":[110.80256397242977,40.68168986157133]},"properties":{"peak_name":"2139无名峰","peak_elev":2139,"peak_lon":110.796096,"peak_lat":40.681959,"base_elev":1717,"distance_m":547.6,"vertical_relief_m":422.0,"max_jut":257.9998,"search_radius_m":625,"elev_angle_deg":37.6191}},{"type":"Feature","geometry":{"type":"Point","coordinates":[110.68883725746024,40.65635737055917]},"properties":{"peak_name":"2145无名峰","peak_elev":2145,"peak_lon":110.63385772705078,"peak_lat":40.659591,"base_elev":1172,"distance_m":4663.4,"vertical_relief_m":973.0,"max_jut":199.2184,"search_radius_m":8500,"elev_angle_deg":11.7855}},{"type":"Feature","geometry":{"type":"Point","coordinates":[110.66000133684,40.63452830915506]},"properties":{"peak_name":"2148无名峰","peak_elev":2148,"peak_lon":110.653803,"peak_lat":40.639649,"base_elev":1581,"distance_m":773.5,"vertical_relief_m":567.0,"max_jut":335.3166,"search_radius_m":1000,"elev_angle_deg":36.2426}},{"type":"Feature","geometry":{"type":"Point","coordinates":[110.84837805191988,40.70729184716874]},"properties":{"peak_name":"2159无名峰","peak_elev":2159,"peak_lon":110.819812,"peak_lat":40.705405,"base_elev":1365,"distance_m":2423.1,"vertical_relief_m":794.0,"max_jut":247.7994,"search_radius_m":4000,"elev_angle_deg":18.1429}},{"type":"Feature","geometry":{"type":"Point","coordinates":[110.90254646355228,40.691661161225056]},"properties":{"peak_name":"2160无名峰(2)","peak_elev":2160,"peak_lon":110.887724,"peak_lat":40.700824,"base_elev":1341,"distance_m":1614.0,"vertical_relief_m":819.0,"max_jut":370.9226,"search_radius_m":1750,"elev_angle_deg":26.9048}},{"type":"Feature","geometry":{"type":"Point","coordinates":[109.13843490859836,40.702440944634496]},"properties":{"peak_name":"2164无名峰","peak_elev":2164,"peak_lon":109.142208,"peak_lat":40.718072,"base_elev":1543,"distance_m":1764.9,"vertical_relief_m":621.0,"max_jut":205.9066,"search_radius_m":10000,"elev_angle_deg":19.385}},{"type":"Feature","geometry":{"type":"Point","coordinates":[110.86912913498304,40.81455069209261]},"properties":{"peak_name":"2171无名峰","peak_elev":2171,"peak_lon":110.873441,"peak_lat":40.825869,"base_elev":1636,"distance_m":1308.5,"vertical_relief_m":535.0,"max_jut":202.3021,"search_radius_m":1375,"elev_angle_deg":22.2379}},{"type":"Feature","geometry":{"type":"Point","coordinates":[110.63978924294732,40.638031738763125]},"properties":{"peak_name":"2177无名峰(2)","peak_elev":2177,"peak_lon":110.649222,"peak_lat":40.644769,"base_elev":1568,"distance_m":1093.8,"vertical_relief_m":609.0,"max_jut":296.4225,"search_radius_m":6750,"elev_angle_deg":29.1079}},{"type":"Feature","geometry":{"type":"Point","coordinates":[110.84837805191988,40.70729184716874]},"properties":{"peak_name":"2180无名峰","peak_elev":2180,"peak_lon":110.814691,"peak_lat":40.706483,"base_elev":1365,"distance_m":2848.2,"vertical_relief_m":815.0,"max_jut":224.736,"search_radius_m":4500,"elev_angle_deg":15.9682}},{"type":"Feature","geometry":{"type":"Point","coordinates":[109.17319971009378,40.68276783991227]},"properties":{"peak_name":"2184无名峰","peak_elev":2184,"peak_lon":109.164576,"peak_lat":40.717533111572266,"base_elev":1253,"distance_m":3928.8,"vertical_relief_m":931.0,"max_jut":214.4319,"search_radius_m":10000,"elev_angle_deg":13.3314}},{"type":"Feature","geometry":{"type":"Point","coordinates":[110.91440422530265,40.85012397734374]},"properties":{"peak_name":"2187无名峰(3)","peak_elev":2187,"peak_lon":110.906589,"peak_lat":40.832876,"base_elev":1571,"distance_m":2025.6,"vertical_relief_m":616.0,"max_jut":179.0749,"search_radius_m":4500,"elev_angle_deg":16.9149}},{"type":"Feature","geometry":{"type":"Point","coordinates":[110.7923231781908,40.65312343553633]},"properties":{"peak_name":"2195无名峰(2)","peak_elev":2195,"peak_lon":110.792727,"peak_lat":40.673066,"base_elev":1207,"distance_m":2214.9,"vertical_relief_m":988.0,"max_jut":402.054,"search_radius_m":2250,"elev_angle_deg":24.0402}},{"type":"Feature","geometry":{"type":"Point","coordinates":[109.17319971009378,40.68276783991227]},"properties":{"peak_name":"2197无名峰","peak_elev":2197,"peak_lon":109.17292785644533,"peak_lat":40.718072,"base_elev":1253,"distance_m":3920.6,"vertical_relief_m":944.0,"max_jut":220.7085,"search_radius_m":10000,"elev_angle_deg":13.538}},{"type":"Feature","geometry":{"type":"Point","coordinates":[109.16915729131524,40.691661161225056]},"properties":{"peak_name":"2200无名峰","peak_elev":2200,"peak_lon":109.15433502197266,"peak_lat":40.700285,"base_elev":1397,"distance_m":1576.9,"vertical_relief_m":803.0,"max_jut":364.7208,"search_radius_m":1625,"elev_angle_deg":26.9864}},{"type":"Feature","geometry":{"type":"Point","coordinates":[110.7810044056109,40.63075538496175]},"properties":{"peak_name":"2205无名峰(1)","peak_elev":2205,"peak_lon":110.758502,"peak_lat":40.65797424316406,"base_elev":1022,"distance_m":3572.0,"vertical_relief_m":1183.0,"max_jut":371.873,"search_radius_m":5750,"elev_angle_deg":18.3242}},{"type":"Feature","geometry":{"type":"Point","coordinates":[109.17319971009378,40.68276783991227]},"properties":{"peak_name":"2210无名峰","peak_elev":2210,"peak_lon":109.186944,"peak_lat":40.708909,"base_elev":1253,"distance_m":3126.8,"vertical_relief_m":957.0,"max_jut":279.8885,"search_radius_m":10000,"elev_angle_deg":17.0174}},{"type":"Feature","geometry":{"type":"Point","coordinates":[109.17319971009378,40.68276783991227]},"properties":{"peak_name":"2219无名峰","peak_elev":2219,"peak_lon":109.158647,"peak_lat":40.717263,"base_elev":1253,"distance_m":4023.3,"vertical_relief_m":966.0,"max_jut":225.3322,"search_radius_m":10000,"elev_angle_deg":13.5012}},{"type":"Feature","geometry":{"type":"Point","coordinates":[110.93542480295103,40.8099692841436]},"properties":{"peak_name":"2220无名峰","peak_elev":2220,"peak_lon":110.943779,"peak_lat":40.822366,"base_elev":1518,"distance_m":1546.6,"vertical_relief_m":702.0,"max_jut":290.0303,"search_radius_m":2750,"elev_angle_deg":24.4132}},{"type":"Feature","geometry":{"type":"Point","coordinates":[109.14059086528025,40.702440944634496]},"properties":{"peak_name":"2223无名峰","peak_elev":2223,"peak_lon":109.155413,"peak_lat":40.705136,"base_elev":1568,"distance_m":1287.9,"vertical_relief_m":655.0,"max_jut":297.4838,"search_radius_m":1375,"elev_angle_deg":26.957}},{"type":"Feature","geometry":{"type":"Point","coordinates":[110.8486475465051,40.7070223525835]},"properties":{"peak_name":"2226无名峰","peak_elev":2226,"peak_lon":110.829783,"peak_lat":40.698668,"base_elev":1362,"distance_m":1844.6,"vertical_relief_m":864.0,"max_jut":366.9447,"search_radius_m":3000,"elev_angle_deg":25.0981}},{"type":"Feature","geometry":{"type":"Point","coordinates":[109.00880801309992,40.68546278576464]},"properties":{"peak_name":"2227无名峰","peak_elev":2227,"peak_lon":109.003418,"peak_lat":40.70136260986328,"base_elev":1430,"distance_m":1823.5,"vertical_relief_m":797.0,"max_jut":318.9061,"search_radius_m":7250,"elev_angle_deg":23.6088}},{"type":"Feature","geometry":{"type":"Point","coordinates":[110.59963454974717,40.68869672078746]},"properties":{"peak_name":"2228无名峰","peak_elev":2228,"peak_lon":110.600713,"peak_lat":40.677378,"base_elev":1660,"distance_m":1260.2,"vertical_relief_m":568.0,"max_jut":233.1419,"search_radius_m":2750,"elev_angle_deg":24.2621}},{"type":"Feature","geometry":{"type":"Point","coordinates":[110.79259267277604,40.650428489683975]},"properties":{"peak_name":"2229无名峰","peak_elev":2229,"peak_lon":110.768473,"peak_lat":40.676569,"base_elev":1164,"distance_m":3547.8,"vertical_relief_m":1065.0,"max_jut":306.2084,"search_radius_m":8500,"elev_angle_deg":16.709}},{"type":"Feature","geometry":{"type":"Point","coordinates":[110.79259267277604,40.650428489683975]},"properties":{"peak_name":"2234无名峰","peak_elev":2234,"peak_lon":110.782352,"peak_lat":40.68680953979492,"base_elev":1164,"distance_m":4131.8,"vertical_relief_m":1070.0,"max_jut":267.9594,"search_radius_m":9000,"elev_angle_deg":14.5188}},{"type":"Feature","geometry":{"type":"Point","coordinates":[110.79259267277604,40.650428489683975]},"properties":{"peak_name":"2243无名峰","peak_elev":2243,"peak_lon":110.768877,"peak_lat":40.683576,"base_elev":1164,"distance_m":4191.8,"vertical_relief_m":1079.0,"max_jut":268.8801,"search_radius_m":8750,"elev_angle_deg":14.435}},{"type":"Feature","geometry":{"type":"Point","coordinates":[109.13789591942788,40.702171450049256]},"properties":{"peak_name":"2245无名峰","peak_elev":2245,"peak_lon":109.133045,"peak_lat":40.717263,"base_elev":1539,"distance_m":1725.3,"vertical_relief_m":706.0,"max_jut":267.1279,"search_radius_m":10000,"elev_angle_deg":22.2546}},{"type":"Feature","geometry":{"type":"Point","coordinates":[109.00988599144084,40.68357632366799]},"properties":{"peak_name":"2249无名峰(1)","peak_elev":2249,"peak_lon":109.019588,"peak_lat":40.705675,"base_elev":1395,"distance_m":2587.4,"vertical_relief_m":854.0,"max_jut":267.4473,"search_radius_m":6250,"elev_angle_deg":18.266}},{"type":"Feature","geometry":{"type":"Point","coordinates":[110.61957714905462,40.68815773161699]},"properties":{"peak_name":"2253无名峰","peak_elev":2253,"peak_lon":110.610684,"peak_lat":40.674144,"base_elev":1615,"distance_m":1728.3,"vertical_relief_m":638.0,"max_jut":220.8256,"search_radius_m":2500,"elev_angle_deg":20.2616}},{"type":"Feature","geometry":{"type":"Point","coordinates":[109.445389241182,40.71564617931105]},"properties":{"peak_name":"2255","peak_elev":2263,"peak_lon":109.435957,"peak_lat":40.717802,"base_elev":1767,"distance_m":832.2,"vertical_relief_m":496.0,"max_jut":254.3697,"search_radius_m":3000,"elev_angle_deg":30.7954}},{"type":"Feature","geometry":{"type":"Point","coordinates":[110.7877417702418,40.69974599878213]},"properties":{"peak_name":"2258无名峰","peak_elev":2258,"peak_lon":110.789089,"peak_lat":40.695434,"base_elev":1906,"distance_m":492.2,"vertical_relief_m":352.0,"max_jut":204.6119,"search_radius_m":625,"elev_angle_deg":35.5707}},{"type":"Feature","geometry":{"type":"Point","coordinates":[109.20446108198114,40.70297993380496]},"properties":{"peak_name":"2259无名峰","peak_elev":2259,"peak_lon":109.189504,"peak_lat":40.714568,"base_elev":1513,"distance_m":1803.7,"vertical_relief_m":746.0,"max_jut":285.2619,"search_radius_m":10000,"elev_angle_deg":22.4697}},{"type":"Feature","geometry":{"type":"Point","coordinates":[109.45751649751762,40.69381711790695]},"properties":{"peak_name":"2260无名峰","peak_elev":2260,"peak_lon":109.4292221069336,"peak_lat":40.71214294433594,"base_elev":1359,"distance_m":3140.0,"vertical_relief_m":901.0,"max_jut":248.7396,"search_radius_m":10000,"elev_angle_deg":16.0104}},{"type":"Feature","geometry":{"type":"Point","coordinates":[110.7575583766954,40.83449329140007]},"properties":{"peak_name":"2264无名峰","peak_elev":2267,"peak_lon":110.748261,"peak_lat":40.823848,"base_elev":1795,"distance_m":1418.7,"vertical_relief_m":472.0,"max_jut":148.9884,"search_radius_m":2500,"elev_angle_deg":18.4022}},{"type":"Feature","geometry":{"type":"Point","coordinates":[110.78073491102566,40.63048589037652]},"properties":{"peak_name":"2267无名峰","peak_elev":2267,"peak_lon":110.748126,"peak_lat":40.676029205322266,"base_elev":1020,"distance_m":5760.6,"vertical_relief_m":1247.0,"max_jut":263.7383,"search_radius_m":6750,"elev_angle_deg":12.2144}},{"type":"Feature","geometry":{"type":"Point","coordinates":[110.77049411678672,40.70001549336737]},"properties":{"peak_name":"2287无名峰","peak_elev":2287,"peak_lon":110.760792,"peak_lat":40.69219970703125,"base_elev":1682,"distance_m":1194.0,"vertical_relief_m":605.0,"max_jut":273.5473,"search_radius_m":8750,"elev_angle_deg":26.8713}},{"type":"Feature","geometry":{"type":"Point","coordinates":[110.69853906252872,40.66956260523572]},"properties":{"peak_name":"2290无名峰","peak_elev":2290,"peak_lon":110.749474,"peak_lat":40.685193,"base_elev":1209,"distance_m":4642.9,"vertical_relief_m":1081.0,"max_jut":245.6206,"search_radius_m":7000,"elev_angle_deg":13.1066}},{"type":"Feature","geometry":{"type":"Point","coordinates":[110.77911794351424,40.65447090846251]},"properties":{"peak_name":"2295无名峰","peak_elev":2295,"peak_lon":110.76456451416016,"peak_lat":40.659591,"base_elev":1474,"distance_m":1355.8,"vertical_relief_m":821.0,"max_jut":425.8585,"search_radius_m":1375,"elev_angle_deg":31.1969}},{"type":"Feature","geometry":{"type":"Point","coordinates":[109.13008057645604,40.691930655810296]},"properties":{"peak_name":"2319无名峰","peak_elev":2319,"peak_lon":109.112833,"peak_lat":40.707561,"base_elev":1388,"distance_m":2266.6,"vertical_relief_m":931.0,"max_jut":353.823,"search_radius_m":8000,"elev_angle_deg":22.3303}},{"type":"Feature","geometry":{"type":"Point","coordinates":[110.79259267277604,40.650428489683975]},"properties":{"peak_name":"2328无名峰","peak_elev":2328,"peak_lon":110.755941,"peak_lat":40.686002,"base_elev":1164,"distance_m":5020.9,"vertical_relief_m":1164.0,"max_jut":262.9391,"search_radius_m":8250,"elev_angle_deg":13.0524}},{"type":"Feature","geometry":{"type":"Point","coordinates":[109.4394603603068,40.66578968104242]},"properties":{"peak_name":"2344无名峰","peak_elev":2344,"peak_lon":109.405774,"peak_lat":40.696782,"base_elev":1203,"distance_m":4467.1,"vertical_relief_m":1141.0,"max_jut":282.4625,"search_radius_m":8250,"elev_angle_deg":14.3283}},{"type":"Feature","geometry":{"type":"Point","coordinates":[110.60825837647472,40.95360989807431]},"properties":{"peak_name":"2351无名峰","peak_elev":2351,"peak_lon":110.618769,"peak_lat":40.975978,"base_elev":1801,"distance_m":2636.9,"vertical_relief_m":550.0,"max_jut":112.2116,"search_radius_m":5250,"elev_angle_deg":11.7817}}]}