{"type":"FeatureCollection","features":[{"type":"Feature","geometry":{"type":"Point","coordinates":[114.0270666847768,39.06364437181525]},"properties":{"peak_name":"1004无名峰","peak_elev":1004,"peak_lon":114.020329,"peak_lat":39.062835693359375,"base_elev":534,"distance_m":590.0,"vertical_relief_m":470.0,"max_jut":293.2637,"search_radius_m":1125,"elev_angle_deg":38.5412}},{"type":"Feature","geometry":{"type":"Point","coordinates":[114.04485332740236,39.07442415522468]},"properties":{"peak_name":"1051无名峰","peak_elev":1051,"peak_lon":114.048087,"peak_lat":39.070382,"base_elev":690,"distance_m":528.9,"vertical_relief_m":361.0,"max_jut":203.4599,"search_radius_m":750,"elev_angle_deg":34.3154}},{"type":"Feature","geometry":{"type":"Point","coordinates":[114.0858165043582,39.00624202516001]},"properties":{"peak_name":"1074无名峰","peak_elev":1074,"peak_lon":114.084739,"peak_lat":39.010015,"base_elev":731,"distance_m":429.1,"vertical_relief_m":343.0,"max_jut":213.9686,"search_radius_m":1375,"elev_angle_deg":38.637}},{"type":"Feature","geometry":{"type":"Point","coordinates":[114.08393004226156,39.01648281939897]},"properties":{"peak_name":"1116无名峰","peak_elev":1116,"peak_lon":114.0788116455078,"peak_lat":39.01271057128906,"base_elev":710,"distance_m":609.8,"vertical_relief_m":406.0,"max_jut":225.0771,"search_radius_m":1625,"elev_angle_deg":33.6554}},{"type":"Feature","geometry":{"type":"Point","coordinates":[113.9497217388141,39.10110411916303]},"properties":{"peak_name":"马头山1122","peak_elev":1122,"peak_lon":113.955381,"peak_lat":39.107032775878906,"base_elev":704,"distance_m":820.3,"vertical_relief_m":418.0,"max_jut":189.7654,"search_radius_m":875,"elev_angle_deg":27.002}},{"type":"Feature","geometry":{"type":"Point","coordinates":[114.0871639772844,39.112153397157705]},"properties":{"peak_name":"高尖背1142","peak_elev":1142,"peak_lon":114.078001,"peak_lat":39.112153,"base_elev":749,"distance_m":792.5,"vertical_relief_m":393.0,"max_jut":174.9427,"search_radius_m":1000,"elev_angle_deg":26.3768}},{"type":"Feature","geometry":{"type":"Point","coordinates":[114.06237047544268,39.02510664612653]},"properties":{"peak_name":"1159无名峰","peak_elev":1159,"peak_lon":114.073689,"peak_lat":39.021064,"base_elev":624,"distance_m":1078.0,"vertical_relief_m":535.0,"max_jut":238.159,"search_radius_m":1250,"elev_angle_deg":26.3947}},{"type":"Feature","geometry":{"type":"Point","coordinates":[114.05698058373795,39.03480845119501]},"properties":{"peak_name":"1168无名峰(2)","peak_elev":1168,"peak_lon":114.049569,"peak_lat":39.038042,"base_elev":664,"distance_m":735.3,"vertical_relief_m":504.0,"max_jut":285.2392,"search_radius_m":1125,"elev_angle_deg":34.4281}},{"type":"Feature","geometry":{"type":"Point","coordinates":[113.96858635978062,39.04963065338298]},"properties":{"peak_name":"1202无名峰","peak_elev":1202,"peak_lon":113.9739761352539,"peak_lat":39.053808,"base_elev":728,"distance_m":657.8,"vertical_relief_m":474.0,"max_jut":277.1805,"search_radius_m":875,"elev_angle_deg":35.7759}},{"type":"Feature","geometry":{"type":"Point","coordinates":[114.06937733465882,39.03211350534266]},"properties":{"peak_name":"1219无名峰","peak_elev":1219,"peak_lon":114.076654,"peak_lat":39.038851,"base_elev":705,"distance_m":978.0,"vertical_relief_m":514.0,"max_jut":239.1499,"search_radius_m":1000,"elev_angle_deg":27.7247}},{"type":"Feature","geometry":{"type":"Point","coordinates":[114.17232426621892,39.01998624900704]},"properties":{"peak_name":"双尖顶山西峰1221","peak_elev":1221,"peak_lon":114.172594,"peak_lat":39.024568,"base_elev":839,"distance_m":509.2,"vertical_relief_m":382.0,"max_jut":229.0081,"search_radius_m":1000,"elev_angle_deg":36.8771}},{"type":"Feature","geometry":{"type":"Point","coordinates":[114.14618329145104,39.10218209750398]},"properties":{"peak_name":"陡沟顶1231","peak_elev":1231,"peak_lon":114.139176,"peak_lat":39.104608,"base_elev":827,"distance_m":663.3,"vertical_relief_m":404.0,"max_jut":210.4366,"search_radius_m":1500,"elev_angle_deg":31.3446}},{"type":"Feature","geometry":{"type":"Point","coordinates":[114.41675585502784,39.32020321695978]},"properties":{"peak_name":"1234无名峰","peak_elev":1234,"peak_lon":114.427266,"peak_lat":39.319125,"base_elev":769,"distance_m":914.2,"vertical_relief_m":465.0,"max_jut":211.2119,"search_radius_m":1250,"elev_angle_deg":26.9598}},{"type":"Feature","geometry":{"type":"Point","coordinates":[114.3871114506519,39.01324888437615]},"properties":{"peak_name":"1243无名峰","peak_elev":1243,"peak_lon":114.378488,"peak_lat":39.01810073852539,"base_elev":666,"distance_m":920.8,"vertical_relief_m":577.0,"max_jut":306.6135,"search_radius_m":1375,"elev_angle_deg":32.0725}},{"type":"Feature","geometry":{"type":"Point","coordinates":[113.98152209987194,39.012440400620434]},"properties":{"peak_name":"1249无名峰","peak_elev":1249,"peak_lon":113.978019,"peak_lat":39.005299,"base_elev":779,"distance_m":848.9,"vertical_relief_m":470.0,"max_jut":227.4662,"search_radius_m":1000,"elev_angle_deg":28.9714}},{"type":"Feature","geometry":{"type":"Point","coordinates":[114.14160188350203,39.07846657400322]},"properties":{"peak_name":"1266无名峰","peak_elev":1266,"peak_lon":114.141332,"peak_lat":39.076041,"base_elev":972,"distance_m":270.3,"vertical_relief_m":294.0,"max_jut":216.2773,"search_radius_m":875,"elev_angle_deg":47.4049}},{"type":"Feature","geometry":{"type":"Point","coordinates":[114.35881451920211,39.27304166454351]},"properties":{"peak_name":"1278无名峰","peak_elev":1278,"peak_lon":114.353694,"peak_lat":39.272637,"base_elev":960,"distance_m":444.1,"vertical_relief_m":318.0,"max_jut":185.421,"search_radius_m":750,"elev_angle_deg":35.6047}},{"type":"Feature","geometry":{"type":"Point","coordinates":[114.02275477141302,39.0722681985428]},"properties":{"peak_name":"1279无名峰","peak_elev":1279,"peak_lon":114.015209,"peak_lat":39.077389,"base_elev":634,"distance_m":865.8,"vertical_relief_m":645.0,"max_jut":385.5211,"search_radius_m":1625,"elev_angle_deg":36.6852}},{"type":"Feature","geometry":{"type":"Point","coordinates":[114.4253796817554,39.21402235037686]},"properties":{"peak_name":"1284无名峰","peak_elev":1284,"peak_lon":114.418373,"peak_lat":39.213483,"base_elev":985,"distance_m":608.1,"vertical_relief_m":299.0,"max_jut":132.1901,"search_radius_m":625,"elev_angle_deg":26.1831}},{"type":"Feature","geometry":{"type":"Point","coordinates":[114.290093399967,39.35308155635856]},"properties":{"peak_name":"1286无名峰","peak_elev":1286,"peak_lon":114.294405,"peak_lat":39.355506896972656,"base_elev":917,"distance_m":458.9,"vertical_relief_m":369.0,"max_jut":231.3755,"search_radius_m":750,"elev_angle_deg":38.8026}},{"type":"Feature","geometry":{"type":"Point","coordinates":[114.20924502439624,39.02510664612653]},"properties":{"peak_name":"1296无名峰","peak_elev":1296,"peak_lon":114.204664,"peak_lat":39.02322006225586,"base_elev":978,"distance_m":448.6,"vertical_relief_m":318.0,"max_jut":184.0934,"search_radius_m":500,"elev_angle_deg":35.3318}},{"type":"Feature","geometry":{"type":"Point","coordinates":[114.4148693929312,39.02834058114935]},"properties":{"peak_name":"1303无名峰(3)","peak_elev":1303,"peak_lon":114.411096,"peak_lat":39.028071,"base_elev":784,"distance_m":328.1,"vertical_relief_m":519.0,"max_jut":438.9869,"search_radius_m":750,"elev_angle_deg":57.6999}},{"type":"Feature","geometry":{"type":"Point","coordinates":[114.45421560237564,39.14206729611888]},"properties":{"peak_name":"1304无名峰","peak_elev":1304,"peak_lon":114.448017,"peak_lat":39.140181,"base_elev":968,"distance_m":575.4,"vertical_relief_m":336.0,"max_jut":169.6824,"search_radius_m":2250,"elev_angle_deg":30.2824}},{"type":"Feature","geometry":{"type":"Point","coordinates":[114.3954657827942,39.09167180867978]},"properties":{"peak_name":"1310无名峰","peak_elev":1310,"peak_lon":114.401934,"peak_lat":39.08574295043945,"base_elev":936,"distance_m":864.0,"vertical_relief_m":374.0,"max_jut":148.5888,"search_radius_m":875,"elev_angle_deg":23.4064}},{"type":"Feature","geometry":{"type":"Point","coordinates":[114.40570657703316,39.25229058148035]},"properties":{"peak_name":"南天门1314","peak_elev":1314,"peak_lon":114.395735,"peak_lat":39.253369,"base_elev":924,"distance_m":869.0,"vertical_relief_m":390.0,"max_jut":160.0018,"search_radius_m":1250,"elev_angle_deg":24.1701}},{"type":"Feature","geometry":{"type":"Point","coordinates":[113.98852895908809,39.118621267203366]},"properties":{"peak_name":"1319无名峰","peak_elev":1319,"peak_lon":114.007663,"peak_lat":39.117274,"base_elev":677,"distance_m":1661.5,"vertical_relief_m":642.0,"max_jut":231.8795,"search_radius_m":3500,"elev_angle_deg":21.1264}},{"type":"Feature","geometry":{"type":"Point","coordinates":[114.32593617980336,39.06822577976426]},"properties":{"peak_name":"1328无名峰","peak_elev":1328,"peak_lon":114.327014,"peak_lat":39.075772,"base_elev":914,"distance_m":842.9,"vertical_relief_m":414.0,"max_jut":182.2801,"search_radius_m":875,"elev_angle_deg":26.1585}},{"type":"Feature","geometry":{"type":"Point","coordinates":[114.22056379697614,38.996270725506285]},"properties":{"peak_name":"1330无名峰","peak_elev":1330,"peak_lon":114.219486,"peak_lat":39.010015,"base_elev":708,"distance_m":1528.7,"vertical_relief_m":622.0,"max_jut":234.0998,"search_radius_m":2000,"elev_angle_deg":22.1405}},{"type":"Feature","geometry":{"type":"Point","coordinates":[114.4156778766869,39.02160321651846]},"properties":{"peak_name":"1333无名峰","peak_elev":1333,"peak_lon":114.422146,"peak_lat":39.01782989501953,"base_elev":692,"distance_m":699.5,"vertical_relief_m":641.0,"max_jut":433.3038,"search_radius_m":1000,"elev_angle_deg":42.5012}},{"type":"Feature","geometry":{"type":"Point","coordinates":[114.094709825671,39.144492747386]},"properties":{"peak_name":"1335无名峰","peak_elev":1335,"peak_lon":114.10009765625,"peak_lat":39.145301,"base_elev":1065,"distance_m":474.3,"vertical_relief_m":270.0,"max_jut":133.799,"search_radius_m":500,"elev_angle_deg":29.6511}},{"type":"Feature","geometry":{"type":"Point","coordinates":[114.290093399967,39.32128119530073]},"properties":{"peak_name":"1337无名峰","peak_elev":1337,"peak_lon":114.28659057617188,"peak_lat":39.32586288452149,"base_elev":984,"distance_m":591.6,"vertical_relief_m":353.0,"max_jut":180.8134,"search_radius_m":750,"elev_angle_deg":30.824}},{"type":"Feature","geometry":{"type":"Point","coordinates":[114.2361944829198,39.01459635730232]},"properties":{"peak_name":"1339无名峰","peak_elev":1339,"peak_lon":114.218947,"peak_lat":39.017561,"base_elev":760,"distance_m":1529.6,"vertical_relief_m":579.0,"max_jut":205.387,"search_radius_m":2500,"elev_angle_deg":20.7332}},{"type":"Feature","geometry":{"type":"Point","coordinates":[113.8489307639359,39.08493444404888]},"properties":{"peak_name":"1344无名峰","peak_elev":1346,"peak_lon":113.854725,"peak_lat":39.086686,"base_elev":973,"distance_m":537.7,"vertical_relief_m":373.0,"max_jut":212.8751,"search_radius_m":875,"elev_angle_deg":34.7489}},{"type":"Feature","geometry":{"type":"Point","coordinates":[113.99661379664514,39.11053642964629]},"properties":{"peak_name":"1345无名峰","peak_elev":1345,"peak_lon":114.006585,"peak_lat":39.111345,"base_elev":852,"distance_m":867.1,"vertical_relief_m":493.0,"max_jut":244.1194,"search_radius_m":875,"elev_angle_deg":29.6209}},{"type":"Feature","geometry":{"type":"Point","coordinates":[114.13971542140538,39.0437017725078]},"properties":{"peak_name":"1351无名峰","peak_elev":1351,"peak_lon":114.144566,"peak_lat":39.042893,"base_elev":982,"distance_m":429.4,"vertical_relief_m":369.0,"max_jut":240.8019,"search_radius_m":625,"elev_angle_deg":40.6737}},{"type":"Feature","geometry":{"type":"Point","coordinates":[113.96427444641684,39.06391386640048]},"properties":{"peak_name":"1358无名峰","peak_elev":1358,"peak_lon":113.954573,"peak_lat":39.05825424194336,"base_elev":807,"distance_m":1048.7,"vertical_relief_m":551.0,"max_jut":256.4692,"search_radius_m":1500,"elev_angle_deg":27.718}},{"type":"Feature","geometry":{"type":"Point","coordinates":[114.36447390549208,39.31346585232889]},"properties":{"peak_name":"1360无名峰","peak_elev":1360,"peak_lon":114.35045623779295,"peak_lat":39.302417,"base_elev":769,"distance_m":1722.3,"vertical_relief_m":591.0,"max_jut":191.8822,"search_radius_m":1750,"elev_angle_deg":18.9394}},{"type":"Feature","geometry":{"type":"Point","coordinates":[113.98852895908809,39.11916025637384]},"properties":{"peak_name":"1362无名峰","peak_elev":1362,"peak_lon":114.006855,"peak_lat":39.122933,"base_elev":677,"distance_m":1639.2,"vertical_relief_m":685.0,"max_jut":264.6133,"search_radius_m":2750,"elev_angle_deg":22.6794}},{"type":"Feature","geometry":{"type":"Point","coordinates":[114.31003599927443,39.362513866841816]},"properties":{"peak_name":"棺材山1365","peak_elev":1365,"peak_lon":114.32081604003906,"peak_lat":39.360627,"base_elev":821,"distance_m":952.4,"vertical_relief_m":544.0,"max_jut":270.2763,"search_radius_m":1125,"elev_angle_deg":29.7345}},{"type":"Feature","geometry":{"type":"Point","coordinates":[113.9879899699176,39.11996874012954]},"properties":{"peak_name":"1366无名峰","peak_elev":1366,"peak_lon":114.000387,"peak_lat":39.127919,"base_elev":678,"distance_m":1388.6,"vertical_relief_m":688.0,"max_jut":305.6472,"search_radius_m":2000,"elev_angle_deg":26.3567}},{"type":"Feature","geometry":{"type":"Point","coordinates":[114.36285693798068,39.07954455234417]},"properties":{"peak_name":"1368无名峰","peak_elev":1368,"peak_lon":114.368516,"peak_lat":39.07617568969727,"base_elev":1010,"distance_m":616.2,"vertical_relief_m":358.0,"max_jut":179.9742,"search_radius_m":625,"elev_angle_deg":30.1557}},{"type":"Feature","geometry":{"type":"Point","coordinates":[114.30302914005831,39.328557549102094]},"properties":{"peak_name":"花山1376","peak_elev":1376,"peak_lon":114.31300354003906,"peak_lat":39.327749,"base_elev":893,"distance_m":864.7,"vertical_relief_m":483.0,"max_jut":235.9692,"search_radius_m":1625,"elev_angle_deg":29.1866}},{"type":"Feature","geometry":{"type":"Point","coordinates":[114.32593617980336,39.06768679059379]},"properties":{"peak_name":"1379无名峰","peak_elev":1379,"peak_lon":114.314348,"peak_lat":39.069573,"base_elev":902,"distance_m":1024.5,"vertical_relief_m":477.0,"max_jut":201.7147,"search_radius_m":3000,"elev_angle_deg":24.9664}},{"type":"Feature","geometry":{"type":"Point","coordinates":[114.36474340007732,39.3458052025572]},"properties":{"peak_name":"1382无名峰","peak_elev":1382,"peak_lon":114.372559,"peak_lat":39.3409538269043,"base_elev":972,"distance_m":862.6,"vertical_relief_m":410.0,"max_jut":176.135,"search_radius_m":875,"elev_angle_deg":25.4221}},{"type":"Feature","geometry":{"type":"Point","coordinates":[114.3089580209335,39.05232559923535]},"properties":{"peak_name":"1384无名峰(2)","peak_elev":1378,"peak_lon":114.313674,"peak_lat":39.061893463134766,"base_elev":847,"distance_m":1137.9,"vertical_relief_m":531.0,"max_jut":224.3424,"search_radius_m":1750,"elev_angle_deg":25.0161}},{"type":"Feature","geometry":{"type":"Point","coordinates":[113.90417715390925,39.15823697123304]},"properties":{"peak_name":"1386无名峰","peak_elev":1386,"peak_lon":113.905255,"peak_lat":39.163088,"base_elev":1004,"distance_m":546.6,"vertical_relief_m":382.0,"max_jut":218.6211,"search_radius_m":875,"elev_angle_deg":34.9484}},{"type":"Feature","geometry":{"type":"Point","coordinates":[114.0955183094267,39.14691819865313]},"properties":{"peak_name":"1389无名峰","peak_elev":1389,"peak_lon":114.09659576416016,"peak_lat":39.150422,"base_elev":1101,"distance_m":400.0,"vertical_relief_m":288.0,"max_jut":168.133,"search_radius_m":500,"elev_angle_deg":35.7539}},{"type":"Feature","geometry":{"type":"Point","coordinates":[114.3668993567592,39.227766574223885]},"properties":{"peak_name":"寨梁1394","peak_elev":1394,"peak_lon":114.367708,"peak_lat":39.232348,"base_elev":1063,"distance_m":513.4,"vertical_relief_m":331.0,"max_jut":179.1676,"search_radius_m":1750,"elev_angle_deg":32.8107}},{"type":"Feature","geometry":{"type":"Point","coordinates":[114.2052026056177,39.09382776536167]},"properties":{"peak_name":"1396无名峰","peak_elev":1396,"peak_lon":114.205472,"peak_lat":39.098140716552734,"base_elev":1075,"distance_m":479.4,"vertical_relief_m":321.0,"max_jut":178.4071,"search_radius_m":1000,"elev_angle_deg":33.8057}},{"type":"Feature","geometry":{"type":"Point","coordinates":[113.94675729837653,39.06903426351997]},"properties":{"peak_name":"1397无名峰","peak_elev":1397,"peak_lon":113.940694,"peak_lat":39.071729,"base_elev":970,"distance_m":604.0,"vertical_relief_m":427.0,"max_jut":246.7312,"search_radius_m":750,"elev_angle_deg":35.2585}},{"type":"Feature","geometry":{"type":"Point","coordinates":[114.01709538512308,39.08223949819652]},"properties":{"peak_name":"1401无名峰","peak_elev":1401,"peak_lon":114.010089,"peak_lat":39.082913,"base_elev":786,"distance_m":610.8,"vertical_relief_m":615.0,"max_jut":436.8679,"search_radius_m":1625,"elev_angle_deg":45.1963}},{"type":"Feature","geometry":{"type":"Point","coordinates":[114.40247264201034,39.242049787241385]},"properties":{"peak_name":"尖山崖1407","peak_elev":1407,"peak_lon":114.402203,"peak_lat":39.238816,"base_elev":1133,"distance_m":359.8,"vertical_relief_m":274.0,"max_jut":165.8501,"search_radius_m":750,"elev_angle_deg":37.2905}},{"type":"Feature","geometry":{"type":"Point","coordinates":[114.2871289595294,39.38030050946738]},"properties":{"peak_name":"1408无名峰","peak_elev":1408,"peak_lon":114.280122,"peak_lat":39.37679672241211,"base_elev":986,"distance_m":718.2,"vertical_relief_m":422.0,"max_jut":213.9852,"search_radius_m":1000,"elev_angle_deg":30.4376}},{"type":"Feature","geometry":{"type":"Point","coordinates":[114.3022206563026,40.56877163035751]},"properties":{"peak_name":"辽高山1421","peak_elev":1421,"peak_lon":114.304916,"peak_lat":40.566885,"base_elev":1158,"distance_m":309.8,"vertical_relief_m":263.0,"max_jut":170.2755,"search_radius_m":375,"elev_angle_deg":40.3291}},{"type":"Feature","geometry":{"type":"Point","coordinates":[113.96131000597924,39.1722506896653]},"properties":{"peak_name":"1422无名峰","peak_elev":1422,"peak_lon":113.959154,"peak_lat":39.16874694824219,"base_elev":1101,"distance_m":431.3,"vertical_relief_m":321.0,"max_jut":191.5493,"search_radius_m":500,"elev_angle_deg":36.6589}},{"type":"Feature","geometry":{"type":"Point","coordinates":[113.93651650413754,39.03938985914402]},"properties":{"peak_name":"1430无名峰(1)","peak_elev":1430,"peak_lon":113.944332,"peak_lat":39.034269,"base_elev":877,"distance_m":883.8,"vertical_relief_m":553.0,"max_jut":293.4875,"search_radius_m":1250,"elev_angle_deg":32.0345}},{"type":"Feature","geometry":{"type":"Point","coordinates":[114.14294935642822,39.082778487366994]},"properties":{"peak_name":"1438无名峰","peak_elev":1438,"peak_lon":114.152112,"peak_lat":39.070382,"base_elev":844,"distance_m":1588.3,"vertical_relief_m":594.0,"max_jut":207.9621,"search_radius_m":2250,"elev_angle_deg":20.505}},{"type":"Feature","geometry":{"type":"Point","coordinates":[113.81605242453712,39.09463624911737]},"properties":{"peak_name":"1439无名峰","peak_elev":1439,"peak_lon":113.811471,"peak_lat":39.096253,"base_elev":1102,"distance_m":435.1,"vertical_relief_m":337.0,"max_jut":206.5916,"search_radius_m":750,"elev_angle_deg":37.759}},{"type":"Feature","geometry":{"type":"Point","coordinates":[114.02248527682778,39.2970266826295]},"properties":{"peak_name":"1446无名峰","peak_elev":1446,"peak_lon":114.030031,"peak_lat":39.29837417602539,"base_elev":1058,"distance_m":667.9,"vertical_relief_m":388.0,"max_jut":195.2339,"search_radius_m":875,"elev_angle_deg":30.1534}},{"type":"Feature","geometry":{"type":"Point","coordinates":[114.46930729914884,39.33664238665917]},"properties":{"peak_name":"1448无名峰","peak_elev":1448,"peak_lon":114.46768951416016,"peak_lat":39.33960723876953,"base_elev":1229,"distance_m":357.5,"vertical_relief_m":219.0,"max_jut":114.3213,"search_radius_m":500,"elev_angle_deg":31.4911}},{"type":"Feature","geometry":{"type":"Point","coordinates":[113.91576542107438,39.16200989542634]},"properties":{"peak_name":"1451无名峰(2)","peak_elev":1451,"peak_lon":113.91845703125,"peak_lat":39.166591,"base_elev":1078,"distance_m":559.3,"vertical_relief_m":373.0,"max_jut":206.8371,"search_radius_m":625,"elev_angle_deg":33.6995}},{"type":"Feature","geometry":{"type":"Point","coordinates":[114.347226252037,39.06984274727567]},"properties":{"peak_name":"1455无名峰","peak_elev":1455,"peak_lon":114.342375,"peak_lat":39.075772,"base_elev":1009,"distance_m":780.7,"vertical_relief_m":446.0,"max_jut":221.1592,"search_radius_m":1125,"elev_angle_deg":29.7386}},{"type":"Feature","geometry":{"type":"Point","coordinates":[114.22810964536274,39.97534455366815]},"properties":{"peak_name":"1465无名峰","peak_elev":1465,"peak_lon":114.23323059082033,"peak_lat":39.973997,"base_elev":1174,"distance_m":462.3,"vertical_relief_m":291.0,"max_jut":155.2404,"search_radius_m":500,"elev_angle_deg":32.1888}},{"type":"Feature","geometry":{"type":"Point","coordinates":[114.2736542302676,39.14691819865313]},"properties":{"peak_name":"1466无名峰","peak_elev":1466,"peak_lon":114.27069091796876,"peak_lat":39.144762,"base_elev":1253,"distance_m":350.6,"vertical_relief_m":213.0,"max_jut":110.6369,"search_radius_m":375,"elev_angle_deg":31.2799}},{"type":"Feature","geometry":{"type":"Point","coordinates":[114.49113636055294,39.01270989520568]},"properties":{"peak_name":"1472无名峰","peak_elev":1472,"peak_lon":114.481704,"peak_lat":39.01109313964844,"base_elev":877,"distance_m":836.4,"vertical_relief_m":595.0,"max_jut":345.4084,"search_radius_m":1000,"elev_angle_deg":35.4274}},{"type":"Feature","geometry":{"type":"Point","coordinates":[113.91226199146632,39.17494563551766]},"properties":{"peak_name":"1475无名峰","peak_elev":1475,"peak_lon":113.906872,"peak_lat":39.177102,"base_elev":1140,"distance_m":523.7,"vertical_relief_m":335.0,"max_jut":180.7316,"search_radius_m":750,"elev_angle_deg":32.6062}},{"type":"Feature","geometry":{"type":"Point","coordinates":[114.32512769604764,39.14098931777794]},"properties":{"peak_name":"1483无名峰","peak_elev":1483,"peak_lon":114.329709,"peak_lat":39.146649,"base_elev":993,"distance_m":742.7,"vertical_relief_m":490.0,"max_jut":269.7525,"search_radius_m":875,"elev_angle_deg":33.415}},{"type":"Feature","geometry":{"type":"Point","coordinates":[114.09012841772198,39.15203859577261]},"properties":{"peak_name":"朝天洼1485","peak_elev":1485,"peak_lon":114.0944366455078,"peak_lat":39.157788,"base_elev":1076,"distance_m":739.0,"vertical_relief_m":409.0,"max_jut":197.9725,"search_radius_m":750,"elev_angle_deg":28.9624}},{"type":"Feature","geometry":{"type":"Point","coordinates":[114.41594737127214,39.02187271110369]},"properties":{"peak_name":"1491无名峰","peak_elev":1491,"peak_lon":114.431848,"peak_lat":39.017561,"base_elev":694,"distance_m":1457.9,"vertical_relief_m":797.0,"max_jut":382.8963,"search_radius_m":1625,"elev_angle_deg":28.6644}},{"type":"Feature","geometry":{"type":"Point","coordinates":[114.40921000664125,39.02052523817751]},"properties":{"peak_name":"1518无名峰","peak_elev":1518,"peak_lon":114.396813,"peak_lat":39.036425,"base_elev":661,"distance_m":2065.9,"vertical_relief_m":857.0,"max_jut":328.2376,"search_radius_m":2250,"elev_angle_deg":22.5302}},{"type":"Feature","geometry":{"type":"Point","coordinates":[114.33321253360472,39.70638895760277]},"properties":{"peak_name":"1526无名峰(2)","peak_elev":1526,"peak_lon":114.335907,"peak_lat":39.702616,"base_elev":1119,"distance_m":478.4,"vertical_relief_m":407.0,"max_jut":263.6355,"search_radius_m":625,"elev_angle_deg":40.3896}},{"type":"Feature","geometry":{"type":"Point","coordinates":[114.3863029668962,39.34553570797196]},"properties":{"peak_name":"1528无名峰","peak_elev":1528,"peak_lon":114.384955,"peak_lat":39.349578,"base_elev":1222,"distance_m":463.6,"vertical_relief_m":306.0,"max_jut":168.4186,"search_radius_m":500,"elev_angle_deg":33.4269}},{"type":"Feature","geometry":{"type":"Point","coordinates":[113.81551343536664,39.06580032849713]},"properties":{"peak_name":"1530无名峰","peak_elev":1530,"peak_lon":113.807698,"peak_lat":39.06485748291016,"base_elev":1022,"distance_m":684.5,"vertical_relief_m":508.0,"max_jut":303.2185,"search_radius_m":875,"elev_angle_deg":36.5809}},{"type":"Feature","geometry":{"type":"Point","coordinates":[114.29736975376836,39.26684328908309]},"properties":{"peak_name":"南凹顶1535","peak_elev":1535,"peak_lon":114.299256,"peak_lat":39.270616,"base_elev":1196,"distance_m":449.4,"vertical_relief_m":339.0,"max_jut":204.0251,"search_radius_m":1000,"elev_angle_deg":37.0287}},{"type":"Feature","geometry":{"type":"Point","coordinates":[114.4013946636694,39.2045900398936]},"properties":{"peak_name":"1537无名峰","peak_elev":1537,"peak_lon":114.393849,"peak_lat":39.20620727539063,"base_elev":1172,"distance_m":676.0,"vertical_relief_m":365.0,"max_jut":173.7004,"search_radius_m":750,"elev_angle_deg":28.3664}},{"type":"Feature","geometry":{"type":"Point","coordinates":[114.49059737138246,39.35119509426191]},"properties":{"peak_name":"1541无名峰","peak_elev":1541,"peak_lon":114.488441,"peak_lat":39.355238,"base_elev":1241,"distance_m":485.8,"vertical_relief_m":300.0,"max_jut":157.5146,"search_radius_m":500,"elev_angle_deg":31.6969}},{"type":"Feature","geometry":{"type":"Point","coordinates":[114.25964051183534,39.31373534691412]},"properties":{"peak_name":"1545无名峰","peak_elev":1545,"peak_lon":114.250208,"peak_lat":39.311309814453125,"base_elev":1136,"distance_m":856.9,"vertical_relief_m":409.0,"max_jut":176.4699,"search_radius_m":875,"elev_angle_deg":25.5152}},{"type":"Feature","geometry":{"type":"Point","coordinates":[113.0862610877184,39.03130502158695]},"properties":{"peak_name":"1550无名峰","peak_elev":1550,"peak_lon":113.087878,"peak_lat":39.024298,"base_elev":1052,"distance_m":790.4,"vertical_relief_m":498.0,"max_jut":265.1909,"search_radius_m":1000,"elev_angle_deg":32.2134}},{"type":"Feature","geometry":{"type":"Point","coordinates":[114.15965802071284,39.94677812763315]},"properties":{"peak_name":"1558无名峰","peak_elev":1558,"peak_lon":114.15345764160156,"peak_lat":39.94165802001953,"base_elev":1090,"distance_m":777.2,"vertical_relief_m":468.0,"max_jut":241.492,"search_radius_m":1125,"elev_angle_deg":31.0547}},{"type":"Feature","geometry":{"type":"Point","coordinates":[113.5640749873416,39.57999599712715]},"properties":{"peak_name":"1560无名峰","peak_elev":1560,"peak_lon":113.571082,"peak_lat":39.582152,"base_elev":1131,"distance_m":647.8,"vertical_relief_m":429.0,"max_jut":237.1793,"search_radius_m":875,"elev_angle_deg":33.5142}},{"type":"Feature","geometry":{"type":"Point","coordinates":[113.80500314654245,39.906353939847776]},"properties":{"peak_name":"1563无名峰","peak_elev":1563,"peak_lon":113.802578,"peak_lat":39.908779,"base_elev":1279,"distance_m":339.9,"vertical_relief_m":284.0,"max_jut":182.1106,"search_radius_m":625,"elev_angle_deg":39.8801}},{"type":"Feature","geometry":{"type":"Point","coordinates":[114.02464123350968,39.31104040106177]},"properties":{"peak_name":"天山梁1564","peak_elev":1564,"peak_lon":114.017634,"peak_lat":39.315352,"base_elev":1065,"distance_m":770.9,"vertical_relief_m":499.0,"max_jut":271.3202,"search_radius_m":1250,"elev_angle_deg":32.9148}},{"type":"Feature","geometry":{"type":"Point","coordinates":[114.4480172269152,39.17575411927336]},"properties":{"peak_name":"1570无名峰","peak_elev":1570,"peak_lon":114.436968,"peak_lat":39.17279052734375,"base_elev":968,"distance_m":1009.9,"vertical_relief_m":602.0,"max_jut":308.6985,"search_radius_m":2250,"elev_angle_deg":30.7991}},{"type":"Feature","geometry":{"type":"Point","coordinates":[113.87183780368096,39.07954455234417]},"properties":{"peak_name":"1574无名峰","peak_elev":1574,"peak_lon":113.870221,"peak_lat":39.074694,"base_elev":1192,"distance_m":556.4,"vertical_relief_m":382.0,"max_jut":216.0216,"search_radius_m":625,"elev_angle_deg":34.4718}},{"type":"Feature","geometry":{"type":"Point","coordinates":[114.02032932014588,39.32370664656785]},"properties":{"peak_name":"1576无名峰(2)","peak_elev":1576,"peak_lon":114.010089,"peak_lat":39.321281,"base_elev":1173,"distance_m":923.2,"vertical_relief_m":403.0,"max_jut":161.5142,"search_radius_m":1000,"elev_angle_deg":23.5825}},{"type":"Feature","geometry":{"type":"Point","coordinates":[113.22720675579676,39.108110978379166]},"properties":{"peak_name":"1581无名峰","peak_elev":1581,"peak_lon":113.229902,"peak_lat":39.116061,"base_elev":1039,"distance_m":912.9,"vertical_relief_m":542.0,"max_jut":276.4365,"search_radius_m":1500,"elev_angle_deg":30.6981}},{"type":"Feature","geometry":{"type":"Point","coordinates":[114.45879701032464,39.17359816259148]},"properties":{"peak_name":"1589无名峰","peak_elev":1589,"peak_lon":114.431848,"peak_lat":39.17413711547852,"base_elev":778,"distance_m":2329.5,"vertical_relief_m":811.0,"max_jut":267.228,"search_radius_m":5000,"elev_angle_deg":19.1952}},{"type":"Feature","geometry":{"type":"Point","coordinates":[114.27230675734144,39.5390328201713]},"properties":{"peak_name":"1596无名峰","peak_elev":1596,"peak_lon":114.277427,"peak_lat":39.541458,"base_elev":1255,"distance_m":516.0,"vertical_relief_m":341.0,"max_jut":188.1939,"search_radius_m":1250,"elev_angle_deg":33.4588}},{"type":"Feature","geometry":{"type":"Point","coordinates":[113.80069123317868,39.05987144762194]},"properties":{"peak_name":"1597无名峰","peak_elev":1597,"peak_lon":113.798535,"peak_lat":39.067687,"base_elev":1104,"distance_m":887.5,"vertical_relief_m":493.0,"max_jut":239.1412,"search_radius_m":1125,"elev_angle_deg":29.0519}},{"type":"Feature","geometry":{"type":"Point","coordinates":[114.32566668521812,39.9915142287823]},"properties":{"peak_name":"1602无名峰","peak_elev":1602,"peak_lon":114.328901,"peak_lat":39.992592,"base_elev":1383,"distance_m":301.0,"vertical_relief_m":219.0,"max_jut":128.9946,"search_radius_m":500,"elev_angle_deg":36.0387}},{"type":"Feature","geometry":{"type":"Point","coordinates":[114.41244394166408,39.03885086997355]},"properties":{"peak_name":"1604无名峰","peak_elev":1604,"peak_lon":114.425919,"peak_lat":39.048282623291016,"base_elev":905,"distance_m":1567.6,"vertical_relief_m":699.0,"max_jut":284.8329,"search_radius_m":1750,"elev_angle_deg":24.0323}},{"type":"Feature","geometry":{"type":"Point","coordinates":[113.33850801949916,39.47839653849324]},"properties":{"peak_name":"张崖1609","peak_elev":1609,"peak_lon":113.341203,"peak_lat":39.47300720214844,"base_elev":1205,"distance_m":641.7,"vertical_relief_m":404.0,"max_jut":215.0847,"search_radius_m":1000,"elev_angle_deg":32.1936}},{"type":"Feature","geometry":{"type":"Point","coordinates":[113.94621830920605,39.06876476893473]},"properties":{"peak_name":"1610无名峰","peak_elev":1610,"peak_lon":113.934361,"peak_lat":39.062566,"base_elev":984,"distance_m":1235.6,"vertical_relief_m":626.0,"max_jut":283.1801,"search_radius_m":1250,"elev_angle_deg":26.8684}},{"type":"Feature","geometry":{"type":"Point","coordinates":[113.03263166525647,39.9087793911149]},"properties":{"peak_name":"1611无名峰","peak_elev":1611,"peak_lon":113.030206,"peak_lat":39.911474,"base_elev":1357,"distance_m":364.1,"vertical_relief_m":254.0,"max_jut":145.3217,"search_radius_m":375,"elev_angle_deg":34.9}},{"type":"Feature","geometry":{"type":"Point","coordinates":[114.02194628765731,39.513161339988656]},"properties":{"peak_name":"1612无名峰","peak_elev":1612,"peak_lon":114.020868,"peak_lat":39.518551,"base_elev":1239,"distance_m":605.5,"vertical_relief_m":373.0,"max_jut":195.4244,"search_radius_m":750,"elev_angle_deg":31.6339}},{"type":"Feature","geometry":{"type":"Point","coordinates":[113.70555964459042,39.66488679147645]},"properties":{"peak_name":"翠屏山东北峰1619","peak_elev":1619,"peak_lon":113.701113,"peak_lat":39.662731,"base_elev":1178,"distance_m":450.4,"vertical_relief_m":441.0,"max_jut":308.7299,"search_radius_m":750,"elev_angle_deg":44.3958}},{"type":"Feature","geometry":{"type":"Point","coordinates":[113.08706957147412,39.986663326248056]},"properties":{"peak_name":"七峰山1621","peak_elev":1621,"peak_lon":113.085183,"peak_lat":39.990975,"base_elev":1302,"distance_m":505.1,"vertical_relief_m":319.0,"max_jut":170.2053,"search_radius_m":1125,"elev_angle_deg":32.2748}},{"type":"Feature","geometry":{"type":"Point","coordinates":[113.75406866993288,39.09436675453214]},"properties":{"peak_name":"1623无名峰","peak_elev":1623,"peak_lon":113.752721,"peak_lat":39.100969,"base_elev":1219,"distance_m":742.2,"vertical_relief_m":404.0,"max_jut":192.9294,"search_radius_m":750,"elev_angle_deg":28.5607}},{"type":"Feature","geometry":{"type":"Point","coordinates":[114.43050007887489,39.056368018013885]},"properties":{"peak_name":"1628无名峰","peak_elev":1628,"peak_lon":114.421876,"peak_lat":39.056099,"base_elev":1180,"distance_m":747.1,"vertical_relief_m":448.0,"max_jut":230.8146,"search_radius_m":750,"elev_angle_deg":30.9491}},{"type":"Feature","geometry":{"type":"Point","coordinates":[114.45879701032464,39.17359816259148]},"properties":{"peak_name":"1631无名峰(2)","peak_elev":1631,"peak_lon":114.427266,"peak_lat":39.17790985107422,"base_elev":778,"distance_m":2766.4,"vertical_relief_m":853.0,"max_jut":251.885,"search_radius_m":5500,"elev_angle_deg":17.1368}},{"type":"Feature","geometry":{"type":"Point","coordinates":[114.2812000786542,39.26738227825356]},"properties":{"peak_name":"千树顶1650","peak_elev":1650,"peak_lon":114.282009,"peak_lat":39.274389,"base_elev":1199,"distance_m":781.0,"vertical_relief_m":451.0,"max_jut":225.2702,"search_radius_m":1375,"elev_angle_deg":30.0049}},{"type":"Feature","geometry":{"type":"Point","coordinates":[113.59614484298466,39.57703155668956]},"properties":{"peak_name":"1651无名峰(1)","peak_elev":1651,"peak_lon":113.599379,"peak_lat":39.574337005615234,"base_elev":1285,"distance_m":408.3,"vertical_relief_m":366.0,"max_jut":244.3387,"search_radius_m":500,"elev_angle_deg":41.873}},{"type":"Feature","geometry":{"type":"Point","coordinates":[114.40921000664125,39.02052523817751]},"properties":{"peak_name":"1662无名峰(2)","peak_elev":1662,"peak_lon":114.389537,"peak_lat":39.043971,"base_elev":661,"distance_m":3110.7,"vertical_relief_m":1001.0,"max_jut":306.5321,"search_radius_m":4250,"elev_angle_deg":17.8378}},{"type":"Feature","geometry":{"type":"Point","coordinates":[113.89312787591456,39.89126224307456]},"properties":{"peak_name":"1670无名峰","peak_elev":1670,"peak_lon":113.897709,"peak_lat":39.893688,"base_elev":1284,"distance_m":475.5,"vertical_relief_m":386.0,"max_jut":243.4725,"search_radius_m":625,"elev_angle_deg":39.0689}},{"type":"Feature","geometry":{"type":"Point","coordinates":[113.50505567317494,39.82334960759513]},"properties":{"peak_name":"1678无名峰","peak_elev":1678,"peak_lon":113.503439,"peak_lat":39.819307,"base_elev":1287,"distance_m":469.7,"vertical_relief_m":391.0,"max_jut":249.9835,"search_radius_m":625,"elev_angle_deg":39.7756}},{"type":"Feature","geometry":{"type":"Point","coordinates":[114.41163545790836,39.01756079773992]},"properties":{"peak_name":"1681无名峰","peak_elev":1681,"peak_lon":114.449095,"peak_lat":39.015944,"base_elev":646,"distance_m":3249.2,"vertical_relief_m":1035.0,"max_jut":314.8301,"search_radius_m":8250,"elev_angle_deg":17.6688}},{"type":"Feature","geometry":{"type":"Point","coordinates":[113.48026217133324,39.79666964365678]},"properties":{"peak_name":"1686无名峰","peak_elev":1686,"peak_lon":113.472986,"peak_lat":39.791549,"base_elev":1236,"distance_m":843.6,"vertical_relief_m":450.0,"max_jut":211.9074,"search_radius_m":875,"elev_angle_deg":28.0767}},{"type":"Feature","geometry":{"type":"Point","coordinates":[113.7993437602525,39.04208480499638]},"properties":{"peak_name":"1691无名峰(1)","peak_elev":1691,"peak_lon":113.792606,"peak_lat":39.047744,"base_elev":1198,"distance_m":857.3,"vertical_relief_m":493.0,"max_jut":245.82,"search_radius_m":1375,"elev_angle_deg":29.9015}},{"type":"Feature","geometry":{"type":"Point","coordinates":[113.79368437396252,39.082778487366994]},"properties":{"peak_name":"1696无名峰","peak_elev":1696,"peak_lon":113.787755,"peak_lat":39.075772,"base_elev":1214,"distance_m":931.8,"vertical_relief_m":482.0,"max_jut":221.384,"search_radius_m":2250,"elev_angle_deg":27.3515}},{"type":"Feature","geometry":{"type":"Point","coordinates":[113.96535242475778,38.99977415511435]},"properties":{"peak_name":"1702无名峰","peak_elev":1702,"peak_lon":113.942984,"peak_lat":39.003278,"base_elev":959,"distance_m":1976.3,"vertical_relief_m":743.0,"max_jut":261.9957,"search_radius_m":2750,"elev_angle_deg":20.604}},{"type":"Feature","geometry":{"type":"Point","coordinates":[114.38172155894718,39.16739978713105]},"properties":{"peak_name":"1708无名峰(2)","peak_elev":1708,"peak_lon":114.385764,"peak_lat":39.175215,"base_elev":1127,"distance_m":935.3,"vertical_relief_m":581.0,"max_jut":306.3466,"search_radius_m":2500,"elev_angle_deg":31.8482}},{"type":"Feature","geometry":{"type":"Point","coordinates":[113.82925765921368,39.05070863172393]},"properties":{"peak_name":"1719无名峰","peak_elev":1719,"peak_lon":113.839768,"peak_lat":39.053269,"base_elev":1221,"distance_m":953.2,"vertical_relief_m":498.0,"max_jut":230.9909,"search_radius_m":1000,"elev_angle_deg":27.5848}},{"type":"Feature","geometry":{"type":"Point","coordinates":[114.36474340007732,39.05960195303671]},"properties":{"peak_name":"1722无名峰(2)","peak_elev":1722,"peak_lon":114.384417,"peak_lat":39.061219,"base_elev":1004,"distance_m":1712.2,"vertical_relief_m":718.0,"max_jut":278.229,"search_radius_m":6750,"elev_angle_deg":22.7504}},{"type":"Feature","geometry":{"type":"Point","coordinates":[114.30437661298448,40.58574978922736]},"properties":{"peak_name":"五梁殿东北峰1724","peak_elev":1724,"peak_lon":114.28402709960938,"peak_lat":40.598147,"base_elev":1124,"distance_m":2205.1,"vertical_relief_m":600.0,"max_jut":157.6864,"search_radius_m":3750,"elev_angle_deg":15.2215}},{"type":"Feature","geometry":{"type":"Point","coordinates":[113.90821957268778,39.23450393885478]},"properties":{"peak_name":"仰头山1727","peak_elev":1727,"peak_lon":113.912262,"peak_lat":39.229114,"base_elev":1408,"distance_m":692.7,"vertical_relief_m":319.0,"max_jut":133.3661,"search_radius_m":750,"elev_angle_deg":24.7269}},{"type":"Feature","geometry":{"type":"Point","coordinates":[113.18274014923286,39.35766296430757]},"properties":{"peak_name":"寨瓜梁1734","peak_elev":1734,"peak_lon":113.178967,"peak_lat":39.356585,"base_elev":1450,"distance_m":346.5,"vertical_relief_m":284.0,"max_jut":180.234,"search_radius_m":375,"elev_angle_deg":39.3389}},{"type":"Feature","geometry":{"type":"Point","coordinates":[114.36420441090684,39.06499184474143]},"properties":{"peak_name":"1735无名峰","peak_elev":1735,"peak_lon":114.389267,"peak_lat":39.065531,"base_elev":998,"distance_m":2169.9,"vertical_relief_m":737.0,"max_jut":237.5417,"search_radius_m":6500,"elev_angle_deg":18.7599}},{"type":"Feature","geometry":{"type":"Point","coordinates":[114.09444033108576,39.93222542003041]},"properties":{"peak_name":"1736无名峰","peak_elev":1736,"peak_lon":114.100908,"peak_lat":39.930339,"base_elev":1224,"distance_m":591.2,"vertical_relief_m":512.0,"max_jut":335.566,"search_radius_m":875,"elev_angle_deg":40.8937}},{"type":"Feature","geometry":{"type":"Point","coordinates":[114.2157128944419,39.97184112406008]},"properties":{"peak_name":"1738无名峰","peak_elev":1738,"peak_lon":114.226223,"peak_lat":39.96456527709961,"base_elev":1098,"distance_m":1207.9,"vertical_relief_m":640.0,"max_jut":299.8138,"search_radius_m":2250,"elev_angle_deg":27.9167}},{"type":"Feature","geometry":{"type":"Point","coordinates":[113.73412607062542,39.696687152534274]},"properties":{"peak_name":"1739无名峰","peak_elev":1739,"peak_lon":113.739246,"peak_lat":39.688602447509766,"base_elev":1229,"distance_m":999.3,"vertical_relief_m":510.0,"max_jut":231.6978,"search_radius_m":1125,"elev_angle_deg":27.0378}},{"type":"Feature","geometry":{"type":"Point","coordinates":[113.88531253294272,39.895843651023576]},"properties":{"peak_name":"1743无名峰","peak_elev":1743,"peak_lon":113.879384,"peak_lat":39.893149,"base_elev":1290,"distance_m":588.7,"vertical_relief_m":453.0,"max_jut":276.5015,"search_radius_m":625,"elev_angle_deg":37.578}},{"type":"Feature","geometry":{"type":"Point","coordinates":[113.33392661155015,39.46222686337908]},"properties":{"peak_name":"1744无名峰","peak_elev":1744,"peak_lon":113.331771,"peak_lat":39.454681,"base_elev":1200,"distance_m":858.1,"vertical_relief_m":544.0,"max_jut":290.9999,"search_radius_m":1125,"elev_angle_deg":32.373}},{"type":"Feature","geometry":{"type":"Point","coordinates":[114.36501289466256,39.03265249451312]},"properties":{"peak_name":"1747无名峰(2)","peak_elev":1747,"peak_lon":114.38279724121094,"peak_lat":39.053404,"base_elev":776,"distance_m":2770.9,"vertical_relief_m":971.0,"max_jut":321.0305,"search_radius_m":5000,"elev_angle_deg":19.3119}},{"type":"Feature","geometry":{"type":"Point","coordinates":[113.57593274909198,39.188959353949926]},"properties":{"peak_name":"1751无名峰","peak_elev":1751,"peak_lon":113.571082,"peak_lat":39.19003677368164,"base_elev":1382,"distance_m":435.8,"vertical_relief_m":369.0,"max_jut":238.7402,"search_radius_m":625,"elev_angle_deg":40.2552}},{"type":"Feature","geometry":{"type":"Point","coordinates":[113.91226199146632,39.07927505775893]},"properties":{"peak_name":"1752无名峰","peak_elev":1752,"peak_lon":113.898248,"peak_lat":39.077658,"base_elev":1124,"distance_m":1225.9,"vertical_relief_m":628.0,"max_jut":286.8682,"search_radius_m":5000,"elev_angle_deg":27.125}},{"type":"Feature","geometry":{"type":"Point","coordinates":[114.49787372518384,39.03561693495072]},"properties":{"peak_name":"神仙山北峰1755","peak_elev":1755,"peak_lon":114.45745086669922,"peak_lat":39.033729553222656,"base_elev":699,"distance_m":3506.2,"vertical_relief_m":1056.0,"max_jut":305.2077,"search_radius_m":4500,"elev_angle_deg":16.7613}},{"type":"Feature","geometry":{"type":"Point","coordinates":[113.57593274909198,39.59158426429229]},"properties":{"peak_name":"1758无名峰","peak_elev":1758,"peak_lon":113.581592,"peak_lat":39.582691,"base_elev":1139,"distance_m":1100.6,"vertical_relief_m":619.0,"max_jut":303.2689,"search_radius_m":1500,"elev_angle_deg":29.3543}},{"type":"Feature","geometry":{"type":"Point","coordinates":[113.85243419354396,39.905545456092064]},"properties":{"peak_name":"1759无名峰(1)","peak_elev":1759,"peak_lon":113.843271,"peak_lat":39.904737,"base_elev":1214,"distance_m":788.7,"vertical_relief_m":545.0,"max_jut":310.3416,"search_radius_m":1000,"elev_angle_deg":34.6449}},{"type":"Feature","geometry":{"type":"Point","coordinates":[114.47927859880257,38.989802855460624]},"properties":{"peak_name":"1762无名峰","peak_elev":1762,"peak_lon":114.450443,"peak_lat":39.001122,"base_elev":676,"distance_m":2796.3,"vertical_relief_m":1086.0,"max_jut":393.7337,"search_radius_m":6250,"elev_angle_deg":21.2247}},{"type":"Feature","geometry":{"type":"Point","coordinates":[113.90929755102871,39.05340357757629]},"properties":{"peak_name":"1777无名峰","peak_elev":1777,"peak_lon":113.913879,"peak_lat":39.0606803894043,"base_elev":1145,"distance_m":899.9,"vertical_relief_m":632.0,"max_jut":363.0212,"search_radius_m":1625,"elev_angle_deg":35.0804}},{"type":"Feature","geometry":{"type":"Point","coordinates":[113.81793888663375,39.49483570819262]},"properties":{"peak_name":"1778无名峰","peak_elev":1778,"peak_lon":113.813357,"peak_lat":39.496453,"base_elev":1477,"distance_m":433.1,"vertical_relief_m":301.0,"max_jut":171.9869,"search_radius_m":500,"elev_angle_deg":34.7989}},{"type":"Feature","geometry":{"type":"Point","coordinates":[114.17717516875317,39.96699022152584]},"properties":{"peak_name":"1782无名峰","peak_elev":1782,"peak_lon":114.183374,"peak_lat":39.946778,"base_elev":958,"distance_m":2305.9,"vertical_relief_m":824.0,"max_jut":276.9727,"search_radius_m":2500,"elev_angle_deg":19.6641}},{"type":"Feature","geometry":{"type":"Point","coordinates":[113.69828329078904,39.21456133954733]},"properties":{"peak_name":"1785无名峰","peak_elev":1785,"peak_lon":113.696127,"peak_lat":39.216987,"base_elev":1527,"distance_m":327.4,"vertical_relief_m":258.0,"max_jut":159.657,"search_radius_m":500,"elev_angle_deg":38.2391}},{"type":"Feature","geometry":{"type":"Point","coordinates":[113.83572552925934,39.49214076234026]},"properties":{"peak_name":"1786无名峰","peak_elev":1786,"peak_lon":113.828988,"peak_lat":39.489985,"base_elev":1401,"distance_m":627.1,"vertical_relief_m":385.0,"max_jut":201.7153,"search_radius_m":1250,"elev_angle_deg":31.5473}},{"type":"Feature","geometry":{"type":"Point","coordinates":[113.91387895897772,39.17925754888143]},"properties":{"peak_name":"1787无名峰","peak_elev":1787,"peak_lon":113.928971,"peak_lat":39.187881,"base_elev":1179,"distance_m":1617.7,"vertical_relief_m":608.0,"max_jut":214.1064,"search_radius_m":4000,"elev_angle_deg":20.5983}},{"type":"Feature","geometry":{"type":"Point","coordinates":[114.4795480933878,38.99303679048346]},"properties":{"peak_name":"1788无名峰","peak_elev":1788,"peak_lon":114.460414,"peak_lat":39.014327,"base_elev":710,"distance_m":2886.8,"vertical_relief_m":1078.0,"max_jut":377.043,"search_radius_m":6500,"elev_angle_deg":20.4768}},{"type":"Feature","geometry":{"type":"Point","coordinates":[113.85485964481109,39.89099274848933]},"properties":{"peak_name":"1793无名峰(2)","peak_elev":1793,"peak_lon":113.847583,"peak_lat":39.889106,"base_elev":1310,"distance_m":656.7,"vertical_relief_m":483.0,"max_jut":286.5655,"search_radius_m":750,"elev_angle_deg":36.3343}},{"type":"Feature","geometry":{"type":"Point","coordinates":[114.09201487981863,39.31211837940271]},"properties":{"peak_name":"1794无名峰","peak_elev":1794,"peak_lon":114.087433,"peak_lat":39.313466,"base_elev":1508,"distance_m":422.5,"vertical_relief_m":286.0,"max_jut":160.5295,"search_radius_m":1625,"elev_angle_deg":34.095}},{"type":"Feature","geometry":{"type":"Point","coordinates":[114.5035331114738,39.02834058114935]},"properties":{"peak_name":"神仙山南峰1795","peak_elev":1795,"peak_lon":114.467151,"peak_lat":39.019986,"base_elev":666,"distance_m":3284.3,"vertical_relief_m":1129.0,"max_jut":367.7046,"search_radius_m":5500,"elev_angle_deg":18.9707}},{"type":"Feature","geometry":{"type":"Point","coordinates":[113.82225079999756,39.49645267570404]},"properties":{"peak_name":"1801无名峰(2)","peak_elev":1801,"peak_lon":113.818208,"peak_lat":39.499148,"base_elev":1433,"distance_m":458.8,"vertical_relief_m":368.0,"max_jut":230.3698,"search_radius_m":625,"elev_angle_deg":38.7328}},{"type":"Feature","geometry":{"type":"Point","coordinates":[113.91576542107438,39.21186639369497]},"properties":{"peak_name":"1808无名峰","peak_elev":1808,"peak_lon":113.919269,"peak_lat":39.216178,"base_elev":1474,"distance_m":566.3,"vertical_relief_m":334.0,"max_jut":169.6267,"search_radius_m":1000,"elev_angle_deg":30.5318}},{"type":"Feature","geometry":{"type":"Point","coordinates":[113.11644448126484,39.02106422734799]},"properties":{"peak_name":"1812无名峰","peak_elev":1812,"peak_lon":113.124529,"peak_lat":39.02322006225586,"base_elev":1250,"distance_m":739.9,"vertical_relief_m":562.0,"max_jut":340.3737,"search_radius_m":750,"elev_angle_deg":37.2189}},{"type":"Feature","geometry":{"type":"Point","coordinates":[114.21975531322045,39.98100393995811]},"properties":{"peak_name":"豁口山西峰1814","peak_elev":1814,"peak_lon":114.235386,"peak_lat":39.960972,"base_elev":999,"distance_m":2594.3,"vertical_relief_m":815.0,"max_jut":244.166,"search_radius_m":3000,"elev_angle_deg":17.4401}},{"type":"Feature","geometry":{"type":"Point","coordinates":[113.218313434484,39.26414834323073]},"properties":{"peak_name":"轿顶山1819","peak_elev":1819,"peak_lon":113.215618,"peak_lat":39.267652,"base_elev":1508,"distance_m":453.2,"vertical_relief_m":311.0,"max_jut":175.9018,"search_radius_m":750,"elev_angle_deg":34.4591}},{"type":"Feature","geometry":{"type":"Point","coordinates":[114.09902173903475,39.92360159330287]},"properties":{"peak_name":"1820无名峰","peak_elev":1820,"peak_lon":114.101717,"peak_lat":39.924141,"base_elev":1533,"distance_m":238.1,"vertical_relief_m":287.0,"max_jut":221.0964,"search_radius_m":375,"elev_angle_deg":50.3203}},{"type":"Feature","geometry":{"type":"Point","coordinates":[113.780479139286,39.03373047285407]},"properties":{"peak_name":"1822无名峰","peak_elev":1822,"peak_lon":113.777919,"peak_lat":39.036425,"base_elev":1417,"distance_m":372.3,"vertical_relief_m":405.0,"max_jut":298.1338,"search_radius_m":500,"elev_angle_deg":47.4089}},{"type":"Feature","geometry":{"type":"Point","coordinates":[113.96265747890544,39.17440664634719]},"properties":{"peak_name":"1827无名峰","peak_elev":1827,"peak_lon":113.93975067138672,"peak_lat":39.182491,"base_elev":1067,"distance_m":2173.3,"vertical_relief_m":760.0,"max_jut":251.2771,"search_radius_m":2750,"elev_angle_deg":19.2747}},{"type":"Feature","geometry":{"type":"Point","coordinates":[113.7308921356026,39.2218376933487]},"properties":{"peak_name":"1830无名峰(1)","peak_elev":1830,"peak_lon":113.724963,"peak_lat":39.219951,"base_elev":1495,"distance_m":553.2,"vertical_relief_m":335.0,"max_jut":173.7635,"search_radius_m":750,"elev_angle_deg":31.1977}},{"type":"Feature","geometry":{"type":"Point","coordinates":[114.19226686552638,39.368173253131765]},"properties":{"peak_name":"1831无名峰","peak_elev":1831,"peak_lon":114.197657,"peak_lat":39.367365,"base_elev":1484,"distance_m":473.1,"vertical_relief_m":347.0,"max_jut":205.5385,"search_radius_m":625,"elev_angle_deg":36.2586}},{"type":"Feature","geometry":{"type":"Point","coordinates":[114.15615459110477,39.91551675574579]},"properties":{"peak_name":"1838无名峰","peak_elev":1838,"peak_lon":114.148878,"peak_lat":39.91363143920898,"base_elev":1437,"distance_m":656.4,"vertical_relief_m":401.0,"max_jut":209.3629,"search_radius_m":1125,"elev_angle_deg":31.4211}},{"type":"Feature","geometry":{"type":"Point","coordinates":[113.3145230014132,39.04154581582591]},"properties":{"peak_name":"1840无名峰(1)","peak_elev":1840,"peak_lon":113.322069,"peak_lat":39.0361557006836,"base_elev":1386,"distance_m":885.9,"vertical_relief_m":454.0,"max_jut":207.1417,"search_radius_m":1375,"elev_angle_deg":27.1339}},{"type":"Feature","geometry":{"type":"Point","coordinates":[113.5174524240958,39.82146314549848]},"properties":{"peak_name":"殿山1842","peak_elev":1842,"peak_lon":113.517991,"peak_lat":39.81256866455078,"base_elev":1340,"distance_m":988.6,"vertical_relief_m":502.0,"max_jut":227.0138,"search_radius_m":3750,"elev_angle_deg":26.9209}},{"type":"Feature","geometry":{"type":"Point","coordinates":[114.0278751685325,39.60155556394602]},"properties":{"peak_name":"1855无名峰","peak_elev":1855,"peak_lon":114.027067,"peak_lat":39.603981,"base_elev":1627,"distance_m":278.1,"vertical_relief_m":228.0,"max_jut":144.448,"search_radius_m":375,"elev_angle_deg":39.3466}},{"type":"Feature","geometry":{"type":"Point","coordinates":[113.1582161419764,39.07280718771327]},"properties":{"peak_name":"1862无名峰","peak_elev":1862,"peak_lon":113.159833,"peak_lat":39.078736,"base_elev":1363,"distance_m":672.9,"vertical_relief_m":499.0,"max_jut":296.9574,"search_radius_m":1125,"elev_angle_deg":36.5594}},{"type":"Feature","geometry":{"type":"Point","coordinates":[114.01601740678213,39.60236404770173]},"properties":{"peak_name":"1868无名峰","peak_elev":1868,"peak_lon":114.018443,"peak_lat":39.605867,"base_elev":1594,"distance_m":441.2,"vertical_relief_m":274.0,"max_jut":144.4904,"search_radius_m":500,"elev_angle_deg":31.8417}},{"type":"Feature","geometry":{"type":"Point","coordinates":[113.6031517022008,39.59508769390036]},"properties":{"peak_name":"1869无名峰","peak_elev":1869,"peak_lon":113.603691,"peak_lat":39.587542,"base_elev":1319,"distance_m":839.1,"vertical_relief_m":550.0,"max_jut":301.2033,"search_radius_m":1625,"elev_angle_deg":33.2434}},{"type":"Feature","geometry":{"type":"Point","coordinates":[113.75326018617716,39.71528227891555]},"properties":{"peak_name":"1870无名峰","peak_elev":1870,"peak_lon":113.765387,"peak_lat":39.703155,"base_elev":1208,"distance_m":1701.3,"vertical_relief_m":662.0,"max_jut":240.0496,"search_radius_m":2000,"elev_angle_deg":21.2617}},{"type":"Feature","geometry":{"type":"Point","coordinates":[114.08393004226156,39.28409094253818]},"properties":{"peak_name":"对维山南峰1876","peak_elev":1876,"peak_lon":114.089859,"peak_lat":39.293523,"base_elev":1361,"distance_m":1165.4,"vertical_relief_m":515.0,"max_jut":208.0262,"search_radius_m":1375,"elev_angle_deg":23.841}},{"type":"Feature","geometry":{"type":"Point","coordinates":[113.58428708123428,39.59508769390036]},"properties":{"peak_name":"大堂尖1888","peak_elev":1888,"peak_lon":113.59345245361328,"peak_lat":39.586463928222656,"base_elev":1144,"distance_m":1239.6,"vertical_relief_m":744.0,"max_jut":382.8943,"search_radius_m":1500,"elev_angle_deg":30.9719}},{"type":"Feature","geometry":{"type":"Point","coordinates":[114.07692318304542,39.29244527468049]},"properties":{"peak_name":"1890无名峰","peak_elev":1890,"peak_lon":114.072881,"peak_lat":39.296218,"base_elev":1492,"distance_m":545.0,"vertical_relief_m":398.0,"max_jut":234.7353,"search_radius_m":3500,"elev_angle_deg":36.1397}},{"type":"Feature","geometry":{"type":"Point","coordinates":[114.0572500783232,39.29487072594761]},"properties":{"peak_name":"对维山西峰1900","peak_elev":1900,"peak_lon":114.06803131103516,"peak_lat":39.29837417602539,"base_elev":1364,"distance_m":1008.1,"vertical_relief_m":536.0,"max_jut":252.003,"search_radius_m":4000,"elev_angle_deg":27.9993}},{"type":"Feature","geometry":{"type":"Point","coordinates":[114.0895894285515,39.302686068919456]},"properties":{"peak_name":"对维山1908","peak_elev":1908,"peak_lon":114.083122,"peak_lat":39.30376434326172,"base_elev":1548,"distance_m":570.6,"vertical_relief_m":360.0,"max_jut":192.4199,"search_radius_m":4500,"elev_angle_deg":32.2484}},{"type":"Feature","geometry":{"type":"Point","coordinates":[113.85162570978824,39.068495274349495]},"properties":{"peak_name":"1930无名峰","peak_elev":1930,"peak_lon":113.872107,"peak_lat":39.055021,"base_elev":1134,"distance_m":2319.5,"vertical_relief_m":796.0,"max_jut":258.5423,"search_radius_m":2500,"elev_angle_deg":18.9411}},{"type":"Feature","geometry":{"type":"Point","coordinates":[113.27167336236069,39.072537693128034]},"properties":{"peak_name":"1934无名峰","peak_elev":1934,"peak_lon":113.268709,"peak_lat":39.065531,"base_elev":1366,"distance_m":819.1,"vertical_relief_m":568.0,"max_jut":323.412,"search_radius_m":1000,"elev_angle_deg":34.7391}},{"type":"Feature","geometry":{"type":"Point","coordinates":[114.24778275008497,39.35577650221092]},"properties":{"peak_name":"1937无名峰","peak_elev":1937,"peak_lon":114.242393,"peak_lat":39.340281,"base_elev":1252,"distance_m":1782.0,"vertical_relief_m":685.0,"max_jut":245.5073,"search_radius_m":1875,"elev_angle_deg":21.0267}},{"type":"Feature","geometry":{"type":"Point","coordinates":[113.63468256867338,39.159314949573975]},"properties":{"peak_name":"1941无名峰","peak_elev":1941,"peak_lon":113.636569,"peak_lat":39.164031,"base_elev":1543,"distance_m":548.4,"vertical_relief_m":398.0,"max_jut":233.5918,"search_radius_m":875,"elev_angle_deg":35.9702}},{"type":"Feature","geometry":{"type":"Point","coordinates":[113.8796531466528,39.883177405517486]},"properties":{"peak_name":"1947无名峰","peak_elev":1947,"peak_lon":113.878575,"peak_lat":39.878327,"base_elev":1567,"distance_m":546.4,"vertical_relief_m":380.0,"max_jut":216.7689,"search_radius_m":625,"elev_angle_deg":34.8171}},{"type":"Feature","geometry":{"type":"Point","coordinates":[113.79368437396252,39.11350087008388]},"properties":{"peak_name":"1963无名峰","peak_elev":1963,"peak_lon":113.784252,"peak_lat":39.124011,"base_elev":1335,"distance_m":1423.7,"vertical_relief_m":628.0,"max_jut":253.4028,"search_radius_m":2500,"elev_angle_deg":23.8025}},{"type":"Feature","geometry":{"type":"Point","coordinates":[113.9098365401992,39.8944961780974]},"properties":{"peak_name":"1968无名峰","peak_elev":1968,"peak_lon":113.91307067871094,"peak_lat":39.89799880981445,"base_elev":1580,"distance_m":477.2,"vertical_relief_m":388.0,"max_jut":244.7455,"search_radius_m":625,"elev_angle_deg":39.1137}},{"type":"Feature","geometry":{"type":"Point","coordinates":[114.03649899526005,39.9238710878881]},"properties":{"peak_name":"1973无名峰","peak_elev":1973,"peak_lon":114.033265,"peak_lat":39.917673,"base_elev":1411,"distance_m":741.7,"vertical_relief_m":562.0,"max_jut":339.2246,"search_radius_m":750,"elev_angle_deg":37.1519}},{"type":"Feature","geometry":{"type":"Point","coordinates":[114.23242155872651,39.29648769345903]},"properties":{"peak_name":"1974无名峰","peak_elev":1974,"peak_lon":114.215713,"peak_lat":39.314544,"base_elev":1255,"distance_m":2468.9,"vertical_relief_m":719.0,"max_jut":201.0093,"search_radius_m":3000,"elev_angle_deg":16.2368}},{"type":"Feature","geometry":{"type":"Point","coordinates":[113.3934849148873,39.01567433564327]},"properties":{"peak_name":"1975无名峰","peak_elev":1975,"peak_lon":113.401839,"peak_lat":39.0124397277832,"base_elev":1525,"distance_m":807.7,"vertical_relief_m":450.0,"max_jut":219.2757,"search_radius_m":1000,"elev_angle_deg":29.1238}},{"type":"Feature","geometry":{"type":"Point","coordinates":[114.03245657648152,39.92899148500759]},"properties":{"peak_name":"1976无名峰","peak_elev":1976,"peak_lon":114.027606,"peak_lat":39.920637,"base_elev":1306,"distance_m":1016.1,"vertical_relief_m":670.0,"max_jut":368.6194,"search_radius_m":1250,"elev_angle_deg":33.4002}},{"type":"Feature","geometry":{"type":"Point","coordinates":[113.9076805835173,39.91794220701291]},"properties":{"peak_name":"1981无名峰","peak_elev":1981,"peak_lon":113.903369,"peak_lat":39.907162,"base_elev":1207,"distance_m":1252.5,"vertical_relief_m":774.0,"max_jut":406.5654,"search_radius_m":2000,"elev_angle_deg":31.7146}},{"type":"Feature","geometry":{"type":"Point","coordinates":[114.44397480813666,39.48270845185701]},"properties":{"peak_name":"峡峪界1984","peak_elev":1984,"peak_lon":114.440876,"peak_lat":39.470042,"base_elev":1470,"distance_m":1431.4,"vertical_relief_m":514.0,"max_jut":173.503,"search_radius_m":4750,"elev_angle_deg":19.7527}},{"type":"Feature","geometry":{"type":"Point","coordinates":[113.1094376220487,39.04882216962728]},"properties":{"peak_name":"1988无名峰","peak_elev":1988,"peak_lon":113.117253,"peak_lat":39.051787,"base_elev":1468,"distance_m":752.4,"vertical_relief_m":520.0,"max_jut":295.9954,"search_radius_m":4500,"elev_angle_deg":34.6492}},{"type":"Feature","geometry":{"type":"Point","coordinates":[114.23242155872651,39.29648769345903]},"properties":{"peak_name":"1991无名峰","peak_elev":1991,"peak_lon":114.222181,"peak_lat":39.311849,"base_elev":1255,"distance_m":1920.6,"vertical_relief_m":736.0,"max_jut":263.2106,"search_radius_m":2500,"elev_angle_deg":20.9675}},{"type":"Feature","geometry":{"type":"Point","coordinates":[114.11168798454084,39.94408318178079]},"properties":{"peak_name":"二别夫尖2004","peak_elev":2004,"peak_lon":114.106298,"peak_lat":39.90850830078125,"base_elev":1008,"distance_m":3976.8,"vertical_relief_m":996.0,"max_jut":241.6584,"search_radius_m":7500,"elev_angle_deg":14.0606}},{"type":"Feature","geometry":{"type":"Point","coordinates":[113.90902805644347,39.04828318045681]},"properties":{"peak_name":"2006无名峰","peak_elev":2006,"peak_lon":113.874263,"peak_lat":39.04154586791992,"base_elev":1051,"distance_m":3101.2,"vertical_relief_m":955.0,"max_jut":281.6187,"search_radius_m":5500,"elev_angle_deg":17.116}},{"type":"Feature","geometry":{"type":"Point","coordinates":[114.05212968120372,39.94246621426938]},"properties":{"peak_name":"青天背西峰2008","peak_elev":2008,"peak_lon":114.050782,"peak_lat":39.92171478271485,"base_elev":1078,"distance_m":2307.0,"vertical_relief_m":930.0,"max_jut":347.2835,"search_radius_m":4500,"elev_angle_deg":21.9554}},{"type":"Feature","geometry":{"type":"Point","coordinates":[113.75406866993288,39.09005484116836]},"properties":{"peak_name":"2013无名峰","peak_elev":2013,"peak_lon":113.750969,"peak_lat":39.06984329223633,"base_elev":1205,"distance_m":2259.8,"vertical_relief_m":808.0,"max_jut":271.6644,"search_radius_m":3000,"elev_angle_deg":19.6747}},{"type":"Feature","geometry":{"type":"Point","coordinates":[113.71526144965893,39.6818649503463]},"properties":{"peak_name":"恒山天峰岭2014","peak_elev":2014,"peak_lon":113.726041,"peak_lat":39.671624,"base_elev":1201,"distance_m":1465.7,"vertical_relief_m":813.0,"max_jut":394.3781,"search_radius_m":2250,"elev_angle_deg":29.0164}},{"type":"Feature","geometry":{"type":"Point","coordinates":[113.8505477314473,39.04127632124067]},"properties":{"peak_name":"2022无名峰(1)","peak_elev":2022,"peak_lon":113.858633,"peak_lat":39.03696441650391,"base_elev":1553,"distance_m":848.0,"vertical_relief_m":469.0,"max_jut":227.1751,"search_radius_m":875,"elev_angle_deg":28.9455}},{"type":"Feature","geometry":{"type":"Point","coordinates":[113.71957336302268,39.68294292868725]},"properties":{"peak_name":"恒山东南峰2030","peak_elev":2030,"peak_lon":113.737899,"peak_lat":39.671624,"base_elev":1234,"distance_m":2012.8,"vertical_relief_m":796.0,"max_jut":292.9584,"search_radius_m":3500,"elev_angle_deg":21.5773}},{"type":"Feature","geometry":{"type":"Point","coordinates":[113.37462029392078,39.12428065349332]},"properties":{"peak_name":"2031无名峰","peak_elev":2031,"peak_lon":113.365457,"peak_lat":39.117274,"base_elev":1472,"distance_m":1110.4,"vertical_relief_m":559.0,"max_jut":251.4437,"search_radius_m":1250,"elev_angle_deg":26.7217}},{"type":"Feature","geometry":{"type":"Point","coordinates":[113.04745386744446,39.00246910096671]},"properties":{"peak_name":"2033无名峰","peak_elev":2033,"peak_lon":113.057425,"peak_lat":39.001930236816406,"base_elev":1476,"distance_m":865.8,"vertical_relief_m":557.0,"max_jut":301.8758,"search_radius_m":3000,"elev_angle_deg":32.7546}},{"type":"Feature","geometry":{"type":"Point","coordinates":[113.7203818467784,39.60101657477555]},"properties":{"peak_name":"大尖山2041","peak_elev":2041,"peak_lon":113.728736,"peak_lat":39.59939956665039,"base_elev":1612,"distance_m":739.7,"vertical_relief_m":429.0,"max_jut":215.597,"search_radius_m":750,"elev_angle_deg":30.1122}},{"type":"Feature","geometry":{"type":"Point","coordinates":[113.78182661221216,39.75570646670093]},"properties":{"peak_name":"花银山2043","peak_elev":2043,"peak_lon":113.805138,"peak_lat":39.74303817749024,"base_elev":1256,"distance_m":2443.4,"vertical_relief_m":787.0,"max_jut":241.5249,"search_radius_m":3500,"elev_angle_deg":17.8533}},{"type":"Feature","geometry":{"type":"Point","coordinates":[113.13099718886755,39.02106422734799]},"properties":{"peak_name":"2047无名峰","peak_elev":2047,"peak_lon":113.133827,"peak_lat":39.029958,"base_elev":1421,"distance_m":1017.3,"vertical_relief_m":626.0,"max_jut":327.7455,"search_radius_m":1375,"elev_angle_deg":31.6062}},{"type":"Feature","geometry":{"type":"Point","coordinates":[113.74167191901202,39.08870736824218]},"properties":{"peak_name":"2049无名峰","peak_elev":2049,"peak_lon":113.741133,"peak_lat":39.068495,"base_elev":1254,"distance_m":2244.4,"vertical_relief_m":795.0,"max_jut":265.0634,"search_radius_m":2500,"elev_angle_deg":19.5049}},{"type":"Feature","geometry":{"type":"Point","coordinates":[113.61581794770689,39.18329996765997]},"properties":{"peak_name":"2062无名峰","peak_elev":2062,"peak_lon":113.602882,"peak_lat":39.178719,"base_elev":1360,"distance_m":1228.0,"vertical_relief_m":702.0,"max_jut":348.8527,"search_radius_m":1750,"elev_angle_deg":29.7549}},{"type":"Feature","geometry":{"type":"Point","coordinates":[113.72981415726164,39.0474746967011]},"properties":{"peak_name":"2081无名峰","peak_elev":2081,"peak_lon":113.728197,"peak_lat":39.031844,"base_elev":1372,"distance_m":1740.9,"vertical_relief_m":709.0,"max_jut":267.0579,"search_radius_m":1750,"elev_angle_deg":22.1591}},{"type":"Feature","geometry":{"type":"Point","coordinates":[113.84057643179358,39.04316278333732]},"properties":{"peak_name":"2082无名峰","peak_elev":2082,"peak_lon":113.848661,"peak_lat":39.026454,"base_elev":1388,"distance_m":1982.6,"vertical_relief_m":694.0,"max_jut":229.0582,"search_radius_m":2000,"elev_angle_deg":19.2924}},{"type":"Feature","geometry":{"type":"Point","coordinates":[113.11860043794672,39.03642541870643]},"properties":{"peak_name":"2096无名峰","peak_elev":2096,"peak_lon":113.129111,"peak_lat":39.046531,"base_elev":1360,"distance_m":1444.5,"vertical_relief_m":736.0,"max_jut":334.136,"search_radius_m":4500,"elev_angle_deg":26.9997}},{"type":"Feature","geometry":{"type":"Point","coordinates":[113.570273362802,39.159314949573975]},"properties":{"peak_name":"2103无名峰","peak_elev":2103,"peak_lon":113.572968,"peak_lat":39.155542,"base_elev":1779,"distance_m":479.3,"vertical_relief_m":324.0,"max_jut":181.3798,"search_radius_m":625,"elev_angle_deg":34.0581}},{"type":"Feature","geometry":{"type":"Point","coordinates":[113.6212078394116,39.59724365058224]},"properties":{"peak_name":"2113无名峰","peak_elev":2113,"peak_lon":113.628484,"peak_lat":39.586733,"base_elev":1469,"distance_m":1323.8,"vertical_relief_m":644.0,"max_jut":281.5771,"search_radius_m":5250,"elev_angle_deg":25.9419}},{"type":"Feature","geometry":{"type":"Point","coordinates":[113.80985404907668,39.132634985635626]},"properties":{"peak_name":"2134无名峰","peak_elev":2134,"peak_lon":113.810932,"peak_lat":39.15958404541016,"base_elev":1197,"distance_m":2993.3,"vertical_relief_m":937.0,"max_jut":279.5143,"search_radius_m":3000,"elev_angle_deg":17.3818}},{"type":"Feature","geometry":{"type":"Point","coordinates":[113.82198130541232,39.12913155602756]},"properties":{"peak_name":"大清山2138","peak_elev":2138,"peak_lon":113.826293,"peak_lat":39.155138,"base_elev":1115,"distance_m":2911.2,"vertical_relief_m":1023.0,"max_jut":338.6991,"search_radius_m":3250,"elev_angle_deg":19.3616}},{"type":"Feature","geometry":{"type":"Point","coordinates":[113.15201776651595,39.33367794622158]},"properties":{"peak_name":"鹰家梁2145","peak_elev":2145,"peak_lon":113.142855,"peak_lat":39.306728,"base_elev":1444,"distance_m":3094.6,"vertical_relief_m":701.0,"max_jut":154.6763,"search_radius_m":3250,"elev_angle_deg":12.7634}},{"type":"Feature","geometry":{"type":"Point","coordinates":[113.82764069170226,39.027262602808406]},"properties":{"peak_name":"2152无名峰","peak_elev":2152,"peak_lon":113.830875,"peak_lat":39.015674,"base_elev":1509,"distance_m":1316.7,"vertical_relief_m":643.0,"max_jut":281.8386,"search_radius_m":1375,"elev_angle_deg":26.0282}},{"type":"Feature","geometry":{"type":"Point","coordinates":[113.1266852755038,39.03669491329166]},"properties":{"peak_name":"2153无名峰","peak_elev":2153,"peak_lon":113.138274,"peak_lat":39.042354,"base_elev":1488,"distance_m":1183.8,"vertical_relief_m":665.0,"max_jut":326.0242,"search_radius_m":4500,"elev_angle_deg":29.3251}},{"type":"Feature","geometry":{"type":"Point","coordinates":[113.961040511394,39.94273570885461]},"properties":{"peak_name":"2155无名峰","peak_elev":2155,"peak_lon":113.968721,"peak_lat":39.89004898071289,"base_elev":974,"distance_m":5886.8,"vertical_relief_m":1181.0,"max_jut":231.9898,"search_radius_m":10000,"elev_angle_deg":11.344}},{"type":"Feature","geometry":{"type":"Point","coordinates":[113.11105458956013,39.02160321651846]},"properties":{"peak_name":"大尖山2162","peak_elev":2162,"peak_lon":113.144741,"peak_lat":39.042085,"base_elev":1103,"distance_m":3698.4,"vertical_relief_m":1059.0,"max_jut":291.7893,"search_radius_m":4750,"elev_angle_deg":15.9785}},{"type":"Feature","geometry":{"type":"Point","coordinates":[113.81847787580423,39.72175014896121]},"properties":{"peak_name":"2165无名峰(2)","peak_elev":2165,"peak_lon":113.839229,"peak_lat":39.727949,"base_elev":1544,"distance_m":1907.6,"vertical_relief_m":621.0,"max_jut":192.5803,"search_radius_m":3500,"elev_angle_deg":18.0321}},{"type":"Feature","geometry":{"type":"Point","coordinates":[113.80662011405386,39.87913498673896]},"properties":{"peak_name":"2173无名峰","peak_elev":2173,"peak_lon":113.817669,"peak_lat":39.87212753295898,"base_elev":1639,"distance_m":1224.3,"vertical_relief_m":534.0,"max_jut":213.6511,"search_radius_m":8000,"elev_angle_deg":23.5653}},{"type":"Feature","geometry":{"type":"Point","coordinates":[113.32045188228838,39.07496314439516]},"properties":{"peak_name":"2182无名峰","peak_elev":2182,"peak_lon":113.332849,"peak_lat":39.09234619140625,"base_elev":1289,"distance_m":2207.9,"vertical_relief_m":893.0,"max_jut":334.6538,"search_radius_m":3250,"elev_angle_deg":22.0212}},{"type":"Feature","geometry":{"type":"Point","coordinates":[113.7249632547274,40.43537181066576]},"properties":{"peak_name":"2190无名峰","peak_elev":2190,"peak_lon":113.736013,"peak_lat":40.465825,"base_elev":1229,"distance_m":3509.2,"vertical_relief_m":961.0,"max_jut":253.5774,"search_radius_m":7250,"elev_angle_deg":15.3151}},{"type":"Feature","geometry":{"type":"Point","coordinates":[113.40749863331956,39.132095996465154]},"properties":{"peak_name":"三岔梁2206","peak_elev":2206,"peak_lon":113.42259216308594,"peak_lat":39.11902618408203,"base_elev":1477,"distance_m":1951.6,"vertical_relief_m":729.0,"max_jut":255.1295,"search_radius_m":2000,"elev_angle_deg":20.4827}},{"type":"Feature","geometry":{"type":"Point","coordinates":[113.62794520404248,39.12158570764096]},"properties":{"peak_name":"2209无名峰","peak_elev":2209,"peak_lon":113.615414,"peak_lat":39.114309,"base_elev":1626,"distance_m":1351.7,"vertical_relief_m":583.0,"max_jut":231.0821,"search_radius_m":1500,"elev_angle_deg":23.331}},{"type":"Feature","geometry":{"type":"Point","coordinates":[113.60072625093366,39.15042162826119]},"properties":{"peak_name":"2211无名峰","peak_elev":2211,"peak_lon":113.596684,"peak_lat":39.154195,"base_elev":1834,"distance_m":545.5,"vertical_relief_m":377.0,"max_jut":214.35,"search_radius_m":750,"elev_angle_deg":34.6487}},{"type":"Feature","geometry":{"type":"Point","coordinates":[113.24229845256998,39.34014581626724]},"properties":{"peak_name":"五斗山2213","peak_elev":2213,"peak_lon":113.242029,"peak_lat":39.33232879638672,"base_elev":1742,"distance_m":868.2,"vertical_relief_m":471.0,"max_jut":224.3327,"search_radius_m":1500,"elev_angle_deg":28.4799}},{"type":"Feature","geometry":{"type":"Point","coordinates":[113.19109448137516,39.052056104650106]},"properties":{"peak_name":"2214无名峰","peak_elev":2214,"peak_lon":113.202952,"peak_lat":39.05825424194336,"base_elev":1631,"distance_m":1235.7,"vertical_relief_m":583.0,"max_jut":249.0117,"search_radius_m":1250,"elev_angle_deg":25.2578}},{"type":"Feature","geometry":{"type":"Point","coordinates":[113.42690224345654,39.11430935383959]},"properties":{"peak_name":"2219无名峰","peak_elev":2219,"peak_lon":113.42825317382812,"peak_lat":39.11781311035156,"base_elev":1839,"distance_m":406.1,"vertical_relief_m":380.0,"max_jut":259.4459,"search_radius_m":1625,"elev_angle_deg":43.0984}},{"type":"Feature","geometry":{"type":"Point","coordinates":[113.37812372352884,39.11565682676577]},"properties":{"peak_name":"2221无名峰","peak_elev":2221,"peak_lon":113.39060974121094,"peak_lat":39.113321,"base_elev":1623,"distance_m":1110.6,"vertical_relief_m":598.0,"max_jut":283.9986,"search_radius_m":1250,"elev_angle_deg":28.3001}},{"type":"Feature","geometry":{"type":"Point","coordinates":[113.85378166647014,39.86754671957381]},"properties":{"peak_name":"2229无名峰","peak_elev":2229,"peak_lon":113.826832,"peak_lat":39.858923,"base_elev":1488,"distance_m":2496.8,"vertical_relief_m":741.0,"max_jut":211.1843,"search_radius_m":3500,"elev_angle_deg":16.5298}},{"type":"Feature","geometry":{"type":"Point","coordinates":[114.24966921218162,39.35901043723375]},"properties":{"peak_name":"太白巍山东峰2231","peak_elev":2231,"peak_lon":114.215174,"peak_lat":39.351465,"base_elev":1190,"distance_m":3089.0,"vertical_relief_m":1041.0,"max_jut":333.0864,"search_radius_m":8000,"elev_angle_deg":18.6239}},{"type":"Feature","geometry":{"type":"Point","coordinates":[113.85405116105537,39.88263841634701]},"properties":{"peak_name":"2233无名峰","peak_elev":2233,"peak_lon":113.821712,"peak_lat":39.864043,"base_elev":1368,"distance_m":3452.2,"vertical_relief_m":865.0,"max_jut":210.4379,"search_radius_m":4250,"elev_angle_deg":14.0667}},{"type":"Feature","geometry":{"type":"Point","coordinates":[114.25344213637491,39.36035791015993]},"properties":{"peak_name":"太白巍山2236","peak_elev":2236,"peak_lon":114.207628,"peak_lat":39.347961,"base_elev":1139,"distance_m":4181.8,"vertical_relief_m":1097.0,"max_jut":278.8612,"search_radius_m":8000,"elev_angle_deg":14.699}},{"type":"Feature","geometry":{"type":"Point","coordinates":[113.31964339853268,39.07145971478709]},"properties":{"peak_name":"二架梁2245","peak_elev":2245,"peak_lon":113.339855,"peak_lat":39.093828,"base_elev":1223,"distance_m":3037.3,"vertical_relief_m":1022.0,"max_jut":325.872,"search_radius_m":4500,"elev_angle_deg":18.5972}},{"type":"Feature","geometry":{"type":"Point","coordinates":[113.26251054646266,39.32586260324974]},"properties":{"peak_name":"赤桦梁2249","peak_elev":2249,"peak_lon":113.251866,"peak_lat":39.314813,"base_elev":1733,"distance_m":1532.2,"vertical_relief_m":516.0,"max_jut":164.6684,"search_radius_m":10000,"elev_angle_deg":18.612}},{"type":"Feature","geometry":{"type":"Point","coordinates":[113.93489953662612,39.92953047417806]},"properties":{"peak_name":"2252无名峰","peak_elev":2252,"peak_lon":113.951339,"peak_lat":39.895574,"base_elev":1084,"distance_m":4023.8,"vertical_relief_m":1168.0,"max_jut":325.298,"search_radius_m":6750,"elev_angle_deg":16.1866}},{"type":"Feature","geometry":{"type":"Point","coordinates":[113.40830711707528,39.1188907617886]},"properties":{"peak_name":"2257无名峰","peak_elev":2257,"peak_lon":113.4069595336914,"peak_lat":39.111209869384766,"base_elev":1733,"distance_m":860.7,"vertical_relief_m":524.0,"max_jut":272.1991,"search_radius_m":1375,"elev_angle_deg":31.3333}},{"type":"Feature","geometry":{"type":"Point","coordinates":[113.398874806592,39.118082278032894]},"properties":{"peak_name":"2262无名峰","peak_elev":2262,"peak_lon":113.402378,"peak_lat":39.10837936401367,"base_elev":1708,"distance_m":1119.0,"vertical_relief_m":554.0,"max_jut":245.5457,"search_radius_m":2250,"elev_angle_deg":26.3393}},{"type":"Feature","geometry":{"type":"Point","coordinates":[113.77670621509267,40.42459202725632]},"properties":{"peak_name":"云门山北峰2264","peak_elev":2264,"peak_lon":113.757303,"peak_lat":40.474988,"base_elev":1121,"distance_m":5833.2,"vertical_relief_m":1143.0,"max_jut":219.5717,"search_radius_m":8500,"elev_angle_deg":11.0865}},{"type":"Feature","geometry":{"type":"Point","coordinates":[113.60665513180886,39.57568408376338]},"properties":{"peak_name":"龙山2265","peak_elev":2265,"peak_lon":113.638455,"peak_lat":39.572181,"base_elev":1326,"distance_m":2759.9,"vertical_relief_m":939.0,"max_jut":303.0983,"search_radius_m":7500,"elev_angle_deg":18.7898}},{"type":"Feature","geometry":{"type":"Point","coordinates":[113.74248040276773,40.427286973108686]},"properties":{"peak_name":"云门山2267","peak_elev":2267,"peak_lon":113.751643,"peak_lat":40.46852111816406,"base_elev":1184,"distance_m":4644.3,"vertical_relief_m":1083.0,"max_jut":245.6554,"search_radius_m":7250,"elev_angle_deg":13.1262}},{"type":"Feature","geometry":{"type":"Point","coordinates":[113.3363520628173,39.07550213356563]},"properties":{"peak_name":"豆花梁2269","peak_elev":2269,"peak_lon":113.353869,"peak_lat":39.08870697021485,"base_elev":1428,"distance_m":2108.6,"vertical_relief_m":841.0,"max_jut":311.7009,"search_radius_m":4750,"elev_angle_deg":21.7442}},{"type":"Feature","geometry":{"type":"Point","coordinates":[113.77589773133695,39.17602361385861]},"properties":{"peak_name":"2272无名峰","peak_elev":2272,"peak_lon":113.756898,"peak_lat":39.17413711547852,"base_elev":1670,"distance_m":1655.1,"vertical_relief_m":602.0,"max_jut":206.2038,"search_radius_m":3750,"elev_angle_deg":19.9876}},{"type":"Feature","geometry":{"type":"Point","coordinates":[113.92573672072812,39.934650871297535]},"properties":{"peak_name":"2273无名峰","peak_elev":2273,"peak_lon":113.948284,"peak_lat":39.847155,"base_elev":1004,"distance_m":9904.5,"vertical_relief_m":1269.0,"max_jut":161.0596,"search_radius_m":10000,"elev_angle_deg":7.3012}},{"type":"Feature","geometry":{"type":"Point","coordinates":[113.9505302225698,39.93384238754183]},"properties":{"peak_name":"2277无名峰","peak_elev":2277,"peak_lon":113.957537,"peak_lat":39.89503479003906,"base_elev":1063,"distance_m":4350.4,"vertical_relief_m":1214.0,"max_jut":325.8878,"search_radius_m":9250,"elev_angle_deg":15.592}},{"type":"Feature","geometry":{"type":"Point","coordinates":[113.37866271269932,39.10918895672011]},"properties":{"peak_name":"2297无名峰","peak_elev":2297,"peak_lon":113.38351440429688,"peak_lat":39.0994873046875,"base_elev":1735,"distance_m":1155.9,"vertical_relief_m":562.0,"max_jut":245.5214,"search_radius_m":6750,"elev_angle_deg":25.9291}},{"type":"Feature","geometry":{"type":"Point","coordinates":[113.90579412142066,39.874823073375175]},"properties":{"peak_name":"2307无名峰","peak_elev":2307,"peak_lon":113.937864,"peak_lat":39.85002899169922,"base_elev":1446,"distance_m":3887.0,"vertical_relief_m":861.0,"max_jut":186.2798,"search_radius_m":10000,"elev_angle_deg":12.4898}},{"type":"Feature","geometry":{"type":"Point","coordinates":[113.47190783919092,39.50588498618729]},"properties":{"peak_name":"卧羊场2317","peak_elev":2317,"peak_lon":113.502091,"peak_lat":39.489985,"base_elev":1459,"distance_m":3139.5,"vertical_relief_m":858.0,"max_jut":226.4246,"search_radius_m":5250,"elev_angle_deg":15.2852}},{"type":"Feature","geometry":{"type":"Point","coordinates":[113.36896090763084,39.0798140469294]},"properties":{"peak_name":"2318无名峰","peak_elev":2318,"peak_lon":113.379471,"peak_lat":39.085204,"base_elev":1745,"distance_m":1088.6,"vertical_relief_m":573.0,"max_jut":267.1532,"search_radius_m":1375,"elev_angle_deg":27.7607}},{"type":"Feature","geometry":{"type":"Point","coordinates":[113.38162715313692,39.06148841513336]},"properties":{"peak_name":"2324无名峰","peak_elev":2324,"peak_lon":113.373812,"peak_lat":39.090729,"base_elev":1389,"distance_m":3315.9,"vertical_relief_m":935.0,"max_jut":253.4169,"search_radius_m":5250,"elev_angle_deg":15.7471}},{"type":"Feature","geometry":{"type":"Point","coordinates":[113.61932137731496,39.17575411927336]},"properties":{"peak_name":"憨山2326","peak_elev":2326,"peak_lon":113.597762,"peak_lat":39.16712951660156,"base_elev":1391,"distance_m":2094.7,"vertical_relief_m":935.0,"max_jut":381.5989,"search_radius_m":2500,"elev_angle_deg":24.0543}},{"type":"Feature","geometry":{"type":"Point","coordinates":[113.95295567383694,39.9343813767123]},"properties":{"peak_name":"六棱山2362","peak_elev":2362,"peak_lon":113.965352,"peak_lat":39.90568161010742,"base_elev":1059,"distance_m":3358.3,"vertical_relief_m":1303.0,"max_jut":470.8865,"search_radius_m":5000,"elev_angle_deg":21.206}},{"type":"Feature","geometry":{"type":"Point","coordinates":[113.68453906694202,39.196505202336525]},"properties":{"peak_name":"2375无名峰","peak_elev":2375,"peak_lon":113.676993,"peak_lat":39.19246292114258,"base_elev":1870,"distance_m":791.4,"vertical_relief_m":505.0,"max_jut":271.8628,"search_radius_m":5500,"elev_angle_deg":32.5423}},{"type":"Feature","geometry":{"type":"Point","coordinates":[112.98277516698784,39.30565050935705]},"properties":{"peak_name":"草垛山2387","peak_elev":2387,"peak_lon":113.017809,"peak_lat":39.280588,"base_elev":1302,"distance_m":4108.1,"vertical_relief_m":1085.0,"max_jut":277.1958,"search_radius_m":10000,"elev_angle_deg":14.7947}},{"type":"Feature","geometry":{"type":"Point","coordinates":[113.63683852535527,39.1692862492277]},"properties":{"peak_name":"2406无名峰","peak_elev":2406,"peak_lon":113.66809844970705,"peak_lat":39.168074,"base_elev":1555,"distance_m":2704.8,"vertical_relief_m":851.0,"max_jut":255.9671,"search_radius_m":2750,"elev_angle_deg":17.4649}},{"type":"Feature","geometry":{"type":"Point","coordinates":[113.26224105187744,39.09005484116836]},"properties":{"peak_name":"马鬃山2436","peak_elev":2436,"peak_lon":113.230575,"peak_lat":39.056638,"base_elev":1111,"distance_m":4612.2,"vertical_relief_m":1325.0,"max_jut":365.7661,"search_radius_m":5750,"elev_angle_deg":16.0284}},{"type":"Feature","geometry":{"type":"Point","coordinates":[113.62471126901966,39.17683209761431]},"properties":{"peak_name":"灵岩山2486","peak_elev":2486,"peak_lon":113.671064,"peak_lat":39.180605,"base_elev":1391,"distance_m":4027.1,"vertical_relief_m":1095.0,"max_jut":287.9615,"search_radius_m":5000,"elev_angle_deg":15.2114}},{"type":"Feature","geometry":{"type":"Point","coordinates":[113.30886361512324,39.02995754866077]},"properties":{"peak_name":"大尖2489","peak_elev":2489,"peak_lon":113.277467,"peak_lat":39.004625,"base_elev":1483,"distance_m":3911.9,"vertical_relief_m":1006.0,"max_jut":250.6177,"search_radius_m":5250,"elev_angle_deg":14.4219}},{"type":"Feature","geometry":{"type":"Point","coordinates":[113.69370188284005,39.02807108656412]},"properties":{"peak_name":"2549无名峰","peak_elev":2549,"peak_lon":113.680766,"peak_lat":39.006107330322266,"base_elev":1657,"distance_m":2683.4,"vertical_relief_m":892.0,"max_jut":281.14,"search_radius_m":4250,"elev_angle_deg":18.3875}},{"type":"Feature","geometry":{"type":"Point","coordinates":[113.69154592615816,39.019177765251335]},"properties":{"peak_name":"2550无名峰","peak_elev":2550,"peak_lon":113.690198,"peak_lat":39.007859,"base_elev":1828,"distance_m":1262.0,"vertical_relief_m":722.0,"max_jut":358.1126,"search_radius_m":3000,"elev_angle_deg":29.7742}},{"type":"Feature","geometry":{"type":"Point","coordinates":[113.6934323882548,39.027532097393646]},"properties":{"peak_name":"2605无名峰","peak_elev":2605,"peak_lon":113.676993,"peak_lat":39.015135,"base_elev":1670,"distance_m":1980.1,"vertical_relief_m":935.0,"max_jut":399.3717,"search_radius_m":2000,"elev_angle_deg":25.2766}},{"type":"Feature","geometry":{"type":"Point","coordinates":[113.7203818467784,39.09301928160596]},"properties":{"peak_name":"2618无名峰","peak_elev":2618,"peak_lon":113.690198,"peak_lat":39.133443,"base_elev":1362,"distance_m":5191.8,"vertical_relief_m":1256.0,"max_jut":295.1917,"search_radius_m":6000,"elev_angle_deg":13.5997}},{"type":"Feature","geometry":{"type":"Point","coordinates":[113.732509103114,39.11457884842483]},"properties":{"peak_name":"2643无名峰","peak_elev":2643,"peak_lon":113.698688,"peak_lat":39.139102935791016,"base_elev":1495,"distance_m":3995.7,"vertical_relief_m":1148.0,"max_jut":317.2,"search_radius_m":5750,"elev_angle_deg":16.0298}},{"type":"Feature","geometry":{"type":"Point","coordinates":[113.6317181282358,39.08143101444082]},"properties":{"peak_name":"花岩岭2684","peak_elev":2684,"peak_lon":113.634952,"peak_lat":39.063105,"base_elev":1928,"distance_m":2053.7,"vertical_relief_m":756.0,"max_jut":260.8162,"search_radius_m":2250,"elev_angle_deg":20.2095}},{"type":"Feature","geometry":{"type":"Point","coordinates":[113.47379430128758,39.07388516605421]},"properties":{"peak_name":"2691无名峰","peak_elev":2691,"peak_lon":113.495623,"peak_lat":39.08870697021485,"base_elev":1858,"distance_m":2505.0,"vertical_relief_m":833.0,"max_jut":263.0287,"search_radius_m":2750,"elev_angle_deg":18.3938}},{"type":"Feature","geometry":{"type":"Point","coordinates":[113.4888859980608,39.07065123103138]},"properties":{"peak_name":"2710无名峰","peak_elev":2710,"peak_lon":113.503798,"peak_lat":39.084036,"base_elev":1977,"distance_m":1968.0,"vertical_relief_m":733.0,"max_jut":255.8819,"search_radius_m":2500,"elev_angle_deg":20.4283}},{"type":"Feature","geometry":{"type":"Point","coordinates":[113.53739502340323,39.1436842636303]},"properties":{"peak_name":"大黄尖2723","peak_elev":2723,"peak_lon":113.522303,"peak_lat":39.119699,"base_elev":1800,"distance_m":2965.4,"vertical_relief_m":923.0,"max_jut":274.1017,"search_radius_m":3000,"elev_angle_deg":17.2891}},{"type":"Feature","geometry":{"type":"Point","coordinates":[113.55221722559122,39.118082278032894]},"properties":{"peak_name":"2732无名峰","peak_elev":2732,"peak_lon":113.563536,"peak_lat":39.114579,"base_elev":2173,"distance_m":1053.3,"vertical_relief_m":559.0,"max_jut":262.4294,"search_radius_m":2250,"elev_angle_deg":27.9555}},{"type":"Feature","geometry":{"type":"Point","coordinates":[113.68750350737962,39.03211350534266]},"properties":{"peak_name":"东台西南峰2735","peak_elev":2735,"peak_lon":113.654221,"peak_lat":39.037638,"base_elev":1724,"distance_m":2946.3,"vertical_relief_m":1011.0,"max_jut":328.8175,"search_radius_m":3000,"elev_angle_deg":18.9393}},{"type":"Feature","geometry":{"type":"Point","coordinates":[113.5438628934489,39.12589762100473]},"properties":{"peak_name":"2738无名峰","peak_elev":2738,"peak_lon":113.534161,"peak_lat":39.111075,"base_elev":2015,"distance_m":1847.1,"vertical_relief_m":723.0,"max_jut":263.3478,"search_radius_m":10000,"elev_angle_deg":21.3766}},{"type":"Feature","geometry":{"type":"Point","coordinates":[113.49966578147024,39.07011224186091]},"properties":{"peak_name":"2757无名峰","peak_elev":2759,"peak_lon":113.514892,"peak_lat":39.081027,"base_elev":2072,"distance_m":1790.1,"vertical_relief_m":687.0,"max_jut":246.2908,"search_radius_m":2000,"elev_angle_deg":20.9957}},{"type":"Feature","geometry":{"type":"Point","coordinates":[113.47460278504327,39.05555953425817]},"properties":{"peak_name":"西台挂月峰2773","peak_elev":2780,"peak_lon":113.490233,"peak_lat":39.038042,"base_elev":1954,"distance_m":2369.2,"vertical_relief_m":826.0,"max_jut":271.8509,"search_radius_m":3000,"elev_angle_deg":19.2206}},{"type":"Feature","geometry":{"type":"Point","coordinates":[113.50343870566353,39.02456765695605]},"properties":{"peak_name":"2789无名峰","peak_elev":2789,"peak_lon":113.511658,"peak_lat":39.03898620605469,"base_elev":2163,"distance_m":1751.8,"vertical_relief_m":626.0,"max_jut":210.4831,"search_radius_m":8750,"elev_angle_deg":19.6642}},{"type":"Feature","geometry":{"type":"Point","coordinates":[113.55572065519928,39.04909166421251]},"properties":{"peak_name":"2792无名峰","peak_elev":2792,"peak_lon":113.541842,"peak_lat":39.05906295776367,"base_elev":2160,"distance_m":1633.6,"vertical_relief_m":632.0,"max_jut":228.1591,"search_radius_m":10000,"elev_angle_deg":21.1502}},{"type":"Feature","geometry":{"type":"Point","coordinates":[113.54413238803414,39.1256281264195]},"properties":{"peak_name":"2794无名峰","peak_elev":2794,"peak_lon":113.537395,"peak_lat":39.104338,"base_elev":2018,"distance_m":2434.4,"vertical_relief_m":776.0,"max_jut":235.3883,"search_radius_m":10000,"elev_angle_deg":17.6804}},{"type":"Feature","geometry":{"type":"Point","coordinates":[113.54547986096031,39.1188907617886]},"properties":{"peak_name":"2817无名峰","peak_elev":2817,"peak_lon":113.5452117919922,"peak_lat":39.104069,"base_elev":2138,"distance_m":1645.7,"vertical_relief_m":679.0,"max_jut":258.6274,"search_radius_m":10000,"elev_angle_deg":22.4206}},{"type":"Feature","geometry":{"type":"Point","coordinates":[113.50721162985684,39.06768679059379]},"properties":{"peak_name":"2828无名峰","peak_elev":2828,"peak_lon":113.514218,"peak_lat":39.053404,"base_elev":2141,"distance_m":1697.6,"vertical_relief_m":687.0,"max_jut":257.4693,"search_radius_m":10000,"elev_angle_deg":22.0326}},{"type":"Feature","geometry":{"type":"Point","coordinates":[113.56892588987584,39.04882216962728]},"properties":{"peak_name":"2835无名峰","peak_elev":2835,"peak_lon":113.552217,"peak_lat":39.066968,"base_elev":2056,"distance_m":2479.9,"vertical_relief_m":779.0,"max_jut":233.4188,"search_radius_m":10000,"elev_angle_deg":17.4388}},{"type":"Feature","geometry":{"type":"Point","coordinates":[113.59506686464373,39.10864996754964]},"properties":{"peak_name":"2836无名峰","peak_elev":2836,"peak_lon":113.594258,"peak_lat":39.088438,"base_elev":1885,"distance_m":2245.0,"vertical_relief_m":951.0,"max_jut":370.445,"search_radius_m":2750,"elev_angle_deg":22.9579}},{"type":"Feature","geometry":{"type":"Point","coordinates":[113.5775497166034,39.10191260291874]},"properties":{"peak_name":"2907无名峰(2)","peak_elev":2907,"peak_lon":113.557427,"peak_lat":39.094726,"base_elev":2119,"distance_m":1914.9,"vertical_relief_m":788.0,"max_jut":300.3132,"search_radius_m":10000,"elev_angle_deg":22.3676}},{"type":"Feature","geometry":{"type":"Point","coordinates":[113.59506686464373,39.10864996754964]},"properties":{"peak_name":"北台东峰3046","peak_elev":3046,"peak_lon":113.574046,"peak_lat":39.080352783203125,"base_elev":1885,"distance_m":3629.9,"vertical_relief_m":1161.0,"max_jut":353.4866,"search_radius_m":6750,"elev_angle_deg":17.7365}},{"type":"Feature","geometry":{"type":"Point","coordinates":[114.02949213604391,39.060679931377656]},"properties":{"peak_name":"952无名峰","peak_elev":952,"peak_lon":114.02545166015624,"peak_lat":39.05825424194336,"base_elev":536,"distance_m":441.4,"vertical_relief_m":416.0,"max_jut":285.4619,"search_radius_m":875,"elev_angle_deg":43.3031}},{"type":"Feature","geometry":{"type":"Point","coordinates":[113.68615603445345,39.03292198909836]},"properties":{"peak_name":"东台望海峰2795","peak_elev":2800,"peak_lon":113.661228,"peak_lat":39.041276,"base_elev":1752,"distance_m":2349.1,"vertical_relief_m":1048.0,"max_jut":427.6392,"search_radius_m":3000,"elev_angle_deg":24.043}},{"type":"Feature","geometry":{"type":"Point","coordinates":[113.59371939171754,39.1083804729644]},"properties":{"peak_name":"北台叶斗峰3058","peak_elev":3065,"peak_lon":113.5667724609375,"peak_lat":39.080623,"base_elev":1898,"distance_m":3864.0,"vertical_relief_m":1167.0,"max_jut":337.3413,"search_radius_m":7500,"elev_angle_deg":16.8053}},{"type":"Feature","geometry":{"type":"Point","coordinates":[114.46203094534746,40.216003218283774]},"properties":{"peak_name":"南背1735","peak_elev":1730,"peak_lon":114.446805,"peak_lat":40.241605,"base_elev":1028,"distance_m":3124.2,"vertical_relief_m":702.0,"max_jut":153.7973,"search_radius_m":5500,"elev_angle_deg":12.6639}},{"type":"Feature","geometry":{"type":"Point","coordinates":[114.18229556587264,39.020794732762745]},"properties":{"peak_name":"双尖顶山1223","peak_elev":1249,"peak_lon":114.179062,"peak_lat":39.025107,"base_elev":820,"distance_m":554.6,"vertical_relief_m":429.0,"max_jut":262.3841,"search_radius_m":750,"elev_angle_deg":37.723}},{"type":"Feature","geometry":{"type":"Point","coordinates":[114.42780513302252,40.06912866933023]},"properties":{"peak_name":"双条岭山1776.4","peak_elev":1772,"peak_lon":114.436833,"peak_lat":40.04985809326172,"base_elev":1012,"distance_m":2274.2,"vertical_relief_m":760.0,"max_jut":240.6742,"search_radius_m":3500,"elev_angle_deg":18.4788}},{"type":"Feature","geometry":{"type":"Point","coordinates":[113.98179159445716,39.10110411916303]},"properties":{"peak_name":"后梁高尖1463.9","peak_elev":1460,"peak_lon":114.00146484375,"peak_lat":39.102452,"base_elev":635,"distance_m":1708.3,"vertical_relief_m":825.0,"max_jut":359.475,"search_radius_m":1875,"elev_angle_deg":25.7776}},{"type":"Feature","geometry":{"type":"Point","coordinates":[114.04485332740236,39.05448155591723]},"properties":{"peak_name":"四楞坨1389","peak_elev":1383,"peak_lon":114.06775665283205,"peak_lat":39.053134,"base_elev":636,"distance_m":1988.2,"vertical_relief_m":747.0,"max_jut":263.2896,"search_radius_m":2250,"elev_angle_deg":20.592}},{"type":"Feature","geometry":{"type":"Point","coordinates":[113.3296146981864,39.70423300092088]},"properties":{"peak_name":"大头顶1650","peak_elev":1650,"peak_lon":113.343089,"peak_lat":39.700999,"base_elev":1161,"distance_m":1210.1,"vertical_relief_m":489.0,"max_jut":183.5443,"search_radius_m":1250,"elev_angle_deg":22.0036}},{"type":"Feature","geometry":{"type":"Point","coordinates":[114.3925013423566,39.09544473287309]},"properties":{"peak_name":"大寨子顶1297","peak_elev":1262,"peak_lon":114.386572,"peak_lat":39.093828,"base_elev":929,"distance_m":543.4,"vertical_relief_m":333.0,"max_jut":174.2353,"search_radius_m":625,"elev_angle_deg":31.5003}},{"type":"Feature","geometry":{"type":"Point","coordinates":[114.46364791285887,40.255618922313445]},"properties":{"peak_name":"天台山1974.5","peak_elev":1969,"peak_lon":114.439932,"peak_lat":40.25490188598633,"base_elev":1374,"distance_m":2019.2,"vertical_relief_m":595.0,"max_jut":168.5679,"search_radius_m":2250,"elev_angle_deg":16.4187}},{"type":"Feature","geometry":{"type":"Point","coordinates":[114.18579899548072,39.915786250331024]},"properties":{"peak_name":"太平坨1993.3","peak_elev":1985,"peak_lon":114.189302,"peak_lat":39.906623,"base_elev":1534,"distance_m":1060.6,"vertical_relief_m":451.0,"max_jut":176.3147,"search_radius_m":1625,"elev_angle_deg":23.0367}},{"type":"Feature","geometry":{"type":"Point","coordinates":[114.22757065619228,39.33259996788063]},"properties":{"peak_name":"太白巍山南峰2234","peak_elev":2219,"peak_lon":114.208437,"peak_lat":39.33556365966797,"base_elev":1510,"distance_m":1682.2,"vertical_relief_m":709.0,"max_jut":275.9175,"search_radius_m":7500,"elev_angle_deg":22.8541}},{"type":"Feature","geometry":{"type":"Point","coordinates":[114.49976018728049,39.45414202582201]},"properties":{"peak_name":"山浪尖1749.5","peak_elev":1746,"peak_lon":114.498682,"peak_lat":39.458993,"base_elev":1435,"distance_m":546.5,"vertical_relief_m":311.0,"max_jut":153.6522,"search_radius_m":1500,"elev_angle_deg":29.6432}},{"type":"Feature","geometry":{"type":"Point","coordinates":[113.72092083594886,39.68213444493154]},"properties":{"peak_name":"恒山2016","peak_elev":2034,"peak_lon":113.732913,"peak_lat":39.674589,"base_elev":1267,"distance_m":1326.8,"vertical_relief_m":767.0,"max_jut":384.1152,"search_radius_m":2750,"elev_angle_deg":30.0315}},{"type":"Feature","geometry":{"type":"Point","coordinates":[114.3547721004236,39.02106422734799]},"properties":{"peak_name":"抓虎寨1015","peak_elev":1004,"peak_lon":114.347765,"peak_lat":39.019986,"base_elev":665,"distance_m":618.5,"vertical_relief_m":339.0,"max_jut":163.2199,"search_radius_m":750,"elev_angle_deg":28.7272}},{"type":"Feature","geometry":{"type":"Point","coordinates":[113.90795007810254,39.02968805407553]},"properties":{"peak_name":"掘菜坪1961.1","peak_elev":1957,"peak_lon":113.888142,"peak_lat":39.029419,"base_elev":1108,"distance_m":1715.4,"vertical_relief_m":849.0,"max_jut":377.3255,"search_radius_m":1750,"elev_angle_deg":26.3321}},{"type":"Feature","geometry":{"type":"Point","coordinates":[114.3984302232318,39.17117271132435]},"properties":{"peak_name":"狼牙山1777","peak_elev":1765,"peak_lon":114.396005,"peak_lat":39.175754,"base_elev":1326,"distance_m":550.1,"vertical_relief_m":439.0,"max_jut":273.665,"search_radius_m":3250,"elev_angle_deg":38.5912}},{"type":"Feature","geometry":{"type":"Point","coordinates":[114.04296686530571,39.01486585188756]},"properties":{"peak_name":"白洋洞1187.6","peak_elev":1189,"peak_lon":114.058598,"peak_lat":39.016752,"base_elev":464,"distance_m":1369.9,"vertical_relief_m":725.0,"max_jut":339.7641,"search_radius_m":1375,"elev_angle_deg":27.8894}},{"type":"Feature","geometry":{"type":"Point","coordinates":[114.42160675756207,39.08466494946365]},"properties":{"peak_name":"皮扒背1795","peak_elev":1795,"peak_lon":114.411635,"peak_lat":39.064453125,"base_elev":870,"distance_m":2404.1,"vertical_relief_m":925.0,"max_jut":331.8508,"search_radius_m":5750,"elev_angle_deg":21.0447}},{"type":"Feature","geometry":{"type":"Point","coordinates":[113.86078852568627,39.37922253112644]},"properties":{"peak_name":"目泪坨1935","peak_elev":1936,"peak_lon":113.853512,"peak_lat":39.373023986816406,"base_elev":1548,"distance_m":931.0,"vertical_relief_m":388.0,"max_jut":149.2938,"search_radius_m":2250,"elev_angle_deg":22.6242}},{"type":"Feature","geometry":{"type":"Point","coordinates":[113.90795007810254,39.750586069581445]},"properties":{"peak_name":"黑驴沟梁2249","peak_elev":2248,"peak_lon":113.904986,"peak_lat":39.74573516845703,"base_elev":1859,"distance_m":595.5,"vertical_relief_m":389.0,"max_jut":212.6248,"search_radius_m":2250,"elev_angle_deg":33.1539}},{"type":"Feature","geometry":{"type":"Point","coordinates":[114.32243275019528,39.14395375821554]},"properties":{"peak_name":"碣寺山1768","peak_elev":1764,"peak_lon":114.308284,"peak_lat":39.156889,"base_elev":1041,"distance_m":1886.3,"vertical_relief_m":723.0,"max_jut":258.7959,"search_radius_m":3500,"elev_angle_deg":20.9713}},{"type":"Feature","geometry":{"type":"Point","coordinates":[114.49194484430863,39.03534744036549]},"properties":{"peak_name":"神仙山1869.8","peak_elev":1865,"peak_lon":114.466073,"peak_lat":39.027532,"base_elev":792,"distance_m":2402.3,"vertical_relief_m":1073.0,"max_jut":438.2701,"search_radius_m":4500,"elev_angle_deg":24.0682}},{"type":"Feature","geometry":{"type":"Point","coordinates":[114.45205964569374,39.37383263942172]},"properties":{"peak_name":"老虎头1794","peak_elev":1790,"peak_lon":114.4623031616211,"peak_lat":39.378324,"base_elev":1249,"distance_m":1013.8,"vertical_relief_m":541.0,"max_jut":255.0101,"search_radius_m":4000,"elev_angle_deg":28.086}},{"type":"Feature","geometry":{"type":"Point","coordinates":[113.99445783996326,39.04343227792256]},"properties":{"peak_name":"苦庄槽顶1194","peak_elev":1187,"peak_lon":113.98259735107422,"peak_lat":39.048282623291016,"base_elev":538,"distance_m":1159.4,"vertical_relief_m":649.0,"max_jut":317.3921,"search_radius_m":1625,"elev_angle_deg":29.2389}},{"type":"Feature","geometry":{"type":"Point","coordinates":[114.1984652409868,39.01567433564327]},"properties":{"peak_name":"草锥山1438.3","peak_elev":1423,"peak_lon":114.197118,"peak_lat":39.021064,"base_elev":890,"distance_m":609.6,"vertical_relief_m":533.0,"max_jut":350.5404,"search_radius_m":1000,"elev_angle_deg":41.1646}},{"type":"Feature","geometry":{"type":"Point","coordinates":[113.52338130497098,40.26639870572288]},"properties":{"peak_name":"采凉山2144.6","peak_elev":2145,"peak_lon":113.515027,"peak_lat":40.258314,"base_elev":1775,"distance_m":1145.0,"vertical_relief_m":370.0,"max_jut":113.7822,"search_radius_m":10000,"elev_angle_deg":17.9079}},{"type":"Feature","geometry":{"type":"Point","coordinates":[114.1623529665652,39.05852397469577]},"properties":{"peak_name":"铁角山1525","peak_elev":1510,"peak_lon":114.16073608398438,"peak_lat":39.061758,"base_elev":1173,"distance_m":385.3,"vertical_relief_m":337.0,"max_jut":221.717,"search_radius_m":500,"elev_angle_deg":41.1743}},{"type":"Feature","geometry":{"type":"Point","coordinates":[114.161005493639,39.94947307348551]},"properties":{"peak_name":"阳原歪头山1629.8","peak_elev":1619,"peak_lon":114.172863,"peak_lat":39.949473,"base_elev":1071,"distance_m":1013.3,"vertical_relief_m":548.0,"max_jut":261.1868,"search_radius_m":1250,"elev_angle_deg":28.4048}},{"type":"Feature","geometry":{"type":"Point","coordinates":[114.05347715412992,39.94273570885461]},"properties":{"peak_name":"青天背2045.9","peak_elev":2042,"peak_lon":114.061292,"peak_lat":39.922254,"base_elev":1079,"distance_m":2370.2,"vertical_relief_m":963.0,"max_jut":362.1229,"search_radius_m":4750,"elev_angle_deg":22.1117}},{"type":"Feature","geometry":{"type":"Point","coordinates":[113.46005007744056,39.79586115990107]},"properties":{"peak_name":"马头山1866","peak_elev":1859,"peak_lon":113.465979,"peak_lat":39.786159,"base_elev":1300,"distance_m":1190.9,"vertical_relief_m":559.0,"max_jut":237.3688,"search_radius_m":2250,"elev_angle_deg":25.145}},{"type":"Feature","geometry":{"type":"Point","coordinates":[114.28605098118844,39.087090400730766]},"properties":{"peak_name":"骆驼山1184","peak_elev":1185,"peak_lon":114.283087,"peak_lat":39.090055,"base_elev":829,"distance_m":417.2,"vertical_relief_m":356.0,"max_jut":231.0638,"search_radius_m":875,"elev_angle_deg":40.4744}},{"type":"Feature","geometry":{"type":"Point","coordinates":[114.16747336368468,38.99950466052911]},"properties":{"peak_name":"高八百山1215","peak_elev":1207,"peak_lon":114.148474,"peak_lat":39.004895,"base_elev":554,"distance_m":1751.2,"vertical_relief_m":653.0,"max_jut":228.5504,"search_radius_m":2000,"elev_angle_deg":20.4498}},{"type":"Feature","geometry":{"type":"Point","coordinates":[114.48817192011536,39.27789256707776]},"properties":{"peak_name":"黄泉坨1419","peak_elev":1412,"peak_lon":114.485207,"peak_lat":39.284629821777344,"base_elev":965,"distance_m":790.5,"vertical_relief_m":447.0,"max_jut":219.8295,"search_radius_m":1250,"elev_angle_deg":29.4866}},{"type":"Feature","geometry":{"type":"Point","coordinates":[113.9346300420409,39.89422668351216]},"properties":{"peak_name":"黄羊尖2420","peak_elev":2421,"peak_lon":113.935978,"peak_lat":39.8833122253418,"base_elev":1735,"distance_m":1217.3,"vertical_relief_m":686.0,"max_jut":336.4209,"search_radius_m":1625,"elev_angle_deg":29.4031}},{"type":"Feature","geometry":{"type":"Point","coordinates":[114.34668726286652,40.1944436514649]},"properties":{"peak_name":"黄花梁2035.6","peak_elev":2031,"peak_lon":114.33995056152344,"peak_lat":40.220854,"base_elev":1247,"distance_m":2988.2,"vertical_relief_m":784.0,"max_jut":198.7316,"search_radius_m":7750,"elev_angle_deg":14.7011}}]}