{"type":"FeatureCollection","features":[{"type":"Feature","geometry":{"type":"Point","coordinates":[142.8950571606565,43.51838986576396]},"properties":{"peak_name":"トムラウシ山","local_name":"トムラウシ山","english_name":"Tomuraushi-yama","search_name":"トムラウシ山 トムラウシ山 Tomuraushi-yama 6白鱼岳2141","peak_elev":2133,"peak_lon":142.84870409199593,"peak_lat":43.5270136924915,"base_elev":922,"distance_m":3868.0,"vertical_relief_m":1211.0,"max_jut":362.6654,"search_radius_m":5000,"elev_angle_deg":17.3844}},{"type":"Feature","geometry":{"type":"Point","coordinates":[138.855333327971,36.03856765254276]},"properties":{"peak_name":"両神山","local_name":"両神山","english_name":"Ryokami-san","search_name":"両神山 両神山 Ryokami-san 65两神山1723","peak_elev":1709,"peak_lon":138.83970264202733,"peak_lat":36.02266747201384,"base_elev":694,"distance_m":2257.7,"vertical_relief_m":1015.0,"max_jut":416.0314,"search_radius_m":4250,"elev_angle_deg":24.2074}},{"type":"Feature","geometry":{"type":"Point","coordinates":[139.11943802150216,35.49418859036633]},"properties":{"peak_name":"丹沢山","local_name":"丹沢山","english_name":"Tanzawa-san","search_name":"丹沢山 丹沢山 Tanzawa-san 71丹沢山1673","peak_elev":1675,"peak_lon":139.13884163163914,"peak_lat":35.48637324739449,"base_elev":804,"distance_m":1962.6,"vertical_relief_m":871.0,"max_jut":353.7081,"search_radius_m":2000,"elev_angle_deg":23.9316}},{"type":"Feature","geometry":{"type":"Point","coordinates":[137.57442556434498,36.06848155150394]},"properties":{"peak_name":"乗鞍岳","local_name":"乗鞍岳","english_name":"Norikura-dake","search_name":"乗鞍岳 乗鞍岳 Norikura-dake 59乘鞍岳3026","peak_elev":3017,"peak_lon":137.55367448128183,"peak_lat":36.1064802880222,"base_elev":1519,"distance_m":4612.0,"vertical_relief_m":1498.0,"max_jut":462.1934,"search_radius_m":9750,"elev_angle_deg":17.994}},{"type":"Feature","geometry":{"type":"Point","coordinates":[131.25639450807557,33.060113496516074]},"properties":{"peak_name":"九重山","local_name":"九重山","english_name":"Kuju-san","search_name":"九重山 九重山 Kuju-san 95九重山1791","peak_elev":1786,"peak_lon":131.2491181542742,"peak_lat":33.08598497669872,"base_elev":867,"distance_m":2948.7,"vertical_relief_m":919.0,"max_jut":272.8659,"search_radius_m":8000,"elev_angle_deg":17.3103}},{"type":"Feature","geometry":{"type":"Point","coordinates":[137.73720029382744,36.64546945849391]},"properties":{"peak_name":"五竜岳","local_name":"五竜岳","english_name":"Goryu-dake","search_name":"五竜岳 五竜岳 Goryu-dake 46五龙岳2814","peak_elev":2799,"peak_lon":137.75283097977112,"peak_lat":36.658135704,"base_elev":1526,"distance_m":1982.2,"vertical_relief_m":1273.0,"max_jut":687.9867,"search_radius_m":3000,"elev_angle_deg":32.7092}},{"type":"Feature","geometry":{"type":"Point","coordinates":[138.16866112479005,35.73727270624907]},"properties":{"peak_name":"仙丈ヶ岳","local_name":"仙丈ヶ岳","english_name":"Senjo-gatake","search_name":"仙丈ヶ岳 仙丈ヶ岳 Senjo-gatake 78仙丈岳3033","peak_elev":3025,"peak_lon":138.18375282156325,"peak_lat":35.71975555820874,"base_elev":1594,"distance_m":2375.3,"vertical_relief_m":1431.0,"max_jut":738.0583,"search_radius_m":4500,"elev_angle_deg":31.0669}},{"type":"Feature","geometry":{"type":"Point","coordinates":[136.39673422686428,35.43463028702921]},"properties":{"peak_name":"伊吹山","local_name":"伊吹山","english_name":"Ibuki-yama","search_name":"伊吹山 伊吹山 Ibuki-yama 89伊吹山1377","peak_elev":1375,"peak_lon":136.4064360319328,"peak_lat":35.417921622744586,"base_elev":319,"distance_m":2052.5,"vertical_relief_m":1056.0,"max_jut":482.5704,"search_radius_m":3500,"elev_angle_deg":27.2256}},{"type":"Feature","geometry":{"type":"Point","coordinates":[139.39540047678366,37.03461963957449]},"properties":{"peak_name":"会津駒ヶ岳","local_name":"会津駒ヶ岳","english_name":"Aizu-Komagatake","search_name":"会津駒ヶ岳 会津駒ヶ岳 Aizu-Komagatake 23会津驹之岳2133","peak_elev":2129,"peak_lon":139.3536288160721,"peak_lat":37.04755537966581,"base_elev":902,"distance_m":3983.8,"vertical_relief_m":1227.0,"max_jut":361.78,"search_radius_m":5750,"elev_angle_deg":17.1187}},{"type":"Feature","geometry":{"type":"Point","coordinates":[138.0729905470313,35.37641945661826]},"properties":{"peak_name":"光岳","local_name":"光岳","english_name":"Tekari-dake","search_name":"光岳 光岳 Tekari-dake 86光岳2591","peak_elev":2590,"peak_lon":138.084039825026,"peak_lat":35.33815122551477,"base_elev":852,"distance_m":4362.9,"vertical_relief_m":1738.0,"max_jut":642.0777,"search_radius_m":6000,"elev_angle_deg":21.7203}},{"type":"Feature","geometry":{"type":"Point","coordinates":[138.37671094459213,35.95259887985252]},"properties":{"peak_name":"八ヶ岳","local_name":"八ヶ岳","english_name":"Yatsugatake","search_name":"八ヶ岳 八ヶ岳 Yatsugatake 64八之岳2899","peak_elev":2851,"peak_lon":138.36943459079075,"peak_lat":35.97065501706332,"base_elev":1879,"distance_m":2108.3,"vertical_relief_m":972.0,"max_jut":406.3962,"search_radius_m":12500,"elev_angle_deg":24.7514}},{"type":"Feature","geometry":{"type":"Point","coordinates":[140.80512665215244,39.93788480632037]},"properties":{"peak_name":"八幡平","local_name":"八幡平","english_name":"Hachimantai","search_name":"八幡平 八幡平 Hachimantai 12八幡平1613","peak_elev":1615,"peak_lon":140.85498315042108,"peak_lat":39.95647993270164,"base_elev":696,"distance_m":4734.6,"vertical_relief_m":919.0,"max_jut":175.4253,"search_radius_m":14500,"elev_angle_deg":10.9847}},{"type":"Feature","geometry":{"type":"Point","coordinates":[140.88193260894465,40.710256287606335]},"properties":{"peak_name":"八甲田山","local_name":"八甲田山","english_name":"Hakkoda-san","search_name":"八甲田山 八甲田山 Hakkoda-san 11八甲田山1584","peak_elev":1584,"peak_lon":140.87708170641042,"peak_lat":40.65905231641152,"base_elev":424,"distance_m":5700.9,"vertical_relief_m":1160.0,"max_jut":231.0052,"search_radius_m":6250,"elev_angle_deg":11.5013}},{"type":"Feature","geometry":{"type":"Point","coordinates":[141.25841654451915,45.19195124007862]},"properties":{"peak_name":"利尻岳","local_name":"利尻岳","english_name":"Rishiri-dake","search_name":"利尻岳 利尻岳 Rishiri-dake 1利尻岳1721","peak_elev":1694,"peak_lon":141.24170788023451,"peak_lat":45.17874600540207,"base_elev":521,"distance_m":1969.3,"vertical_relief_m":1173.0,"max_jut":600.6673,"search_radius_m":6000,"elev_angle_deg":30.7799}},{"type":"Feature","geometry":{"type":"Point","coordinates":[134.11923548703606,33.87398714392836]},"properties":{"peak_name":"剣山","local_name":"剣山","english_name":"Tsurugi-san","search_name":"剣山 剣山 Tsurugi-san 93剑山1955","peak_elev":1951,"peak_lon":134.09417249060914,"peak_lat":33.85350555545044,"base_elev":774,"distance_m":3246.5,"vertical_relief_m":1177.0,"max_jut":401.1057,"search_radius_m":6250,"elev_angle_deg":19.9278}},{"type":"Feature","geometry":{"type":"Point","coordinates":[137.5841273694135,36.62606584835693]},"properties":{"peak_name":"剱岳","local_name":"剱岳","english_name":"Tsurugi-dake","search_name":"剱岳 剱岳 Tsurugi-dake 48剑岳2998","peak_elev":2987,"peak_lon":137.61673621422702,"peak_lat":36.623101407919336,"base_elev":1260,"distance_m":2935.3,"vertical_relief_m":1727.0,"max_jut":877.2206,"search_radius_m":3250,"elev_angle_deg":30.4707}},{"type":"Feature","geometry":{"type":"Point","coordinates":[138.28750823687906,35.67636692998577]},"properties":{"peak_name":"北岳","local_name":"北岳","english_name":"Kita-dake","search_name":"北岳 北岳 Kita-dake 80北岳3192","peak_elev":3188,"peak_lon":138.23872971695138,"peak_lat":35.674210973303886,"base_elev":1300,"distance_m":4422.5,"vertical_relief_m":1888.0,"max_jut":742.6816,"search_radius_m":5000,"elev_angle_deg":23.118}},{"type":"Feature","geometry":{"type":"Point","coordinates":[142.6619443444275,43.4518247032107]},"properties":{"peak_name":"十勝岳","local_name":"十勝岳","english_name":"Tokachi-dake","search_name":"十勝岳 十勝岳 Tokachi-dake 7十胜岳2077","peak_elev":2066,"peak_lon":142.6861988570987,"peak_lat":43.41786838547098,"base_elev":868,"distance_m":4253.1,"vertical_relief_m":1198.0,"max_jut":324.7663,"search_radius_m":10000,"elev_angle_deg":15.7313}},{"type":"Feature","geometry":{"type":"Point","coordinates":[140.11764596521576,37.77896368399592]},"properties":{"peak_name":"吾妻山","local_name":"吾妻山","english_name":"Azuma-yama","search_name":"吾妻山 吾妻山 Azuma-yama 20吾妻山2035","peak_elev":2036,"peak_lon":140.14109199413127,"peak_lat":37.73800050704007,"base_elev":798,"distance_m":4994.0,"vertical_relief_m":1238.0,"max_jut":297.5562,"search_radius_m":10500,"elev_angle_deg":13.9228}},{"type":"Feature","geometry":{"type":"Point","coordinates":[138.3734770095693,36.599924873589046]},"properties":{"peak_name":"四阿山","local_name":"四阿山","english_name":"Azumaya-san","search_name":"四阿山 四阿山 Azumaya-san 42四阿山2354","peak_elev":2351,"peak_lon":138.4125537244285,"peak_lat":36.54144454859287,"base_elev":775,"distance_m":7372.2,"vertical_relief_m":1576.0,"max_jut":329.1109,"search_radius_m":8000,"elev_angle_deg":12.0668}},{"type":"Feature","geometry":{"type":"Point","coordinates":[138.14737105255642,35.601177940704964]},"properties":{"peak_name":"塩見岳","local_name":"塩見岳","english_name":"Shiomi-dake","search_name":"塩見岳 塩見岳 Shiomi-dake 82塩见岳3047","peak_elev":3039,"peak_lon":138.18348332697803,"peak_lat":35.57315050384044,"base_elev":1321,"distance_m":4514.6,"vertical_relief_m":1718.0,"max_jut":611.0465,"search_radius_m":4750,"elev_angle_deg":20.834}},{"type":"Feature","geometry":{"type":"Point","coordinates":[136.08789343218402,34.16045988803408]},"properties":{"peak_name":"大台ヶ原山","local_name":"大台ヶ原山","english_name":"Odaigahara-san","search_name":"大台ヶ原山 大台ヶ原山 Odaigahara-san 90大台之原山1695","peak_elev":1681,"peak_lon":136.10864451524716,"peak_lat":34.180941476512004,"base_elev":535,"distance_m":2970.2,"vertical_relief_m":1146.0,"max_jut":412.3528,"search_radius_m":11000,"elev_angle_deg":21.0982}},{"type":"Feature","geometry":{"type":"Point","coordinates":[133.51044721898828,35.36483118945312]},"properties":{"peak_name":"大山","local_name":"大山","english_name":"Daisen","search_name":"大山 大山 Daisen 92大山1729","peak_elev":1724,"peak_lon":133.54628999882465,"peak_lat":35.37129905949878,"base_elev":582,"distance_m":3335.4,"vertical_relief_m":1142.0,"max_jut":370.6103,"search_radius_m":5250,"elev_angle_deg":18.9006}},{"type":"Feature","geometry":{"type":"Point","coordinates":[135.9205372947525,34.189026314069075]},"properties":{"peak_name":"大峰山","local_name":"大峰山","english_name":"Omine-san","search_name":"大峰山 大峰山 Omine-san 91大峰山1915","peak_elev":1891,"peak_lon":135.90921852217264,"peak_lat":34.18013299275629,"base_elev":1005,"distance_m":1435.9,"vertical_relief_m":886.0,"max_jut":465.2362,"search_radius_m":4250,"elev_angle_deg":31.676}},{"type":"Feature","geometry":{"type":"Point","coordinates":[138.86234018718716,35.779583356131106]},"properties":{"peak_name":"大菩薩嶺","local_name":"大菩薩嶺","english_name":"Daibosatsu-rei","search_name":"大菩薩嶺 大菩薩嶺 Daibosatsu-rei 70大菩萨岳2057","peak_elev":2062,"peak_lon":138.84536202831728,"peak_lat":35.74859147882898,"base_elev":906,"distance_m":3765.9,"vertical_relief_m":1156.0,"max_jut":338.7767,"search_radius_m":4000,"elev_angle_deg":17.0647}},{"type":"Feature","geometry":{"type":"Point","coordinates":[142.82256311722807,43.62888264571066]},"properties":{"peak_name":"大雪山","local_name":"大雪山","english_name":"Daisetsuzan","search_name":"大雪山 大雪山 Daisetsuzan 5大雪山2290","peak_elev":2285,"peak_lon":142.85436347828588,"peak_lat":43.66337795262085,"base_elev":860,"distance_m":4612.2,"vertical_relief_m":1425.0,"max_jut":420.8008,"search_radius_m":12500,"elev_angle_deg":17.1692}},{"type":"Feature","geometry":{"type":"Point","coordinates":[139.02188098164677,34.8355438240499]},"properties":{"peak_name":"天城山","local_name":"天城山","english_name":"Amagi-san","search_name":"天城山 天城山 Amagi-san 73天城山1405","peak_elev":1397,"peak_lon":139.00059090941315,"peak_lat":34.863301766329194,"base_elev":384,"distance_m":3643.3,"vertical_relief_m":1013.0,"max_jut":271.1165,"search_radius_m":10500,"elev_angle_deg":15.5383}},{"type":"Feature","geometry":{"type":"Point","coordinates":[139.3339557113499,36.79584743705552]},"properties":{"peak_name":"奥白根山","local_name":"奥白根山","english_name":"Oku-Shirane-san","search_name":"奥白根山 奥白根山 Oku-Shirane-san 37奥白根山2578","peak_elev":2571,"peak_lon":139.37572737206145,"peak_lat":36.79854238290788,"base_elev":1392,"distance_m":3740.0,"vertical_relief_m":1179.0,"max_jut":355.2192,"search_radius_m":5000,"elev_angle_deg":17.497}},{"type":"Feature","geometry":{"type":"Point","coordinates":[138.15195246050544,36.89987234695656]},"properties":{"peak_name":"妙高山","local_name":"妙高山","english_name":"Myoko-san","search_name":"妙高山 妙高山 Myoko-san 33妙高山2454","peak_elev":2447,"peak_lon":138.1134147348167,"peak_lat":36.89124852022901,"base_elev":949,"distance_m":3565.8,"vertical_relief_m":1498.0,"max_jut":581.16,"search_radius_m":6250,"elev_angle_deg":22.7874}},{"type":"Feature","geometry":{"type":"Point","coordinates":[140.3014412723466,37.67439978492441]},"properties":{"peak_name":"安達太良山","local_name":"安達太良山","english_name":"Adatara-yama","search_name":"安達太良山 安達太良山 Adatara-yama 21安达太良山1700","peak_elev":1708,"peak_lon":140.2831156405506,"peak_lat":37.63316711338332,"base_elev":565,"distance_m":4853.8,"vertical_relief_m":1143.0,"max_jut":261.648,"search_radius_m":9000,"elev_angle_deg":13.2509}},{"type":"Feature","geometry":{"type":"Point","coordinates":[130.505043604438,30.37945085717501]},"properties":{"peak_name":"宮之浦岳","local_name":"宮之浦岳","english_name":"Miyanoura-dake","search_name":"宮之浦岳 宮之浦岳 Miyanoura-dake 100宫之浦岳1936","peak_elev":1927,"peak_lon":130.5042351206823,"peak_lat":30.33606222895204,"base_elev":437,"distance_m":4810.6,"vertical_relief_m":1490.0,"max_jut":439.6208,"search_radius_m":16500,"elev_angle_deg":17.2095}},{"type":"Feature","geometry":{"type":"Point","coordinates":[138.68177881507913,35.35809382482222]},"properties":{"peak_name":"富士山","local_name":"富士山","english_name":"Fuji-san","search_name":"富士山 富士山 Fuji-san 72富士山3776","peak_elev":3771,"peak_lon":138.727323399984,"peak_lat":35.36078877067458,"base_elev":1532,"distance_m":4150.2,"vertical_relief_m":2239.0,"max_jut":1064.9239,"search_radius_m":10000,"elev_angle_deg":28.3465}},{"type":"Feature","geometry":{"type":"Point","coordinates":[141.01102051527263,39.87644004088659]},"properties":{"peak_name":"岩手山","local_name":"岩手山","english_name":"Iwate-san","search_name":"岩手山 岩手山 Iwate-san 13岩手山2038","peak_elev":2034,"peak_lon":141.0010492156189,"peak_lat":39.85272451738584,"base_elev":760,"distance_m":2768.0,"vertical_relief_m":1274.0,"max_jut":532.1816,"search_radius_m":5750,"elev_angle_deg":24.7147}},{"type":"Feature","geometry":{"type":"Point","coordinates":[140.3254262904326,40.64584708173496]},"properties":{"peak_name":"岩木山","local_name":"岩木山","english_name":"Iwaki-san","search_name":"岩木山 岩木山 Iwaki-san 10岩木山1625","peak_elev":1627,"peak_lon":140.30305823985805,"peak_lat":40.65608787597392,"base_elev":549,"distance_m":2207.3,"vertical_relief_m":1078.0,"max_jut":473.6651,"search_radius_m":5500,"elev_angle_deg":26.0299}},{"type":"Feature","geometry":{"type":"Point","coordinates":[138.91354415838197,36.9685934661917]},"properties":{"peak_name":"巻機山","local_name":"巻機山","english_name":"Makihata-yama","search_name":"巻機山 巻機山 Makihata-yama 27卷机山1967","peak_elev":1964,"peak_lon":138.9642091404063,"peak_lat":36.97856476584543,"base_elev":454,"distance_m":4645.1,"vertical_relief_m":1510.0,"max_jut":467.7265,"search_radius_m":6250,"elev_angle_deg":18.008}},{"type":"Feature","geometry":{"type":"Point","coordinates":[137.75417845269732,36.30321133524437]},"properties":{"peak_name":"常念岳","local_name":"常念岳","english_name":"Jonen-dake","search_name":"常念岳 常念岳 Jonen-dake 56常念岳2857","peak_elev":2849,"peak_lon":137.72722899417371,"peak_lat":36.32557938581895,"base_elev":1391,"distance_m":3466.7,"vertical_relief_m":1458.0,"max_jut":565.2992,"search_radius_m":3500,"elev_angle_deg":22.8103}},{"type":"Feature","geometry":{"type":"Point","coordinates":[142.67946149246782,42.69966531581743]},"properties":{"peak_name":"幌尻岳","local_name":"幌尻岳","english_name":"Poroshiri-dake","search_name":"幌尻岳 幌尻岳 Poroshiri-dake 8幌尻岳2052","peak_elev":2049,"peak_lon":142.68296492207588,"peak_lat":42.71906892595441,"base_elev":934,"distance_m":2174.5,"vertical_relief_m":1115.0,"max_jut":508.3796,"search_radius_m":3250,"elev_angle_deg":27.147}},{"type":"Feature","geometry":{"type":"Point","coordinates":[139.13884163163914,36.99715989222671]},"properties":{"peak_name":"平ヶ岳","local_name":"平ヶ岳","english_name":"Hiragatake","search_name":"平ヶ岳 平ヶ岳 Hiragatake 26平之岳2141","peak_elev":2137,"peak_lon":139.17037249811173,"peak_lat":37.00174130017571,"base_elev":1132,"distance_m":2852.3,"vertical_relief_m":1005.0,"max_jut":334.6436,"search_radius_m":4500,"elev_angle_deg":19.4098}},{"type":"Feature","geometry":{"type":"Point","coordinates":[140.83611852945455,42.82039889000309]},"properties":{"peak_name":"後方羊蹄山","local_name":"後方羊蹄山","english_name":"Yotei-zan","search_name":"後方羊蹄山 後方羊蹄山 Yotei-zan 9後方羊蹄山1898","peak_elev":1892,"peak_lon":140.81186401678335,"peak_lat":42.82659726546351,"base_elev":665,"distance_m":2099.5,"vertical_relief_m":1227.0,"max_jut":620.1813,"search_radius_m":5250,"elev_angle_deg":30.3031}},{"type":"Feature","geometry":{"type":"Point","coordinates":[137.52645552817302,35.87794887974219]},"properties":{"peak_name":"御嶽山","local_name":"御嶽山","english_name":"Ontake-san","search_name":"御嶽山 御嶽山 Ontake-san 60御岳3067","peak_elev":3059,"peak_lon":137.48037195409768,"peak_lat":35.8930405765154,"base_elev":1415,"distance_m":4485.4,"vertical_relief_m":1644.0,"max_jut":566.6285,"search_radius_m":10000,"elev_angle_deg":20.129}},{"type":"Feature","geometry":{"type":"Point","coordinates":[137.59571563657863,35.476671442326]},"properties":{"peak_name":"恵那山","local_name":"恵那山","english_name":"Ena-san","search_name":"恵那山 恵那山 Ena-san 76惠那山2191","peak_elev":2193,"peak_lon":137.60056653911286,"peak_lat":35.440020178733924,"base_elev":786,"distance_m":4090.2,"vertical_relief_m":1407.0,"max_jut":456.7915,"search_radius_m":4750,"elev_angle_deg":18.9829}},{"type":"Feature","geometry":{"type":"Point","coordinates":[138.22336852559292,35.46966458310987]},"properties":{"peak_name":"悪沢岳","local_name":"悪沢岳","english_name":"Warusawa-dake","search_name":"悪沢岳 悪沢岳 Warusawa-dake 83恶沢岳3141","peak_elev":3139,"peak_lon":138.18240534863708,"peak_lat":35.50065646041199,"base_elev":1255,"distance_m":5063.7,"vertical_relief_m":1884.0,"max_jut":657.127,"search_radius_m":5750,"elev_angle_deg":20.4082}},{"type":"Feature","geometry":{"type":"Point","coordinates":[144.70201835466293,43.763629938328585]},"properties":{"peak_name":"斜里岳","local_name":"斜里岳","english_name":"Shari-dake","search_name":"斜里岳 斜里岳 Shari-dake 3斜里岳1545","peak_elev":1545,"peak_lon":144.7176490406066,"peak_lat":43.76578589501048,"base_elev":841,"distance_m":1281.2,"vertical_relief_m":704.0,"max_jut":339.7059,"search_radius_m":6000,"elev_angle_deg":28.7881}},{"type":"Feature","geometry":{"type":"Point","coordinates":[141.48155806109443,39.58242144839427]},"properties":{"peak_name":"早池峰山","local_name":"早池峰山","english_name":"Hayachine-san","search_name":"早池峰山 早池峰山 Hayachine-san 14早池峰山1917","peak_elev":1909,"peak_lon":141.4888344148958,"peak_lat":39.55843643030829,"base_elev":772,"distance_m":2735.4,"vertical_relief_m":1137.0,"max_jut":435.9202,"search_radius_m":4500,"elev_angle_deg":22.5708}},{"type":"Feature","geometry":{"type":"Point","coordinates":[140.07398784240755,38.58367451551019]},"properties":{"peak_name":"月山","local_name":"月山","english_name":"Gassan","search_name":"月山 月山 Gassan 16月山1984","peak_elev":1972,"peak_lon":140.0262873008208,"peak_lat":38.54648426274764,"base_elev":594,"distance_m":5858.9,"vertical_relief_m":1378.0,"max_jut":315.5673,"search_radius_m":10500,"elev_angle_deg":13.2353}},{"type":"Feature","geometry":{"type":"Point","coordinates":[139.93870156061917,38.24761476772108]},"properties":{"peak_name":"朝日岳","local_name":"朝日岳","english_name":"Asahi-dake","search_name":"朝日岳 朝日岳 Asahi-dake 17朝日山1870","peak_elev":1867,"peak_lon":139.92199289633453,"peak_lat":38.26082000239763,"base_elev":817,"distance_m":2070.6,"vertical_relief_m":1050.0,"max_jut":475.0225,"search_radius_m":2750,"elev_angle_deg":26.8895}},{"type":"Feature","geometry":{"type":"Point","coordinates":[137.74636310972545,35.78093082905728]},"properties":{"peak_name":"木曽駒ヶ岳","local_name":"木曽駒ヶ岳","english_name":"Kiso-Komagatake","search_name":"木曽駒ヶ岳 木曽駒ヶ岳 Kiso-Komagatake 74木曾驹之岳2956","peak_elev":2956,"peak_lon":137.8045739401364,"peak_lat":35.789554655784826,"base_elev":1171,"distance_m":5349.0,"vertical_relief_m":1785.0,"max_jut":566.1456,"search_radius_m":12500,"elev_angle_deg":18.4542}},{"type":"Feature","geometry":{"type":"Point","coordinates":[137.67090462585944,36.3522593497573]},"properties":{"peak_name":"槍ヶ岳","local_name":"槍ヶ岳","english_name":"Yarigatake","search_name":"槍ヶ岳 槍ヶ岳 Yarigatake 54枪之岳3180","peak_elev":3151,"peak_lon":137.64772809152913,"peak_lat":36.34201855551834,"base_elev":1885,"distance_m":2370.6,"vertical_relief_m":1266.0,"max_jut":596.9556,"search_radius_m":3000,"elev_angle_deg":28.1041}},{"type":"Feature","geometry":{"type":"Point","coordinates":[139.10569379765514,36.81255610134014]},"properties":{"peak_name":"武尊山","local_name":"武尊山","english_name":"Hotaka-yama","search_name":"武尊山 武尊山 Hotaka-yama 39武尊山2158","peak_elev":2157,"peak_lon":139.1326432561787,"peak_lat":36.80501025295354,"base_elev":1223,"distance_m":2546.4,"vertical_relief_m":934.0,"max_jut":322.1405,"search_radius_m":7500,"elev_angle_deg":20.1427}},{"type":"Feature","geometry":{"type":"Point","coordinates":[137.59005625028863,36.42421440401528]},"properties":{"peak_name":"水晶岳","local_name":"水晶岳","english_name":"Suisho-dake","search_name":"水晶岳 水晶岳 Suisho-dake 52水晶岳2986","peak_elev":2973,"peak_lon":137.60272249579475,"peak_lat":36.4266398552824,"base_elev":2286,"distance_m":1167.3,"vertical_relief_m":687.0,"max_jut":348.9904,"search_radius_m":1375,"elev_angle_deg":30.4784}},{"type":"Feature","geometry":{"type":"Point","coordinates":[138.52870589066515,36.36950700321239]},"properties":{"peak_name":"浅間山","local_name":"浅間山","english_name":"Asama-yama","search_name":"浅間山 浅間山 Asama-yama 43浅间山2568","peak_elev":2564,"peak_lon":138.52250751520472,"peak_lat":36.40615826680447,"base_elev":1251,"distance_m":4104.9,"vertical_relief_m":1313.0,"max_jut":399.2976,"search_radius_m":6750,"elev_angle_deg":17.7375}},{"type":"Feature","geometry":{"type":"Point","coordinates":[138.0818838683441,36.95889166112321]},"properties":{"peak_name":"火打山","local_name":"火打山","english_name":"Hiuchi-yama","search_name":"火打山 火打山 Hiuchi-yama 34火打山2462","peak_elev":2456,"peak_lon":138.06787014991184,"peak_lat":36.922509892116366,"base_elev":703,"distance_m":4226.1,"vertical_relief_m":1753.0,"max_jut":670.7341,"search_radius_m":9500,"elev_angle_deg":22.5288}},{"type":"Feature","geometry":{"type":"Point","coordinates":[137.58089343439065,36.24850393444149]},"properties":{"peak_name":"焼岳","local_name":"焼岳","english_name":"Yakedake","search_name":"焼岳 焼岳 Yakedake 58烧岳2455","peak_elev":2454,"peak_lon":137.58709180985107,"peak_lat":36.22667487303739,"base_elev":1304,"distance_m":2485.5,"vertical_relief_m":1150.0,"max_jut":482.1598,"search_radius_m":2750,"elev_angle_deg":24.8292}},{"type":"Feature","geometry":{"type":"Point","coordinates":[139.2603836895805,36.97667830374878]},"properties":{"peak_name":"燧ヶ岳","local_name":"燧ヶ岳","english_name":"Hiuchigatake","search_name":"燧ヶ岳 燧ヶ岳 Hiuchigatake 28燧之岳2356","peak_elev":2340,"peak_lon":139.28841112644503,"peak_lat":36.95511873692991,"base_elev":1211,"distance_m":3457.5,"vertical_relief_m":1129.0,"max_jut":350.5154,"search_radius_m":3500,"elev_angle_deg":18.0838}},{"type":"Feature","geometry":{"type":"Point","coordinates":[138.58098784020092,35.88980664149257]},"properties":{"peak_name":"瑞牆山","local_name":"瑞牆山","english_name":"Mizugaki-yama","search_name":"瑞牆山 瑞牆山 Mizugaki-yama 69瑞墙山2230","peak_elev":2218,"peak_lon":138.59203711819558,"peak_lat":35.89384906027111,"base_elev":1544,"distance_m":1093.8,"vertical_relief_m":674.0,"max_jut":353.9783,"search_radius_m":1125,"elev_angle_deg":31.6414}},{"type":"Feature","geometry":{"type":"Point","coordinates":[138.2524739407984,35.74859147882898]},"properties":{"peak_name":"甲斐駒ヶ岳","local_name":"甲斐駒ヶ岳","english_name":"Kai-Komagatake","search_name":"甲斐駒ヶ岳 甲斐駒ヶ岳 Kai-Komagatake 77甲斐驹之岳2967","peak_elev":2957,"peak_lon":138.2365737602695,"peak_lat":35.75802378931223,"base_elev":1583,"distance_m":1778.6,"vertical_relief_m":1374.0,"max_jut":840.3958,"search_radius_m":2500,"elev_angle_deg":37.6867}},{"type":"Feature","geometry":{"type":"Point","coordinates":[138.77044253362172,35.928074872596056]},"properties":{"peak_name":"甲武信ヶ岳","local_name":"甲武信ヶ岳","english_name":"Kobushi-gatake","search_name":"甲武信ヶ岳 甲武信ヶ岳 Kobushi-gatake 67甲武信岳2075","peak_elev":2487,"peak_lon":138.72759289456923,"peak_lat":35.917834078357096,"base_elev":1163,"distance_m":4030.7,"vertical_relief_m":1324.0,"max_jut":413.8791,"search_radius_m":6250,"elev_angle_deg":18.1843}},{"type":"Feature","geometry":{"type":"Point","coordinates":[139.5150560726284,36.74518245503118]},"properties":{"peak_name":"男体山","local_name":"男体山","english_name":"Nantai-san","search_name":"男体山 男体山 Nantai-san 36男体山2486","peak_elev":2475,"peak_lon":139.49214903288333,"peak_lat":36.76620303267957,"base_elev":994,"distance_m":3102.5,"vertical_relief_m":1481.0,"max_jut":637.9643,"search_radius_m":3500,"elev_angle_deg":25.5178}},{"type":"Feature","geometry":{"type":"Point","coordinates":[136.80852195310467,36.13666368156861]},"properties":{"peak_name":"白山","local_name":"白山","english_name":"Hakusan","search_name":"白山 白山 Hakusan 87白山2702","peak_elev":2695,"peak_lon":136.7718706895126,"peak_lat":36.15498931336465,"base_elev":1277,"distance_m":3874.9,"vertical_relief_m":1418.0,"max_jut":487.8001,"search_radius_m":12500,"elev_angle_deg":20.0998}},{"type":"Feature","geometry":{"type":"Point","coordinates":[137.78031942746517,36.753267292588255]},"properties":{"peak_name":"白馬岳","local_name":"白馬岳","english_name":"Shirouma-dake","search_name":"白馬岳 白馬岳 Shirouma-dake 45白马岳2932","peak_elev":2922,"peak_lon":137.75822087147586,"peak_lat":36.7581181951225,"base_elev":1595,"distance_m":2045.4,"vertical_relief_m":1327.0,"max_jut":723.2769,"search_radius_m":12500,"elev_angle_deg":32.9744}},{"type":"Feature","geometry":{"type":"Point","coordinates":[139.35416780524258,36.69397848383636]},"properties":{"peak_name":"皇海山","local_name":"皇海山","english_name":"Sukai-san","search_name":"皇海山 皇海山 Sukai-san 38皇海山2144","peak_elev":2144,"peak_lon":139.33718964637274,"peak_lat":36.68993606505783,"base_elev":1314,"distance_m":1582.3,"vertical_relief_m":830.0,"max_jut":386.1512,"search_radius_m":1750,"elev_angle_deg":27.6794}},{"type":"Feature","geometry":{"type":"Point","coordinates":[133.105666351964,33.80176259508515]},"properties":{"peak_name":"石鎚山","local_name":"石鎚山","english_name":"Ishizuchi-san","search_name":"石鎚山 石鎚山 Ishizuchi-san 94石鎚山1982","peak_elev":1967,"peak_lon":133.11563765161773,"peak_lat":33.766997793589724,"base_elev":435,"distance_m":3965.1,"vertical_relief_m":1532.0,"max_jut":551.0602,"search_radius_m":5250,"elev_angle_deg":21.1251}},{"type":"Feature","geometry":{"type":"Point","coordinates":[140.0591656402196,37.58277162594422]},"properties":{"peak_name":"磐梯山","local_name":"磐梯山","english_name":"Bandai-san","search_name":"磐梯山 磐梯山 Bandai-san 22磐梯山1819","peak_elev":1810,"peak_lon":140.0721013803109,"peak_lat":37.60109725774026,"base_elev":801,"distance_m":2332.8,"vertical_relief_m":1009.0,"max_jut":400.2777,"search_radius_m":4500,"elev_angle_deg":23.3898}},{"type":"Feature","geometry":{"type":"Point","coordinates":[131.3679652663632,32.82349725067899]},"properties":{"peak_name":"祖母山","local_name":"祖母山","english_name":"Sobo-san","search_name":"祖母山 祖母山 Sobo-san 96祖母山1756","peak_elev":1745,"peak_lon":131.34667519412957,"peak_lat":32.828078658628,"base_elev":743,"distance_m":2057.3,"vertical_relief_m":1002.0,"max_jut":439.4079,"search_radius_m":2750,"elev_angle_deg":25.9682}},{"type":"Feature","geometry":{"type":"Point","coordinates":[137.60730390374377,36.298360432710126]},"properties":{"peak_name":"穂高岳","local_name":"穂高岳","english_name":"Hotaka-dake","search_name":"穂高岳 穂高岳 Hotaka-dake 55穗高岳3190","peak_elev":3185,"peak_lon":137.64799758611437,"peak_lat":36.28919761681211,"base_elev":1405,"distance_m":3794.2,"vertical_relief_m":1780.0,"max_jut":757.1959,"search_radius_m":4750,"elev_angle_deg":25.133}},{"type":"Feature","geometry":{"type":"Point","coordinates":[137.8684441568373,35.707358807287896]},"properties":{"peak_name":"空木岳","local_name":"空木岳","english_name":"Utsugi-dake","search_name":"空木岳 空木岳 Utsugi-dake 75空木岳2864","peak_elev":2857,"peak_lon":137.81670119647202,"peak_lat":35.718947074453034,"base_elev":1083,"distance_m":4855.5,"vertical_relief_m":1774.0,"max_jut":609.8699,"search_radius_m":12000,"elev_angle_deg":20.0702}},{"type":"Feature","geometry":{"type":"Point","coordinates":[137.66416726122853,36.5807907580373]},"properties":{"peak_name":"立山","local_name":"立山","english_name":"Tateyama","search_name":"立山 立山 Tateyama 49立山3015","peak_elev":3005,"peak_lon":137.61997014924984,"peak_lat":36.57593985550306,"base_elev":1237,"distance_m":3992.1,"vertical_relief_m":1768.0,"max_jut":717.2455,"search_radius_m":4750,"elev_angle_deg":23.8873}},{"type":"Feature","geometry":{"type":"Point","coordinates":[137.5730780914188,36.29566548685776]},"properties":{"peak_name":"笠ヶ岳","local_name":"笠ヶ岳","english_name":"Kasagatake","search_name":"笠ヶ岳 笠ヶ岳 Kasagatake 57笠之岳2897","peak_elev":2890,"peak_lon":137.55044054625898,"peak_lat":36.31560808616522,"base_elev":1232,"distance_m":3005.1,"vertical_relief_m":1658.0,"max_jut":800.9272,"search_radius_m":4750,"elev_angle_deg":28.8868}},{"type":"Feature","geometry":{"type":"Point","coordinates":[140.10902213848823,36.20969671416753]},"properties":{"peak_name":"筑波山","local_name":"筑波山","english_name":"Tsukuba-san","search_name":"筑波山 筑波山 Tsukuba-san 44筑波山877","peak_elev":862,"peak_lon":140.10632719263586,"peak_lat":36.22559689469645,"base_elev":175,"distance_m":1780.9,"vertical_relief_m":687.0,"max_jut":246.827,"search_radius_m":3750,"elev_angle_deg":21.0946}},{"type":"Feature","geometry":{"type":"Point","coordinates":[145.090629546573,44.09564726733916]},"properties":{"peak_name":"羅臼岳","local_name":"羅臼岳","english_name":"Rausu-dake","search_name":"羅臼岳 羅臼岳 Rausu-dake 2罗臼岳1660","peak_elev":1651,"peak_lon":145.12242990763085,"peak_lat":44.075704668031705,"base_elev":310,"distance_m":3375.9,"vertical_relief_m":1341.0,"max_jut":495.5406,"search_radius_m":3750,"elev_angle_deg":21.6643}},{"type":"Feature","geometry":{"type":"Point","coordinates":[138.0562818827467,36.21185267084942]},"properties":{"peak_name":"美ヶ原","local_name":"美ヶ原","english_name":"Utsukushigahara","search_name":"美ヶ原 美ヶ原 Utsukushigahara 61美之原2034","peak_elev":2036,"peak_lon":138.10856383228244,"peak_lat":36.22586638928168,"base_elev":840,"distance_m":4951.4,"vertical_relief_m":1196.0,"max_jut":281.3301,"search_radius_m":12000,"elev_angle_deg":13.5796}},{"type":"Feature","geometry":{"type":"Point","coordinates":[138.11018079979388,35.3917806479767]},"properties":{"peak_name":"聖岳","local_name":"聖岳","english_name":"Hijiri-dake","search_name":"聖岳 聖岳 Hijiri-dake 85圣岳3013","peak_elev":3009,"peak_lon":138.14036419334028,"peak_lat":35.42250303069359,"base_elev":1112,"distance_m":4374.4,"vertical_relief_m":1897.0,"max_jut":754.4887,"search_radius_m":8000,"elev_angle_deg":23.4444}},{"type":"Feature","geometry":{"type":"Point","coordinates":[139.14881293129287,36.9076876899284]},"properties":{"peak_name":"至仏山","local_name":"至仏山","english_name":"Shibutsu-san","search_name":"至仏山 至仏山 Shibutsu-san 29至仏山2228","peak_elev":2222,"peak_lon":139.1730674439641,"peak_lat":36.90310628197939,"base_elev":1231,"distance_m":2220.6,"vertical_relief_m":991.0,"max_jut":404.5662,"search_radius_m":3000,"elev_angle_deg":24.05}},{"type":"Feature","geometry":{"type":"Point","coordinates":[138.6356952410038,36.87427036135915]},"properties":{"peak_name":"苗場山","local_name":"苗場山","english_name":"Naeba-san","search_name":"苗場山 苗場山 Naeba-san 32苗场山2145","peak_elev":2147,"peak_lon":138.69013314722145,"peak_lat":36.84570393532415,"base_elev":623,"distance_m":5797.9,"vertical_relief_m":1524.0,"max_jut":387.755,"search_radius_m":7500,"elev_angle_deg":14.7273}},{"type":"Feature","geometry":{"type":"Point","coordinates":[138.57317249722908,36.58591115515679]},"properties":{"peak_name":"草津白根山","local_name":"草津白根山","english_name":"Kusatsu-Shirane-san","search_name":"草津白根山 草津白根山 Kusatsu-Shirane-san 41草津白根山2171","peak_elev":2165,"peak_lon":138.53140083651752,"peak_lat":36.62256241874886,"base_elev":1043,"distance_m":5523.6,"vertical_relief_m":1122.0,"max_jut":223.3638,"search_radius_m":8250,"elev_angle_deg":11.4822}},{"type":"Feature","geometry":{"type":"Point","coordinates":[136.57972105023944,35.93535122639743]},"properties":{"peak_name":"荒島岳","local_name":"荒島岳","english_name":"Arashima-dake","search_name":"荒島岳 荒島岳 Arashima-dake 88荒岛岳1523","peak_elev":1520,"peak_lon":136.6012806170583,"peak_lat":35.934273248056485,"base_elev":456,"distance_m":1949.2,"vertical_relief_m":1064.0,"max_jut":510.6859,"search_radius_m":3500,"elev_angle_deg":28.6286}},{"type":"Feature","geometry":{"type":"Point","coordinates":[138.2751114859582,36.10701927719267]},"properties":{"peak_name":"蓼科山","local_name":"蓼科山","english_name":"Tateshina-yama","search_name":"蓼科山 蓼科山 Tateshina-yama 63蓼科山2530","peak_elev":2526,"peak_lon":138.29478459068042,"peak_lat":36.10378534216984,"base_elev":1661,"distance_m":1807.4,"vertical_relief_m":865.0,"max_jut":374.0492,"search_radius_m":2500,"elev_angle_deg":25.5752}},{"type":"Feature","geometry":{"type":"Point","coordinates":[140.44130896208404,38.18886494813966]},"properties":{"peak_name":"蔵王山","local_name":"蔵王山","english_name":"Zao-san","search_name":"蔵王山 蔵王山 Zao-san 18藏王山1841","peak_elev":1840,"peak_lon":140.43969199457263,"peak_lat":38.14385935240527,"base_elev":601,"distance_m":4997.7,"vertical_relief_m":1239.0,"max_jut":297.6524,"search_radius_m":13500,"elev_angle_deg":13.9237}},{"type":"Feature","geometry":{"type":"Point","coordinates":[137.57119162932216,36.4770353427215]},"properties":{"peak_name":"薬師岳","local_name":"薬師岳","english_name":"Yakushi-dake","search_name":"薬師岳 薬師岳 Yakushi-dake 50药师岳2926","peak_elev":2921,"peak_lon":137.54478115996903,"peak_lat":36.46868101057919,"base_elev":1660,"distance_m":2542.0,"vertical_relief_m":1261.0,"max_jut":561.125,"search_radius_m":4250,"elev_angle_deg":26.3845}},{"type":"Feature","geometry":{"type":"Point","coordinates":[138.93887664939413,36.84570393532415]},"properties":{"peak_name":"谷川岳","local_name":"谷川岳","english_name":"Tanigawa-dake","search_name":"谷川岳 谷川岳 Tanigawa-dake 30谷川岳1977","peak_elev":1973,"peak_lon":138.93025282266655,"peak_lat":36.8370801085966,"base_elev":941,"distance_m":1227.8,"vertical_relief_m":1032.0,"max_jut":663.8824,"search_radius_m":2750,"elev_angle_deg":40.048}},{"type":"Feature","geometry":{"type":"Point","coordinates":[139.2536463249496,36.53524617313244]},"properties":{"peak_name":"赤城山","local_name":"赤城山","english_name":"Akagi-yama","search_name":"赤城山 赤城山 Akagi-yama 40赤城山1828","peak_elev":1823,"peak_lon":139.193549032442,"peak_lat":36.55923119121844,"base_elev":530,"distance_m":6003.2,"vertical_relief_m":1293.0,"max_jut":272.6604,"search_radius_m":9000,"elev_angle_deg":12.155}},{"type":"Feature","geometry":{"type":"Point","coordinates":[138.1759374785914,35.442176135415814]},"properties":{"peak_name":"赤石岳","local_name":"赤石岳","english_name":"Akaishi-dake","search_name":"赤石岳 赤石岳 Akaishi-dake 84赤石岳3120","peak_elev":3116,"peak_lon":138.15734235221015,"peak_lat":35.46131025096756,"base_elev":1514,"distance_m":2712.3,"vertical_relief_m":1602.0,"max_jut":814.4443,"search_radius_m":3250,"elev_angle_deg":30.5679}},{"type":"Feature","geometry":{"type":"Point","coordinates":[139.05152538602272,37.12004942309425]},"properties":{"peak_name":"越後駒ヶ岳","local_name":"越後駒ヶ岳","english_name":"Echigo-Komagatake","search_name":"越後駒ヶ岳 越後駒ヶ岳 Echigo-Komagatake 25越后驹之岳2003","peak_elev":2001,"peak_lon":139.0755104041087,"peak_lat":37.12355285270232,"base_elev":608,"distance_m":2166.7,"vertical_relief_m":1393.0,"max_jut":754.5058,"search_radius_m":3500,"elev_angle_deg":32.7375}},{"type":"Feature","geometry":{"type":"Point","coordinates":[139.97670029713743,37.110617112611]},"properties":{"peak_name":"那須岳","local_name":"那須岳","english_name":"Nasu-dake","search_name":"那須岳 那須岳 Nasu-dake 24那须岳1915","peak_elev":1909,"peak_lon":139.96295607329037,"peak_lat":37.124900325628495,"base_elev":1131,"distance_m":2001.2,"vertical_relief_m":778.0,"max_jut":281.8306,"search_radius_m":8250,"elev_angle_deg":21.2444}},{"type":"Feature","geometry":{"type":"Point","coordinates":[138.60820679330973,35.863935161309925]},"properties":{"peak_name":"金峰山","local_name":"金峰山","english_name":"Kinpu-san","search_name":"金峰山 金峰山 Kinpu-san 68金峰山2599","peak_elev":2591,"peak_lon":138.62545444676482,"peak_lat":35.87148100969653,"base_elev":1735,"distance_m":1768.5,"vertical_relief_m":856.0,"max_jut":373.3408,"search_radius_m":3500,"elev_angle_deg":25.8282}},{"type":"Feature","geometry":{"type":"Point","coordinates":[130.51582338784743,31.168800497330835]},"properties":{"peak_name":"開聞岳","local_name":"開聞岳","english_name":"Kaimon-dake","search_name":"開聞岳 開聞岳 Kaimon-dake 99开闻岳924","peak_elev":923,"peak_lon":130.5276811495978,"peak_lat":31.179580280740268,"base_elev":1,"distance_m":1645.1,"vertical_relief_m":922.0,"max_jut":450.5826,"search_radius_m":2250,"elev_angle_deg":29.2685}},{"type":"Feature","geometry":{"type":"Point","coordinates":[138.27457249678775,35.644566568927935]},"properties":{"peak_name":"間ノ岳","local_name":"間ノ岳","english_name":"Aino-dake","search_name":"間ノ岳 間ノ岳 Aino-dake 81间之岳3189","peak_elev":3200,"peak_lon":138.2290279118829,"peak_lat":35.64591404185412,"base_elev":1311,"distance_m":4127.5,"vertical_relief_m":1889.0,"max_jut":787.5793,"search_radius_m":7750,"elev_angle_deg":24.5918}},{"type":"Feature","geometry":{"type":"Point","coordinates":[143.9865102308617,43.39900376450447]},"properties":{"peak_name":"阿寒岳","local_name":"阿寒岳","english_name":"Akan-dake","search_name":"阿寒岳 阿寒岳 Akan-dake 4阿寒岳1499","peak_elev":1481,"peak_lon":144.009686765192,"peak_lat":43.38633751899839,"base_elev":682,"distance_m":2346.5,"vertical_relief_m":799.0,"max_jut":257.8528,"search_radius_m":4500,"elev_angle_deg":18.8041}},{"type":"Feature","geometry":{"type":"Point","coordinates":[131.1138318724858,32.89733876703362]},"properties":{"peak_name":"阿蘇山","local_name":"阿蘇山","english_name":"Aso-san","search_name":"阿蘇山 阿蘇山 Aso-san 97阿苏山1592","peak_elev":1589,"peak_lon":131.10386057283208,"peak_lat":32.88413353235706,"base_elev":827,"distance_m":1736.4,"vertical_relief_m":762.0,"max_jut":305.8707,"search_radius_m":3750,"elev_angle_deg":23.6937}},{"type":"Feature","geometry":{"type":"Point","coordinates":[137.94686708114094,36.92547433255396]},"properties":{"peak_name":"雨飾山","local_name":"雨飾山","english_name":"Amakazari-yama","search_name":"雨飾山 雨飾山 Amakazari-yama 31雨饰山1963","peak_elev":1937,"peak_lon":137.96222827249937,"peak_lat":36.90229779822368,"base_elev":677,"distance_m":2913.6,"vertical_relief_m":1260.0,"max_jut":499.6812,"search_radius_m":3000,"elev_angle_deg":23.3863}},{"type":"Feature","geometry":{"type":"Point","coordinates":[138.92809686598468,35.87390646096365]},"properties":{"peak_name":"雲取山","local_name":"雲取山","english_name":"Kumotori-yama","search_name":"雲取山 雲取山 Kumotori-yama 66云取山2017","peak_elev":2017,"peak_lon":138.9439970465136,"peak_lat":35.855311334582375,"base_elev":921,"distance_m":2513.8,"vertical_relief_m":1096.0,"max_jut":437.7487,"search_radius_m":3750,"elev_angle_deg":23.5569}},{"type":"Feature","geometry":{"type":"Point","coordinates":[138.22094307432582,36.07656638906101]},"properties":{"peak_name":"霧ヶ峰","local_name":"霧ヶ峰","english_name":"Kirigamine","search_name":"霧ヶ峰 霧ヶ峰 Kirigamine 62雾之峰1925","peak_elev":1926,"peak_lon":138.19695805623982,"peak_lat":36.10324635299936,"base_elev":1181,"distance_m":3664.7,"vertical_relief_m":745.0,"max_jut":148.3394,"search_radius_m":9750,"elev_angle_deg":11.4911}},{"type":"Feature","geometry":{"type":"Point","coordinates":[130.89122934508097,31.960845083339017]},"properties":{"peak_name":"霧島山","local_name":"霧島山","english_name":"Kirishima-yama","search_name":"霧島山 霧島山 Kirishima-yama 98雾岛山1700","peak_elev":1695,"peak_lon":130.86158494070503,"peak_lat":31.93389562481543,"base_elev":650,"distance_m":4097.0,"vertical_relief_m":1045.0,"max_jut":258.1283,"search_radius_m":13000,"elev_angle_deg":14.309}},{"type":"Feature","geometry":{"type":"Point","coordinates":[139.689419069276,37.88487505599361]},"properties":{"peak_name":"飯豊山","local_name":"飯豊山","english_name":"Iide-san","search_name":"飯豊山 飯豊山 Iide-san 19饭丰山2105","peak_elev":2114,"peak_lon":139.7074752064868,"peak_lat":37.8546916624472,"base_elev":691,"distance_m":3707.8,"vertical_relief_m":1423.0,"max_jut":509.3887,"search_radius_m":10000,"elev_angle_deg":20.9961}},{"type":"Feature","geometry":{"type":"Point","coordinates":[138.0457715939225,36.78506765364608]},"properties":{"peak_name":"高妻山","local_name":"高妻山","english_name":"Takatsuma-yama","search_name":"高妻山 高妻山 Takatsuma-yama 35高妻山2353","peak_elev":2340,"peak_lon":138.0525089585534,"peak_lat":36.79935086666358,"base_elev":1379,"distance_m":1695.3,"vertical_relief_m":961.0,"max_jut":473.3936,"search_radius_m":2500,"elev_angle_deg":29.5472}},{"type":"Feature","geometry":{"type":"Point","coordinates":[140.06509452109478,39.057984985525295]},"properties":{"peak_name":"鳥海山","local_name":"鳥海山","english_name":"Chokai-san","search_name":"鳥海山 鳥海山 Chokai-san 15鸟海山2236","peak_elev":2223,"peak_lon":140.04865535139538,"peak_lat":39.09921765706638,"base_elev":579,"distance_m":4793.5,"vertical_relief_m":1644.0,"max_jut":532.7606,"search_radius_m":10000,"elev_angle_deg":18.9301}},{"type":"Feature","geometry":{"type":"Point","coordinates":[138.28373531268576,35.68876368090662]},"properties":{"peak_name":"鳳凰山","local_name":"鳳凰山","english_name":"Houou-san","search_name":"鳳凰山 鳳凰山 Houou-san 79凤凰山2840","peak_elev":2834,"peak_lon":138.3044863957489,"peak_lat":35.70169942099794,"base_elev":1421,"distance_m":2363.8,"vertical_relief_m":1413.0,"max_jut":725.3511,"search_radius_m":4500,"elev_angle_deg":30.8696}},{"type":"Feature","geometry":{"type":"Point","coordinates":[137.63371437309686,36.39942090217357]},"properties":{"peak_name":"鷲羽岳","local_name":"鷲羽岳","english_name":"Washiba-dake","search_name":"鷲羽岳 鷲羽岳 Washiba-dake 53鹫羽岳2924","peak_elev":2918,"peak_lon":137.60514794706188,"peak_lat":36.40292433178164,"base_elev":1818,"distance_m":2591.9,"vertical_relief_m":1100.0,"max_jut":430.5539,"search_radius_m":2750,"elev_angle_deg":22.9963}},{"type":"Feature","geometry":{"type":"Point","coordinates":[137.7865178029256,36.61959797831127]},"properties":{"peak_name":"鹿島槍ヶ岳","local_name":"鹿島槍ヶ岳","english_name":"Kashimayari-gatake","search_name":"鹿島槍ヶ岳 鹿島槍ヶ岳 Kashimayari-gatake 47鹿岛枪岳2889","peak_elev":2883,"peak_lon":137.74690209889593,"peak_lat":36.62444888084551,"base_elev":1222,"distance_m":3584.3,"vertical_relief_m":1661.0,"max_jut":699.6725,"search_radius_m":3750,"elev_angle_deg":24.8635}},{"type":"Feature","geometry":{"type":"Point","coordinates":[137.54505065455427,36.36977649779763]},"properties":{"peak_name":"黒部五郎岳","local_name":"黒部五郎岳","english_name":"Kurobegoro-dake","search_name":"黒部五郎岳 黒部五郎岳 Kurobegoro-dake 51黑部五郎岳2840","peak_elev":2835,"peak_lon":137.5399302574348,"peak_lat":36.39268353754267,"base_elev":1616,"distance_m":2583.1,"vertical_relief_m":1219.0,"max_jut":519.4279,"search_radius_m":3000,"elev_angle_deg":25.2633}}]}