{"type":"FeatureCollection","features":[{"type":"Feature","geometry":{"type":"Point","coordinates":[114.34183636033228,3.1653486508877524]},"properties":{"peak_name":"Banjaran Dulit","local_name":"Banjaran Dulit","english_name":"Banjaran Dulit","search_name":"Banjaran Dulit Banjaran Dulit Banjaran Dulit Banjaran Dulit","peak_elev":1465,"peak_lon":114.32000729892818,"peak_lat":3.1578028025011484,"base_elev":600,"distance_m":2565.8,"vertical_relief_m":865.0,"max_jut":276.4375,"search_radius_m":11500,"elev_angle_deg":18.6303}},{"type":"Feature","geometry":{"type":"Point","coordinates":[113.7023257095676,2.24583312606301]},"properties":{"peak_name":"Bukit Batu","local_name":"Bukit Batu","english_name":"Bukit Batu","search_name":"Bukit Batu Bukit Batu Bukit Batu Bukit Batu","peak_elev":2023,"peak_lon":113.7182258900965,"peak_lat":2.2493365556710763,"base_elev":863,"distance_m":1810.6,"vertical_relief_m":1160.0,"max_jut":626.1357,"search_radius_m":3000,"elev_angle_deg":32.6465}},{"type":"Feature","geometry":{"type":"Point","coordinates":[115.25245856384424,3.877353345080885]},"properties":{"peak_name":"Bukit Batu Iran","local_name":"Bukit Batu Iran","english_name":"Bukit Batu Iran","search_name":"Bukit Batu Iran Bukit Batu Iran Bukit Batu Iran Bukit Batu Iran","peak_elev":2005,"peak_lon":115.2732096469074,"peak_lat":3.868460023768102,"base_elev":1040,"distance_m":2505.8,"vertical_relief_m":965.0,"max_jut":346.8288,"search_radius_m":7250,"elev_angle_deg":21.062}},{"type":"Feature","geometry":{"type":"Point","coordinates":[114.80590603610842,3.713231142672248]},"properties":{"peak_name":"Bukit Batu Lawun","local_name":"Bukit Batu Lawun","english_name":"Bukit Batu Lawun","search_name":"Bukit Batu Lawun Bukit Batu Lawun Bukit Batu Lawun Bukit Batu Lawun","peak_elev":1223,"peak_lon":114.82477065707492,"peak_lat":3.6938275325352663,"base_elev":296,"distance_m":2999.2,"vertical_relief_m":927.0,"max_jut":273.1628,"search_radius_m":3500,"elev_angle_deg":17.1755}},{"type":"Feature","geometry":{"type":"Point","coordinates":[101.96529753337556,4.675865801134727]},"properties":{"peak_name":"Bukit Brentin","local_name":"Bukit Brentin","english_name":"Bukit Brentin","search_name":"Bukit Brentin Bukit Brentin Bukit Brentin Bukit Brentin","peak_elev":967,"peak_lon":101.94481594489764,"peak_lat":4.677752263231379,"base_elev":212,"distance_m":2282.0,"vertical_relief_m":755.0,"max_jut":237.3806,"search_radius_m":2750,"elev_angle_deg":18.3068}},{"type":"Feature","geometry":{"type":"Point","coordinates":[117.1394596496657,5.521809304190081]},"properties":{"peak_name":"Bukit Bulud Tawai","local_name":"Bukit Bulud Tawai","english_name":"Bukit Bulud Tawai","search_name":"Bukit Bulud Tawai Bukit Bulud Tawai Bukit Bulud Tawai Bukit Bulud Tawai","peak_elev":1321,"peak_lon":117.12463744747772,"peak_lat":5.515880423314893,"base_elev":507,"distance_m":1768.4,"vertical_relief_m":814.0,"max_jut":340.4185,"search_radius_m":6250,"elev_angle_deg":24.7168}},{"type":"Feature","geometry":{"type":"Point","coordinates":[114.66846379763813,3.2397291564128485]},"properties":{"peak_name":"Bukit Kalulong","local_name":"Bukit Kalulong","english_name":"Bukit Kalulong","search_name":"Bukit Kalulong Bukit Kalulong Bukit Kalulong Bukit Kalulong","peak_elev":1578,"peak_lon":114.66684683012672,"peak_lat":3.218439084179216,"base_elev":453,"distance_m":2361.0,"vertical_relief_m":1125.0,"max_jut":481.7389,"search_radius_m":2500,"elev_angle_deg":25.4775}},{"type":"Feature","geometry":{"type":"Point","coordinates":[112.85287877690416,2.6581598414738705]},"properties":{"peak_name":"Bukit Kana","local_name":"Bukit Kana","english_name":"Bukit Kana","search_name":"Bukit Kana Bukit Kana Bukit Kana Bukit Kana","peak_elev":1075,"peak_lon":112.856112711927,"peak_lat":2.666244679030946,"base_elev":242,"distance_m":963.6,"vertical_relief_m":833.0,"max_jut":543.3113,"search_radius_m":2750,"elev_angle_deg":40.8423}},{"type":"Feature","geometry":{"type":"Point","coordinates":[101.91247659466934,5.789686921914522]},"properties":{"peak_name":"Bukit Lanas","local_name":"Bukit Lanas","english_name":"Bukit Lanas","search_name":"Bukit Lanas Bukit Lanas Bukit Lanas Bukit Lanas","peak_elev":864,"peak_lon":101.92864626978348,"peak_lat":5.784566524795041,"base_elev":86,"distance_m":1878.3,"vertical_relief_m":778.0,"max_jut":297.8635,"search_radius_m":3500,"elev_angle_deg":22.4995}},{"type":"Feature","geometry":{"type":"Point","coordinates":[116.98908167110407,4.433859663592929]},"properties":{"peak_name":"Bukit Meliat","local_name":"Bukit Meliat","english_name":"Bukit Meliat","search_name":"Bukit Meliat Bukit Meliat Bukit Meliat Bukit Meliat","peak_elev":1590,"peak_lon":116.9521609129268,"peak_lat":4.414725548041183,"base_elev":421,"distance_m":4611.8,"vertical_relief_m":1169.0,"max_jut":287.155,"search_radius_m":5250,"elev_angle_deg":14.2238}},{"type":"Feature","geometry":{"type":"Point","coordinates":[117.1041558589998,5.844124828132165]},"properties":{"peak_name":"Bukit Meliau","local_name":"Bukit Meliau","english_name":"Bukit Meliau","search_name":"Bukit Meliau Bukit Meliau Bukit Meliau Bukit Meliau","peak_elev":1330,"peak_lon":117.12167300704012,"peak_lat":5.850862192763062,"base_elev":306,"distance_m":2078.1,"vertical_relief_m":1024.0,"max_jut":452.7306,"search_radius_m":2750,"elev_angle_deg":26.2321}},{"type":"Feature","geometry":{"type":"Point","coordinates":[113.93328256911472,3.161845221279686]},"properties":{"peak_name":"Bukit Mererong","local_name":"Bukit Mererong","english_name":"Bukit Mererong","search_name":"Bukit Mererong Bukit Mererong Bukit Mererong Bukit Mererong","peak_elev":1243,"peak_lon":113.93975043916038,"peak_lat":3.1718165209334126,"base_elev":474,"distance_m":1316.3,"vertical_relief_m":769.0,"max_jut":386.8856,"search_radius_m":4750,"elev_angle_deg":30.294}},{"type":"Feature","geometry":{"type":"Point","coordinates":[115.30905242674376,4.301807316827359]},"properties":{"peak_name":"Bukit Pagon","local_name":"Bukit Pagon","english_name":"Bukit Pagon","search_name":"Bukit Pagon Bukit Pagon Bukit Pagon Bukit Pagon","peak_elev":1811,"peak_lon":115.32198816683508,"peak_lat":4.293183490099811,"base_elev":1035,"distance_m":1723.8,"vertical_relief_m":776.0,"max_jut":318.3007,"search_radius_m":3500,"elev_angle_deg":24.2358}},{"type":"Feature","geometry":{"type":"Point","coordinates":[114.84821668599044,3.955506774799284]},"properties":{"peak_name":"Bukit Pelamau","local_name":"Bukit Pelamau","english_name":"Bukit Pelamau","search_name":"Bukit Pelamau Bukit Pelamau Bukit Pelamau Bukit Pelamau","peak_elev":1261,"peak_lon":114.8492946643314,"peak_lat":3.939337099685132,"base_elev":220,"distance_m":1792.0,"vertical_relief_m":1041.0,"max_jut":520.7397,"search_radius_m":3250,"elev_angle_deg":30.153}},{"type":"Feature","geometry":{"type":"Point","coordinates":[101.90924265964652,4.865859483726006]},"properties":{"peak_name":"Bukit Pemancar","local_name":"Bukit Pemancar","english_name":"Bukit Pemancar","search_name":"Bukit Pemancar Bukit Pemancar Bukit Pemancar Bukit Pemancar","peak_elev":1013,"peak_lon":101.9084341758908,"peak_lat":4.842143960225251,"base_elev":155,"distance_m":2624.0,"vertical_relief_m":858.0,"max_jut":265.3261,"search_radius_m":3750,"elev_angle_deg":18.1068}},{"type":"Feature","geometry":{"type":"Point","coordinates":[116.75704683321602,4.355975728459766]},"properties":{"peak_name":"Bukit Tantelawan","local_name":"Bukit Tantelawan","english_name":"Bukit Tantelawan","search_name":"Bukit Tantelawan Bukit Tantelawan Bukit Tantelawan Bukit Tantelawan","peak_elev":1377,"peak_lon":116.74599755522136,"peak_lat":4.383464176153823,"base_elev":503,"distance_m":3277.8,"vertical_relief_m":874.0,"max_jut":224.2119,"search_radius_m":6250,"elev_angle_deg":14.9301}},{"type":"Feature","geometry":{"type":"Point","coordinates":[101.90654771379415,4.994677895468746]},"properties":{"peak_name":"Bukit Ulu Lalat","local_name":"Bukit Ulu Lalat","english_name":"Bukit Ulu Lalat","search_name":"Bukit Ulu Lalat Bukit Ulu Lalat Bukit Ulu Lalat Bukit Ulu Lalat","peak_elev":1061,"peak_lon":101.87717280400344,"peak_lat":4.991443960445916,"base_elev":139,"distance_m":3277.2,"vertical_relief_m":922.0,"max_jut":249.9424,"search_radius_m":6500,"elev_angle_deg":15.7133}},{"type":"Feature","geometry":{"type":"Point","coordinates":[116.33286235605478,4.658887642264869]},"properties":{"peak_name":"Gunung Antulai","local_name":"Gunung Antulai","english_name":"Gunung Antulai","search_name":"Gunung Antulai Gunung Antulai Gunung Antulai Gunung Antulai","peak_elev":1605,"peak_lon":116.34768455824276,"peak_lat":4.6764047903052,"base_elev":736,"distance_m":2541.0,"vertical_relief_m":869.0,"max_jut":280.5079,"search_radius_m":4250,"elev_angle_deg":18.8802}},{"type":"Feature","geometry":{"type":"Point","coordinates":[115.542434737558,3.4542468462605904]},"properties":{"peak_name":"Gunung Apad Runan","local_name":"Gunung Apad Runan","english_name":"Gunung Apad Runan","search_name":"Gunung Apad Runan Gunung Apad Runan Gunung Apad Runan Gunung Apad Runan","peak_elev":2088,"peak_lon":115.58690134412193,"peak_lat":3.450743416652524,"base_elev":1123,"distance_m":4956.2,"vertical_relief_m":965.0,"max_jut":184.6197,"search_radius_m":6250,"elev_angle_deg":11.018}},{"type":"Feature","geometry":{"type":"Point","coordinates":[111.0575058500629,1.0481991892748637]},"properties":{"peak_name":"Gunung Apeng","local_name":"Gunung Apeng","english_name":"Gunung Apeng","search_name":"Gunung Apeng Gunung Apeng Gunung Apeng Gunung Apeng","peak_elev":939,"peak_lon":111.05696686089242,"peak_lat":1.0433482867406183,"base_elev":468,"distance_m":539.7,"vertical_relief_m":471.0,"max_jut":308.7147,"search_radius_m":875,"elev_angle_deg":41.1114}},{"type":"Feature","geometry":{"type":"Point","coordinates":[114.74931217320888,2.209451357056169]},"properties":{"peak_name":"Gunung Bahau","local_name":"Gunung Bahau","english_name":"Gunung Bahau","search_name":"Gunung Bahau Gunung Bahau Gunung Bahau Gunung Bahau","peak_elev":1915,"peak_lon":114.75119863530554,"peak_lat":2.194359660282961,"base_elev":1085,"distance_m":1681.9,"vertical_relief_m":830.0,"max_jut":365.6856,"search_radius_m":4250,"elev_angle_deg":26.2659}},{"type":"Feature","geometry":{"type":"Point","coordinates":[101.38318922926612,4.209909663261932]},"properties":{"peak_name":"Gunung Batu Putih","local_name":"Gunung Batu Putih","english_name":"Gunung Batu Putih","search_name":"Gunung Batu Putih Gunung Batu Putih Gunung Batu Putih Gunung Batu Putih","peak_elev":2129,"peak_lon":101.44140005967706,"peak_lat":4.223923381694196,"base_elev":376,"distance_m":6645.8,"vertical_relief_m":1753.0,"max_jut":447.4343,"search_radius_m":7500,"elev_angle_deg":14.7767}},{"type":"Feature","geometry":{"type":"Point","coordinates":[101.68556215390076,4.5917834905411405]},"properties":{"peak_name":"Gunung Bedung","local_name":"Gunung Bedung","english_name":"Gunung Bedung","search_name":"Gunung Bedung Gunung Bedung Gunung Bedung Gunung Bedung","peak_elev":1478,"peak_lon":101.67127894088324,"peak_lat":4.587741071762602,"base_elev":700,"distance_m":1646.8,"vertical_relief_m":778.0,"max_jut":332.5115,"search_radius_m":4250,"elev_angle_deg":25.2875}},{"type":"Feature","geometry":{"type":"Point","coordinates":[112.83913455305714,1.6807029808234188]},"properties":{"peak_name":"Gunung Bela Ujan","local_name":"Gunung Bela Ujan","english_name":"Gunung Bela Ujan","search_name":"Gunung Bela Ujan Gunung Bela Ujan Gunung Bela Ujan Gunung Bela Ujan","peak_elev":1274,"peak_lon":112.8569211956827,"peak_lat":1.6852843887724285,"base_elev":443,"distance_m":2043.0,"vertical_relief_m":831.0,"max_jut":313.2988,"search_radius_m":4250,"elev_angle_deg":22.1343}},{"type":"Feature","geometry":{"type":"Point","coordinates":[114.93553293160689,3.124924463102374]},"properties":{"peak_name":"Gunung Belukun","local_name":"Gunung Belukun","english_name":"Gunung Belukun","search_name":"Gunung Belukun Gunung Belukun Gunung Belukun Gunung Belukun","peak_elev":1355,"peak_lon":114.95628401467005,"peak_lat":3.116839625545298,"base_elev":528,"distance_m":2473.8,"vertical_relief_m":827.0,"max_jut":262.2643,"search_radius_m":5000,"elev_angle_deg":18.485}},{"type":"Feature","geometry":{"type":"Point","coordinates":[103.54022388949392,2.0291594795333814]},"properties":{"peak_name":"Gunung Belumut","local_name":"Gunung Belumut","english_name":"Gunung Belumut","search_name":"Gunung Belumut Gunung Belumut Gunung Belumut Gunung Belumut","peak_elev":1000,"peak_lon":103.56097497255708,"peak_lat":2.042634208795174,"base_elev":179,"distance_m":2747.6,"vertical_relief_m":821.0,"max_jut":234.8645,"search_radius_m":4000,"elev_angle_deg":16.6365}},{"type":"Feature","geometry":{"type":"Point","coordinates":[114.93149051282832,4.159514175822827]},"properties":{"peak_name":"Gunung Benarat","local_name":"Gunung Benarat","english_name":"Gunung Benarat","search_name":"Gunung Benarat Gunung Benarat Gunung Benarat Gunung Benarat","peak_elev":2123,"peak_lon":114.92340567527124,"peak_lat":4.159783670408062,"base_elev":549,"distance_m":898.1,"vertical_relief_m":1574.0,"max_jut":1367.4759,"search_radius_m":1500,"elev_angle_deg":60.2916}},{"type":"Feature","geometry":{"type":"Point","coordinates":[102.15960312933062,3.7956964857544206]},"properties":{"peak_name":"Gunung Benum","local_name":"Gunung Benum","english_name":"Gunung Benum","search_name":"Gunung Benum Gunung Benum Gunung Benum Gunung Benum","peak_elev":2103,"peak_lon":102.0941159451183,"peak_lat":3.823184933448478,"base_elev":399,"distance_m":7883.5,"vertical_relief_m":1704.0,"max_jut":360.0502,"search_radius_m":17000,"elev_angle_deg":12.1967}},{"type":"Feature","geometry":{"type":"Point","coordinates":[103.14164139793009,2.512093776276036]},"properties":{"peak_name":"Gunung Besar","local_name":"Gunung Besar","english_name":"Gunung Besar","search_name":"Gunung Besar Gunung Besar Gunung Besar Gunung Besar","peak_elev":1035,"peak_lon":103.1478397733905,"peak_lat":2.519909119247876,"base_elev":521,"distance_m":1105.4,"vertical_relief_m":514.0,"max_jut":216.1826,"search_radius_m":4250,"elev_angle_deg":24.938}},{"type":"Feature","geometry":{"type":"Point","coordinates":[101.07219247790394,5.893711831815563]},"properties":{"peak_name":"Gunung Betong","local_name":"Gunung Betong","english_name":"Gunung Betong","search_name":"Gunung Betong Gunung Betong Gunung Betong Gunung Betong","peak_elev":1265,"peak_lon":101.0433565572837,"peak_lat":5.91338493653778,"base_elev":349,"distance_m":3863.8,"vertical_relief_m":916.0,"max_jut":211.1118,"search_radius_m":6000,"elev_angle_deg":13.337}},{"type":"Feature","geometry":{"type":"Point","coordinates":[100.83207280245878,5.435301542329372]},"properties":{"peak_name":"Gunung Bintang","local_name":"Gunung Bintang","english_name":"Gunung Bintang","search_name":"Gunung Bintang Gunung Bintang Gunung Bintang Gunung Bintang","peak_elev":1854,"peak_lon":100.8660291201985,"peak_lat":5.428833672283711,"base_elev":590,"distance_m":3830.5,"vertical_relief_m":1264.0,"max_jut":396.4156,"search_radius_m":7250,"elev_angle_deg":18.262}},{"type":"Feature","geometry":{"type":"Point","coordinates":[100.7735924774626,4.688262552055577]},"properties":{"peak_name":"Gunung Bubu","local_name":"Gunung Bubu","english_name":"Gunung Bubu","search_name":"Gunung Bubu Gunung Bubu Gunung Bubu Gunung Bubu","peak_elev":1647,"peak_lon":100.80700980603186,"peak_lat":4.682064176595152,"base_elev":438,"distance_m":3770.5,"vertical_relief_m":1209.0,"max_jut":369.4583,"search_radius_m":10500,"elev_angle_deg":17.7783}},{"type":"Feature","geometry":{"type":"Point","coordinates":[101.23173327236356,4.317707497356275]},"properties":{"peak_name":"Gunung Bujang Melaka","local_name":"Gunung Bujang Melaka","english_name":"Gunung Bujang Melaka","search_name":"Gunung Bujang Melaka Gunung Bujang Melaka Gunung Bujang Melaka Gunung Bujang Melaka","peak_elev":1244,"peak_lon":101.20154987881716,"peak_lat":4.333338183299954,"base_elev":69,"distance_m":3770.0,"vertical_relief_m":1175.0,"max_jut":349.5366,"search_radius_m":7000,"elev_angle_deg":17.3107}},{"type":"Feature","geometry":{"type":"Point","coordinates":[114.88298148748588,3.460714716306251]},"properties":{"peak_name":"Gunung Bunan","local_name":"Gunung Bunan","english_name":"Gunung Bunan","search_name":"Gunung Bunan Gunung Bunan Gunung Bunan Gunung Bunan","peak_elev":1302,"peak_lon":114.9018461084524,"peak_lat":3.471494499715685,"base_elev":476,"distance_m":2411.4,"vertical_relief_m":826.0,"max_jut":267.5477,"search_radius_m":6750,"elev_angle_deg":18.9084}},{"type":"Feature","geometry":{"type":"Point","coordinates":[101.65349229825767,5.204883671952714]},"properties":{"peak_name":"Gunung Chamah","local_name":"Gunung Chamah","english_name":"Gunung Chamah","search_name":"Gunung Chamah Gunung Chamah Gunung Chamah Gunung Chamah","peak_elev":2165,"peak_lon":101.5731829118574,"peak_lat":5.228060206282998,"base_elev":212,"distance_m":9264.7,"vertical_relief_m":1953.0,"max_jut":403.0879,"search_radius_m":11000,"elev_angle_deg":11.9037}},{"type":"Feature","geometry":{"type":"Point","coordinates":[112.63566614120408,2.179267963509753]},"properties":{"peak_name":"Gunung Entangai","local_name":"Gunung Entangai","english_name":"Gunung Entangai","search_name":"Gunung Entangai Gunung Entangai Gunung Entangai Gunung Entangai","peak_elev":1034,"peak_lon":112.632162711596,"peak_lat":2.1881612848225367,"base_elev":480,"distance_m":1057.8,"vertical_relief_m":554.0,"max_jut":256.087,"search_radius_m":2500,"elev_angle_deg":27.6423}},{"type":"Feature","geometry":{"type":"Point","coordinates":[109.85555999991097,1.7022625476422877]},"properties":{"peak_name":"Gunung Gading","local_name":"Gunung Gading","english_name":"Gunung Gading","search_name":"Gunung Gading Gunung Gading Gunung Gading Gunung Gading","peak_elev":900,"peak_lon":109.836156389774,"peak_lat":1.7138508148074292,"base_elev":28,"distance_m":2510.6,"vertical_relief_m":872.0,"max_jut":285.9362,"search_radius_m":5250,"elev_angle_deg":19.1535}},{"type":"Feature","geometry":{"type":"Point","coordinates":[102.62960168598195,4.737310566568503]},"properties":{"peak_name":"Gunung Gagau","local_name":"Gunung Gagau","english_name":"Gunung Gagau","search_name":"Gunung Gagau Gunung Gagau Gunung Gagau Gunung Gagau","peak_elev":1378,"peak_lon":102.6541256932384,"peak_lat":4.761834573824966,"base_elev":313,"distance_m":3841.4,"vertical_relief_m":1065.0,"max_jut":283.9519,"search_radius_m":7250,"elev_angle_deg":15.4956}},{"type":"Feature","geometry":{"type":"Point","coordinates":[101.4829022258034,5.024591794429926]},"properties":{"peak_name":"Gunung Gerah","local_name":"Gunung Gerah","english_name":"Gunung Gerah","search_name":"Gunung Gerah Gunung Gerah Gunung Gerah Gunung Gerah","peak_elev":2096,"peak_lon":101.44517298387036,"peak_lat":5.016776451458086,"base_elev":840,"distance_m":4272.3,"vertical_relief_m":1256.0,"max_jut":354.5365,"search_radius_m":6000,"elev_angle_deg":16.3826}},{"type":"Feature","geometry":{"type":"Point","coordinates":[100.84635601547627,4.84483890607761]},"properties":{"peak_name":"Gunung Hijau","local_name":"Gunung Hijau","english_name":"Gunung Hijau","search_name":"Gunung Hijau Gunung Hijau Gunung Hijau Gunung Hijau","peak_elev":1445,"peak_lon":100.81536413817416,"peak_lat":4.85912211909511,"base_elev":260,"distance_m":3783.2,"vertical_relief_m":1185.0,"max_jut":354.1989,"search_radius_m":9750,"elev_angle_deg":17.392}},{"type":"Feature","geometry":{"type":"Point","coordinates":[117.2281233682083,5.081455151914692]},"properties":{"peak_name":"Gunung Imbak","local_name":"Gunung Imbak","english_name":"Gunung Imbak","search_name":"Gunung Imbak Gunung Imbak Gunung Imbak Gunung Imbak","peak_elev":1494,"peak_lon":117.20602481221896,"peak_lat":5.068788906408607,"base_elev":374,"distance_m":2822.5,"vertical_relief_m":1120.0,"max_jut":412.9135,"search_radius_m":6000,"elev_angle_deg":21.6437}},{"type":"Feature","geometry":{"type":"Point","coordinates":[117.06642661706678,4.9895574983492645]},"properties":{"peak_name":"Gunung Inarat","local_name":"Gunung Inarat","english_name":"Gunung Inarat","search_name":"Gunung Inarat Gunung Inarat Gunung Inarat Gunung Inarat","peak_elev":1429,"peak_lon":117.05807228492448,"peak_lat":4.989018509178793,"base_elev":676,"distance_m":928.4,"vertical_relief_m":753.0,"max_jut":474.6483,"search_radius_m":4000,"elev_angle_deg":39.0446}},{"type":"Feature","geometry":{"type":"Point","coordinates":[100.9298993368994,5.270640350750263]},"properties":{"peak_name":"Gunung Inas","local_name":"Gunung Inas","english_name":"Gunung Inas","search_name":"Gunung Inas Gunung Inas Gunung Inas Gunung Inas","peak_elev":1795,"peak_lon":100.95118940913304,"peak_lat":5.26498096446031,"base_elev":856,"distance_m":2441.6,"vertical_relief_m":939.0,"max_jut":337.2607,"search_radius_m":10500,"elev_angle_deg":21.0359}},{"type":"Feature","geometry":{"type":"Point","coordinates":[102.80315619887384,4.150890349095279]},"properties":{"peak_name":"Gunung Irong","local_name":"Gunung Irong","english_name":"Gunung Irong","search_name":"Gunung Irong Gunung Irong Gunung Irong Gunung Irong","peak_elev":1182,"peak_lon":102.81366648769804,"peak_lat":4.147656414072449,"base_elev":440,"distance_m":1220.5,"vertical_relief_m":742.0,"max_jut":385.6073,"search_radius_m":2750,"elev_angle_deg":31.2974}},{"type":"Feature","geometry":{"type":"Point","coordinates":[114.40489809327748,2.048024100499892]},"properties":{"peak_name":"Gunung Jelangai","local_name":"Gunung Jelangai","english_name":"Gunung Jelangai","search_name":"Gunung Jelangai Gunung Jelangai Gunung Jelangai Gunung Jelangai","peak_elev":1596,"peak_lon":114.42672715468156,"peak_lat":2.024308576999136,"base_elev":648,"distance_m":3574.1,"vertical_relief_m":948.0,"max_jut":242.4766,"search_radius_m":6000,"elev_angle_deg":14.8552}},{"type":"Feature","geometry":{"type":"Point","coordinates":[100.4135477115875,5.792381867766881]},"properties":{"peak_name":"Gunung Jerai","local_name":"Gunung Jerai","english_name":"Gunung Jerai","search_name":"Gunung Jerai Gunung Jerai Gunung Jerai Gunung Jerai","peak_elev":1211,"peak_lon":100.4345682892359,"peak_lat":5.786722481476928,"base_elev":220,"distance_m":2410.8,"vertical_relief_m":991.0,"max_jut":377.0018,"search_radius_m":6750,"elev_angle_deg":22.3459}},{"type":"Feature","geometry":{"type":"Point","coordinates":[104.16679880016729,2.7629932351306183]},"properties":{"peak_name":"Gunung Kajang","local_name":"Gunung Kajang","english_name":"Gunung Kajang","search_name":"Gunung Kajang Gunung Kajang Gunung Kajang Gunung Kajang","peak_elev":1019,"peak_lon":104.15440204924644,"peak_lat":2.769461105176279,"base_elev":326,"distance_m":1552.9,"vertical_relief_m":693.0,"max_jut":282.3434,"search_radius_m":6500,"elev_angle_deg":24.0494}},{"type":"Feature","geometry":{"type":"Point","coordinates":[109.71191938598028,1.7230136307054484]},"properties":{"peak_name":"Gunung Kanyi","local_name":"Gunung Kanyi","english_name":"Gunung Kanyi","search_name":"Gunung Kanyi Gunung Kanyi Gunung Kanyi Gunung Kanyi","peak_elev":1568,"peak_lon":109.66853075775728,"peak_lat":1.7205881794383255,"base_elev":56,"distance_m":4835.3,"vertical_relief_m":1512.0,"max_jut":451.7099,"search_radius_m":9500,"elev_angle_deg":17.3645}},{"type":"Feature","geometry":{"type":"Point","coordinates":[115.12768257088004,3.610823200282623]},"properties":{"peak_name":"Gunung Katih Patah","local_name":"Gunung Katih Patah","english_name":"Gunung Katih Patah","search_name":"Gunung Katih Patah Gunung Katih Patah Gunung Katih Patah Gunung Katih Patah","peak_elev":1543,"peak_lon":115.1500506214546,"peak_lat":3.586029698440924,"base_elev":578,"distance_m":3700.3,"vertical_relief_m":965.0,"max_jut":242.9334,"search_radius_m":3750,"elev_angle_deg":14.6166}},{"type":"Feature","geometry":{"type":"Point","coordinates":[101.07030601580728,5.516958401655836]},"properties":{"peak_name":"Gunung Kenderong","local_name":"Gunung Kenderong","english_name":"Gunung Kenderong","search_name":"Gunung Kenderong Gunung Kenderong Gunung Kenderong Gunung Kenderong","peak_elev":1185,"peak_lon":101.07623489668248,"peak_lat":5.511838004536354,"base_elev":463,"distance_m":867.3,"vertical_relief_m":722.0,"max_jut":461.4627,"search_radius_m":1500,"elev_angle_deg":39.7763}},{"type":"Feature","geometry":{"type":"Point","coordinates":[102.13373164914798,4.75374973626789]},"properties":{"peak_name":"Gunung Kermas","local_name":"Gunung Kermas","english_name":"Gunung Kermas","search_name":"Gunung Kermas Gunung Kermas Gunung Kermas Gunung Kermas","peak_elev":1526,"peak_lon":102.11621450110763,"peak_lat":4.764529519677325,"base_elev":441,"distance_m":2279.8,"vertical_relief_m":1085.0,"max_jut":466.0012,"search_radius_m":5250,"elev_angle_deg":25.4507}},{"type":"Feature","geometry":{"type":"Point","coordinates":[116.52258654406084,6.065110388025568]},"properties":{"peak_name":"Gunung Kinabalu","local_name":"Gunung Kinabalu","english_name":"Gunung Kinabalu","search_name":"Gunung Kinabalu Gunung Kinabalu Gunung Kinabalu Gunung Kinabalu","peak_elev":4045,"peak_lon":116.5584293238972,"peak_lat":6.0745426985088224,"base_elev":1187,"distance_m":4102.6,"vertical_relief_m":2858.0,"max_jut":1634.4565,"search_radius_m":10500,"elev_angle_deg":34.8623}},{"type":"Feature","geometry":{"type":"Point","coordinates":[101.27539139517177,4.695538905856945]},"properties":{"peak_name":"Gunung Korbu","local_name":"Gunung Korbu","english_name":"Gunung Korbu","search_name":"Gunung Korbu Gunung Korbu Gunung Korbu Gunung Korbu","peak_elev":2175,"peak_lon":101.29748995116113,"peak_lat":4.689879519566992,"base_elev":780,"distance_m":2530.4,"vertical_relief_m":1395.0,"max_jut":673.864,"search_radius_m":3750,"elev_angle_deg":28.8678}},{"type":"Feature","geometry":{"type":"Point","coordinates":[114.00092571000891,3.1521434162111954]},"properties":{"peak_name":"Gunung Koyan","local_name":"Gunung Koyan","english_name":"Gunung Koyan","search_name":"Gunung Koyan Gunung Koyan Gunung Koyan Gunung Koyan","peak_elev":1244,"peak_lon":114.01790386887878,"peak_lat":3.1389381815346384,"base_elev":331,"distance_m":2386.1,"vertical_relief_m":913.0,"max_jut":325.8751,"search_radius_m":4750,"elev_angle_deg":20.9385}},{"type":"Feature","geometry":{"type":"Point","coordinates":[102.68457858137006,4.14172753319726]},"properties":{"peak_name":"Gunung Laris","local_name":"Gunung Laris","english_name":"Gunung Laris","search_name":"Gunung Laris Gunung Laris Gunung Laris Gunung Laris","peak_elev":1061,"peak_lon":102.6781107113244,"peak_lat":4.131756233543533,"base_elev":345,"distance_m":1315.9,"vertical_relief_m":716.0,"max_jut":341.2739,"search_radius_m":2750,"elev_angle_deg":28.5512}},{"type":"Feature","geometry":{"type":"Point","coordinates":[102.56357551259916,5.443925369056919]},"properties":{"peak_name":"Gunung Lawit","local_name":"Gunung Lawit","english_name":"Gunung Lawit","search_name":"Gunung Lawit Gunung Lawit Gunung Lawit Gunung Lawit","peak_elev":1519,"peak_lon":102.58917749819658,"peak_lat":5.424521758919937,"base_elev":354,"distance_m":3557.3,"vertical_relief_m":1165.0,"max_jut":362.1612,"search_radius_m":5000,"elev_angle_deg":18.1334}},{"type":"Feature","geometry":{"type":"Point","coordinates":[117.32433293513748,4.413647569700239]},"properties":{"peak_name":"Gunung Lebayo","local_name":"Gunung Lebayo","english_name":"Gunung Lebayo","search_name":"Gunung Lebayo Gunung Lebayo Gunung Lebayo Gunung Lebayo","peak_elev":993,"peak_lon":117.33376524562075,"peak_lat":4.413917064285475,"base_elev":246,"distance_m":1047.3,"vertical_relief_m":747.0,"max_jut":434.0905,"search_radius_m":2500,"elev_angle_deg":35.4988}},{"type":"Feature","geometry":{"type":"Point","coordinates":[102.58270962815092,2.393785653357495]},"properties":{"peak_name":"Gunung Ledang","local_name":"Gunung Ledang","english_name":"Gunung Ledang","search_name":"Gunung Ledang Gunung Ledang Gunung Ledang Gunung Ledang","peak_elev":1231,"peak_lon":102.60804211916307,"peak_lat":2.373034570294334,"base_elev":72,"distance_m":3633.7,"vertical_relief_m":1159.0,"max_jut":351.6918,"search_radius_m":6250,"elev_angle_deg":17.6905}},{"type":"Feature","geometry":{"type":"Point","coordinates":[111.97270946152386,1.4785820418965263]},"properties":{"peak_name":"Gunung Lemanak","local_name":"Gunung Lemanak","english_name":"Gunung Lemanak","search_name":"Gunung Lemanak Gunung Lemanak Gunung Lemanak Gunung Lemanak","peak_elev":1286,"peak_lon":111.96812805357484,"peak_lat":1.4667242801461489,"base_elev":589,"distance_m":1406.8,"vertical_relief_m":697.0,"max_jut":308.2616,"search_radius_m":2250,"elev_angle_deg":26.3561}},{"type":"Feature","geometry":{"type":"Point","coordinates":[102.75949807606564,3.790306594049704]},"properties":{"peak_name":"Gunung Lerek","local_name":"Gunung Lerek","english_name":"Gunung Lerek","search_name":"Gunung Lerek Gunung Lerek Gunung Lerek Gunung Lerek","peak_elev":1044,"peak_lon":102.7373995200763,"peak_lat":3.788689626538288,"base_elev":175,"distance_m":2461.2,"vertical_relief_m":869.0,"max_jut":289.6083,"search_radius_m":4250,"elev_angle_deg":19.4471}},{"type":"Feature","geometry":{"type":"Point","coordinates":[111.15344592240686,1.2759221137991623]},"properties":{"peak_name":"Gunung Lesong","local_name":"Gunung Lesong","english_name":"Gunung Lesong","search_name":"Gunung Lesong Gunung Lesong Gunung Lesong Gunung Lesong","peak_elev":825,"peak_lon":111.15694935201492,"peak_lat":1.2627168791226056,"base_elev":89,"distance_m":1511.3,"vertical_relief_m":736.0,"max_jut":320.9041,"search_radius_m":3500,"elev_angle_deg":25.966}},{"type":"Feature","geometry":{"type":"Point","coordinates":[101.52413489734448,3.779526810640269]},"properties":{"peak_name":"Gunung Liang","local_name":"Gunung Liang","english_name":"Gunung Liang","search_name":"Gunung Liang Gunung Liang Gunung Liang Gunung Liang","peak_elev":1929,"peak_lon":101.59150854365345,"peak_lat":3.802433850385317,"base_elev":63,"distance_m":7900.7,"vertical_relief_m":1866.0,"max_jut":429.0959,"search_radius_m":10000,"elev_angle_deg":13.2887}},{"type":"Feature","geometry":{"type":"Point","coordinates":[116.99932246534306,4.900624285221432]},"properties":{"peak_name":"Gunung Lotung","local_name":"Gunung Lotung","english_name":"Gunung Lotung","search_name":"Gunung Lotung Gunung Lotung Gunung Lotung Gunung Lotung","peak_elev":1801,"peak_lon":116.98180531730272,"peak_lat":4.870171397089781,"base_elev":628,"distance_m":3887.8,"vertical_relief_m":1173.0,"max_jut":337.6173,"search_radius_m":10000,"elev_angle_deg":16.7892}},{"type":"Feature","geometry":{"type":"Point","coordinates":[115.8256735466409,4.81492500711643]},"properties":{"peak_name":"Gunung Lumaku","local_name":"Gunung Lumaku","english_name":"Gunung Lumaku","search_name":"Gunung Lumaku Gunung Lumaku Gunung Lumaku Gunung Lumaku","peak_elev":1956,"peak_lon":115.76072535159906,"peak_lat":4.841065981884308,"base_elev":336,"distance_m":7762.8,"vertical_relief_m":1620.0,"max_jut":331.0164,"search_radius_m":9750,"elev_angle_deg":11.7877}},{"type":"Feature","geometry":{"type":"Point","coordinates":[117.8902715641328,4.507701179947554]},"properties":{"peak_name":"Gunung Magdalena","local_name":"Gunung Magdalena","english_name":"Gunung Magdalena","search_name":"Gunung Magdalena Gunung Magdalena Gunung Magdalena Gunung Magdalena","peak_elev":1307,"peak_lon":117.9280008060658,"peak_lat":4.497999374879062,"base_elev":347,"distance_m":4322.4,"vertical_relief_m":960.0,"max_jut":208.2868,"search_radius_m":13000,"elev_angle_deg":12.5221}},{"type":"Feature","geometry":{"type":"Point","coordinates":[117.51809954192208,4.971770855723698]},"properties":{"peak_name":"Gunung Malubuk","local_name":"Gunung Malubuk","english_name":"Gunung Malubuk","search_name":"Gunung Malubuk Gunung Malubuk Gunung Malubuk Gunung Malubuk","peak_elev":1289,"peak_lon":117.5159435852402,"peak_lat":4.951289267245773,"base_elev":419,"distance_m":2277.5,"vertical_relief_m":870.0,"max_jut":308.9847,"search_radius_m":4000,"elev_angle_deg":20.9067}},{"type":"Feature","geometry":{"type":"Point","coordinates":[113.09596289278691,2.5223345705149987]},"properties":{"peak_name":"Gunung Mayeng","local_name":"Gunung Mayeng","english_name":"Gunung Mayeng","search_name":"Gunung Mayeng Gunung Mayeng Gunung Mayeng Gunung Mayeng","peak_elev":1024,"peak_lon":113.10674267619636,"peak_lat":2.515866700469338,"base_elev":297,"distance_m":1396.0,"vertical_relief_m":727.0,"max_jut":335.6311,"search_radius_m":3750,"elev_angle_deg":27.5093}},{"type":"Feature","geometry":{"type":"Point","coordinates":[113.57108184655772,1.327395579579211]},"properties":{"peak_name":"Gunung Melatai","local_name":"Gunung Melatai","english_name":"Gunung Melatai","search_name":"Gunung Melatai Gunung Melatai Gunung Melatai Gunung Melatai","peak_elev":1911,"peak_lon":113.56757841694966,"peak_lat":1.3101479261241162,"base_elev":977,"distance_m":1946.6,"vertical_relief_m":934.0,"max_jut":402.2941,"search_radius_m":2750,"elev_angle_deg":25.6322}},{"type":"Feature","geometry":{"type":"Point","coordinates":[101.96017713625608,5.173083310894883]},"properties":{"peak_name":"Gunung Meranto","local_name":"Gunung Meranto","english_name":"Gunung Meranto","search_name":"Gunung Meranto Gunung Meranto Gunung Meranto Gunung Meranto","peak_elev":1197,"peak_lon":101.96799247922792,"peak_lat":5.195181866884223,"base_elev":168,"distance_m":2592.8,"vertical_relief_m":1029.0,"max_jut":378.0148,"search_radius_m":5250,"elev_angle_deg":21.6466}},{"type":"Feature","geometry":{"type":"Point","coordinates":[116.97533744725706,5.822295766728061]},"properties":{"peak_name":"Gunung Monkobo","local_name":"Gunung Monkobo","english_name":"Gunung Monkobo","search_name":"Gunung Monkobo Gunung Monkobo Gunung Monkobo Gunung Monkobo","peak_elev":1806,"peak_lon":116.95593383712009,"peak_lat":5.819870315460938,"base_elev":587,"distance_m":2165.6,"vertical_relief_m":1219.0,"max_jut":598.4195,"search_radius_m":4000,"elev_angle_deg":29.3748}},{"type":"Feature","geometry":{"type":"Point","coordinates":[112.64833238671017,1.5844934138942182]},"properties":{"peak_name":"Gunung Mubau","local_name":"Gunung Mubau","english_name":"Gunung Mubau","search_name":"Gunung Mubau Gunung Mubau Gunung Mubau Gunung Mubau","peak_elev":1276,"peak_lon":112.64887137588062,"peak_lat":1.5704796954619535,"base_elev":492,"distance_m":1550.7,"vertical_relief_m":784.0,"max_jut":352.1588,"search_radius_m":4000,"elev_angle_deg":26.8202}},{"type":"Feature","geometry":{"type":"Point","coordinates":[114.5719847361237,1.5642813200015289]},"properties":{"peak_name":"Gunung Mudung Dadu","local_name":"Gunung Mudung Dadu","english_name":"Gunung Mudung Dadu","search_name":"Gunung Mudung Dadu Gunung Mudung Dadu Gunung Mudung Dadu Gunung Mudung Dadu","peak_elev":2049,"peak_lon":114.61294791307957,"peak_lat":1.5764085763371425,"base_elev":745,"distance_m":4751.4,"vertical_relief_m":1304.0,"max_jut":345.3005,"search_radius_m":8750,"elev_angle_deg":15.3467}},{"type":"Feature","geometry":{"type":"Point","coordinates":[114.93472444785117,4.071389446450701]},"properties":{"peak_name":"Gunung Mulu","local_name":"Gunung Mulu","english_name":"Gunung Mulu","search_name":"Gunung Mulu Gunung Mulu Gunung Mulu Gunung Mulu","peak_elev":2374,"peak_lon":114.93014303990216,"peak_lat":4.045787460853295,"base_elev":735,"distance_m":2876.4,"vertical_relief_m":1639.0,"max_jut":808.1627,"search_radius_m":4000,"elev_angle_deg":29.6749}},{"type":"Feature","geometry":{"type":"Point","coordinates":[115.46320332949868,3.925053886667632]},"properties":{"peak_name":"Gunung Murud","local_name":"Gunung Murud","english_name":"Gunung Murud","search_name":"Gunung Murud Gunung Murud Gunung Murud Gunung Murud","peak_elev":2417,"peak_lon":115.48853582051083,"peak_lat":3.905111287360178,"base_elev":1186,"distance_m":3574.7,"vertical_relief_m":1231.0,"max_jut":400.2992,"search_radius_m":7250,"elev_angle_deg":19.0019}},{"type":"Feature","geometry":{"type":"Point","coordinates":[115.17214917744394,3.334860745001106]},"properties":{"peak_name":"Gunung Murud Kecil","local_name":"Gunung Murud Kecil","english_name":"Gunung Murud Kecil","search_name":"Gunung Murud Kecil Gunung Murud Kecil Gunung Murud Kecil Gunung Murud Kecil","peak_elev":1629,"peak_lon":115.1365758921928,"peak_lat":3.3337827666601623,"base_elev":397,"distance_m":3955.1,"vertical_relief_m":1232.0,"max_jut":366.7718,"search_radius_m":5500,"elev_angle_deg":17.3016}},{"type":"Feature","geometry":{"type":"Point","coordinates":[101.90277478960084,5.119992877603419]},"properties":{"peak_name":"Gunung Nenggiri","local_name":"Gunung Nenggiri","english_name":"Gunung Nenggiri","search_name":"Gunung Nenggiri Gunung Nenggiri Gunung Nenggiri Gunung Nenggiri","peak_elev":1308,"peak_lon":101.9264903131016,"peak_lat":5.123765801796721,"base_elev":235,"distance_m":2662.4,"vertical_relief_m":1073.0,"max_jut":401.4285,"search_radius_m":5500,"elev_angle_deg":21.9504}},{"type":"Feature","geometry":{"type":"Point","coordinates":[101.7580561973292,5.397841794981587]},"properties":{"peak_name":"Gunung Noring","local_name":"Gunung Noring","english_name":"Gunung Noring","search_name":"Gunung Noring Gunung Noring Gunung Noring Gunung Noring","peak_elev":1875,"peak_lon":101.7386525871922,"peak_lat":5.396224827470172,"base_elev":1048,"distance_m":2157.9,"vertical_relief_m":827.0,"max_jut":296.2356,"search_radius_m":5000,"elev_angle_deg":20.969}},{"type":"Feature","geometry":{"type":"Point","coordinates":[101.9100511434022,3.226254427151056]},"properties":{"peak_name":"Gunung Nuang","local_name":"Gunung Nuang","english_name":"Gunung Nuang","search_name":"Gunung Nuang Gunung Nuang Gunung Nuang Gunung Nuang","peak_elev":1462,"peak_lon":101.90600872462367,"peak_lat":3.26371417449884,"base_elev":274,"distance_m":4166.5,"vertical_relief_m":1188.0,"max_jut":324.1024,"search_radius_m":4250,"elev_angle_deg":15.9145}},{"type":"Feature","geometry":{"type":"Point","coordinates":[116.36870513589116,4.872866342942139]},"properties":{"peak_name":"Gunung Pandiwan","local_name":"Gunung Pandiwan","english_name":"Gunung Pandiwan","search_name":"Gunung Pandiwan Gunung Pandiwan Gunung Pandiwan Gunung Pandiwan","peak_elev":1430,"peak_lon":116.37517300593682,"peak_lat":4.894156415175772,"base_elev":701,"distance_m":2461.2,"vertical_relief_m":729.0,"max_jut":206.0956,"search_radius_m":4750,"elev_angle_deg":16.4991}},{"type":"Feature","geometry":{"type":"Point","coordinates":[114.01817336346402,2.875102982588735]},"properties":{"peak_name":"Gunung Pedian","local_name":"Gunung Pedian","english_name":"Gunung Pedian","search_name":"Gunung Pedian Gunung Pedian Gunung Pedian Gunung Pedian","peak_elev":1272,"peak_lon":114.0195208363902,"peak_lat":2.8923506360438296,"base_elev":360,"distance_m":1913.0,"vertical_relief_m":912.0,"max_jut":390.6886,"search_radius_m":3750,"elev_angle_deg":25.4889}},{"type":"Feature","geometry":{"type":"Point","coordinates":[101.05898724322738,4.715481505164399]},"properties":{"peak_name":"Gunung Peninjau","local_name":"Gunung Peninjau","english_name":"Gunung Peninjau","search_name":"Gunung Peninjau Gunung Peninjau Gunung Peninjau Gunung Peninjau","peak_elev":1058,"peak_lon":101.047129481477,"peak_lat":4.712517064726804,"base_elev":319,"distance_m":1355.8,"vertical_relief_m":739.0,"max_jut":353.8828,"search_radius_m":1875,"elev_angle_deg":28.5933}},{"type":"Feature","geometry":{"type":"Point","coordinates":[110.21910819539414,1.1088354709529316]},"properties":{"peak_name":"Gunung Penrissen","local_name":"Gunung Penrissen","english_name":"Gunung Penrissen","search_name":"Gunung Penrissen Gunung Penrissen Gunung Penrissen Gunung Penrissen","peak_elev":1323,"peak_lon":110.22449808709884,"peak_lat":1.1131473843167052,"base_elev":563,"distance_m":766.3,"vertical_relief_m":760.0,"max_jut":534.7818,"search_radius_m":5500,"elev_angle_deg":44.7635}},{"type":"Feature","geometry":{"type":"Point","coordinates":[100.62159753138958,5.978063636994386]},"properties":{"peak_name":"Gunung Perak","local_name":"Gunung Perak","english_name":"Gunung Perak","search_name":"Gunung Perak Gunung Perak Gunung Perak Gunung Perak","peak_elev":866,"peak_lon":100.63615023899231,"peak_lat":5.964858402317829,"base_elev":106,"distance_m":2174.5,"vertical_relief_m":760.0,"max_jut":250.3292,"search_radius_m":4250,"elev_angle_deg":19.2648}},{"type":"Feature","geometry":{"type":"Point","coordinates":[102.08333616170889,4.841604971054779]},"properties":{"peak_name":"Gunung Rabong","local_name":"Gunung Rabong","english_name":"Gunung Rabong","search_name":"Gunung Rabong Gunung Rabong Gunung Rabong Gunung Rabong","peak_elev":1529,"peak_lon":102.06339356240142,"peak_lat":4.846186379003789,"base_elev":258,"distance_m":2269.4,"vertical_relief_m":1271.0,"max_jut":621.4503,"search_radius_m":3750,"elev_angle_deg":29.2514}},{"type":"Feature","geometry":{"type":"Point","coordinates":[110.44332769031035,0.8978212107132558]},"properties":{"peak_name":"Gunung Rawan","local_name":"Gunung Rawan","english_name":"Gunung Rawan","search_name":"Gunung Rawan Gunung Rawan Gunung Rawan Gunung Rawan","peak_elev":907,"peak_lon":110.44629213074796,"peak_lat":0.906984026611275,"base_elev":262,"distance_m":1065.5,"vertical_relief_m":645.0,"max_jut":332.7958,"search_radius_m":2250,"elev_angle_deg":31.1886}},{"type":"Feature","geometry":{"type":"Point","coordinates":[99.80907135690347,6.374220677291095]},"properties":{"peak_name":"Gunung Raya","local_name":"Gunung Raya","english_name":"Gunung Raya","search_name":"Gunung Raya Gunung Raya Gunung Raya Gunung Raya","peak_elev":873,"peak_lon":99.81877316197196,"peak_lat":6.369100280171614,"base_elev":245,"distance_m":1213.6,"vertical_relief_m":628.0,"max_jut":288.5544,"search_radius_m":2750,"elev_angle_deg":27.3601}},{"type":"Feature","geometry":{"type":"Point","coordinates":[102.428558725396,5.389487462839275]},"properties":{"peak_name":"Gunung Rek","local_name":"Gunung Rek","english_name":"Gunung Rek","search_name":"Gunung Rek Gunung Rek Gunung Rek Gunung Rek","peak_elev":1311,"peak_lon":102.42074338242416,"peak_lat":5.391643419521163,"base_elev":587,"distance_m":898.4,"vertical_relief_m":724.0,"max_jut":454.4864,"search_radius_m":2250,"elev_angle_deg":38.8645}},{"type":"Feature","geometry":{"type":"Point","coordinates":[110.3352603616308,1.7216661577792691]},"properties":{"peak_name":"Gunung Santubong","local_name":"Gunung Santubong","english_name":"Gunung Santubong","search_name":"Gunung Santubong Gunung Santubong Gunung Santubong Gunung Santubong","peak_elev":840,"peak_lon":110.33283491036369,"peak_lat":1.7354103816262978,"base_elev":45,"distance_m":1543.5,"vertical_relief_m":795.0,"max_jut":362.4698,"search_radius_m":2250,"elev_angle_deg":27.2513}},{"type":"Feature","geometry":{"type":"Point","coordinates":[102.71179753447888,5.366580423094228]},"properties":{"peak_name":"Gunung Sarut","local_name":"Gunung Sarut","english_name":"Gunung Sarut","search_name":"Gunung Sarut Gunung Sarut Gunung Sarut Gunung Sarut","peak_elev":1215,"peak_lon":102.72257731788832,"peak_lat":5.331815621598802,"base_elev":87,"distance_m":4025.8,"vertical_relief_m":1128.0,"max_jut":302.9472,"search_radius_m":5500,"elev_angle_deg":15.6525}},{"type":"Feature","geometry":{"type":"Point","coordinates":[110.58912426092296,1.0977861929582613]},"properties":{"peak_name":"Gunung Semuja Tamiang","local_name":"Gunung Semuja Tamiang","english_name":"Gunung Semuja Tamiang","search_name":"Gunung Semuja Tamiang Gunung Semuja Tamiang Gunung Semuja Tamiang Gunung Semuja Tamiang","peak_elev":785,"peak_lon":110.57996144502496,"peak_lat":1.1128778897314693,"base_elev":60,"distance_m":1955.7,"vertical_relief_m":725.0,"max_jut":251.1707,"search_radius_m":4250,"elev_angle_deg":20.3403}},{"type":"Feature","geometry":{"type":"Point","coordinates":[110.20347750945048,1.5764085763371425]},"properties":{"peak_name":"Gunung Serapi","local_name":"Gunung Serapi","english_name":"Gunung Serapi","search_name":"Gunung Serapi Gunung Serapi Gunung Serapi Gunung Serapi","peak_elev":902,"peak_lon":110.19377570438198,"peak_lat":1.5844934138942182,"base_elev":179,"distance_m":1401.7,"vertical_relief_m":723.0,"max_jut":331.0123,"search_radius_m":2750,"elev_angle_deg":27.2848}},{"type":"Feature","geometry":{"type":"Point","coordinates":[117.12328997455155,4.495034934441468]},"properties":{"peak_name":"Gunung Serudong","local_name":"Gunung Serudong","english_name":"Gunung Serudong","search_name":"Gunung Serudong Gunung Serudong Gunung Serudong Gunung Serudong","peak_elev":1489,"peak_lon":117.1057728265112,"peak_lat":4.481560205179675,"base_elev":728,"distance_m":2449.4,"vertical_relief_m":761.0,"max_jut":225.5094,"search_radius_m":9750,"elev_angle_deg":17.2594}},{"type":"Feature","geometry":{"type":"Point","coordinates":[102.25446522333364,4.6823336711803885]},"properties":{"peak_name":"Gunung Tahan","local_name":"Gunung Tahan","english_name":"Gunung Tahan","search_name":"Gunung Tahan Gunung Tahan Gunung Tahan Gunung Tahan","peak_elev":2181,"peak_lon":102.23452262402618,"peak_lat":4.632746667496991,"base_elev":268,"distance_m":5913.0,"vertical_relief_m":1913.0,"max_jut":586.3978,"search_radius_m":11000,"elev_angle_deg":17.9277}},{"type":"Feature","geometry":{"type":"Point","coordinates":[116.68913419773658,6.228693601263733]},"properties":{"peak_name":"Gunung Tambuyukon","local_name":"Gunung Tambuyukon","english_name":"Gunung Tambuyukon","search_name":"Gunung Tambuyukon Gunung Tambuyukon Gunung Tambuyukon Gunung Tambuyukon","peak_elev":2575,"peak_lon":116.65948979336063,"peak_lat":6.203900099422034,"base_elev":840,"distance_m":4275.6,"vertical_relief_m":1735.0,"max_jut":651.4855,"search_radius_m":9250,"elev_angle_deg":22.0869}},{"type":"Feature","geometry":{"type":"Point","coordinates":[102.92254230013332,4.023688904863955]},"properties":{"peak_name":"Gunung Tapis","local_name":"Gunung Tapis","english_name":"Gunung Tapis","search_name":"Gunung Tapis Gunung Tapis Gunung Tapis Gunung Tapis","peak_elev":1500,"peak_lon":102.91014554921249,"peak_lat":4.012370132284049,"base_elev":494,"distance_m":1860.5,"vertical_relief_m":1006.0,"max_jut":477.7731,"search_radius_m":4000,"elev_angle_deg":28.4007}},{"type":"Feature","geometry":{"type":"Point","coordinates":[102.09222948302164,2.8796843905377445]},"properties":{"peak_name":"Gunung Telapak Buruk","local_name":"Gunung Telapak Buruk","english_name":"Gunung Telapak Buruk","search_name":"Gunung Telapak Buruk Gunung Telapak Buruk Gunung Telapak Buruk Gunung Telapak Buruk","peak_elev":1186,"peak_lon":102.06878345410614,"peak_lat":2.840877170263781,"base_elev":218,"distance_m":5020.8,"vertical_relief_m":968.0,"max_jut":182.5831,"search_radius_m":9500,"elev_angle_deg":10.9126}},{"type":"Feature","geometry":{"type":"Point","coordinates":[114.26098798476151,3.409780239696674]},"properties":{"peak_name":"Gunung Temadoh","local_name":"Gunung Temadoh","english_name":"Gunung Temadoh","search_name":"Gunung Temadoh Gunung Temadoh Gunung Temadoh Gunung Temadoh","peak_elev":977,"peak_lon":114.25586758764204,"peak_lat":3.397113994190589,"base_elev":253,"distance_m":1511.8,"vertical_relief_m":724.0,"max_jut":311.5427,"search_radius_m":4000,"elev_angle_deg":25.5897}},{"type":"Feature","geometry":{"type":"Point","coordinates":[102.85355168631295,4.760487100898787]},"properties":{"peak_name":"Gunung Teranu Indah Abadi","local_name":"Gunung Teranu Indah Abadi","english_name":"Gunung Teranu Indah Abadi","search_name":"Gunung Teranu Indah Abadi Gunung Teranu Indah Abadi Gunung Teranu Indah Abadi Gunung Teranu Indah Abadi","peak_elev":1560,"peak_lon":102.87214681269424,"peak_lat":4.733268147789965,"base_elev":490,"distance_m":3649.0,"vertical_relief_m":1070.0,"max_jut":300.1333,"search_radius_m":5750,"elev_angle_deg":16.3428}},{"type":"Feature","geometry":{"type":"Point","coordinates":[114.37983509685051,3.3391726583648795]},"properties":{"peak_name":"Gunung Tinjar","local_name":"Gunung Tinjar","english_name":"Gunung Tinjar","search_name":"Gunung Tinjar Gunung Tinjar Gunung Tinjar Gunung Tinjar","peak_elev":1111,"peak_lon":114.36258744339544,"peak_lat":3.33459125041587,"base_elev":243,"distance_m":1982.6,"vertical_relief_m":868.0,"max_jut":348.3205,"search_radius_m":3750,"elev_angle_deg":23.6442}},{"type":"Feature","geometry":{"type":"Point","coordinates":[116.5382172300045,5.521809304190081]},"properties":{"peak_name":"Gunung Trusmadi","local_name":"Gunung Trusmadi","english_name":"Gunung Trusmadi","search_name":"Gunung Trusmadi Gunung Trusmadi Gunung Trusmadi Gunung Trusmadi","peak_elev":2634,"peak_lon":116.51396271733329,"peak_lat":5.551992697736497,"base_elev":898,"distance_m":4285.2,"vertical_relief_m":1736.0,"max_jut":650.1976,"search_radius_m":6250,"elev_angle_deg":22.0536}},{"type":"Feature","geometry":{"type":"Point","coordinates":[102.22805475398052,3.866304067086215]},"properties":{"peak_name":"Gunung Tungku","local_name":"Gunung Tungku","english_name":"Gunung Tungku","search_name":"Gunung Tungku Gunung Tungku Gunung Tungku Gunung Tungku","peak_elev":932,"peak_lon":102.247997353288,"peak_lat":3.865495583330507,"base_elev":154,"distance_m":2216.8,"vertical_relief_m":778.0,"max_jut":257.8972,"search_radius_m":3250,"elev_angle_deg":19.3388}},{"type":"Feature","geometry":{"type":"Point","coordinates":[102.90772009794536,4.314473562333444]},"properties":{"peak_name":"Gunung Ulu Bakar / Palas","local_name":"Gunung Ulu Bakar / Palas","english_name":"Gunung Ulu Bakar / Palas","search_name":"Gunung Ulu Bakar / Palas Gunung Ulu Bakar / Palas Gunung Ulu Bakar / Palas Gunung Ulu Bakar / Palas","peak_elev":1386,"peak_lon":102.9171524084286,"peak_lat":4.302885295168302,"base_elev":667,"distance_m":1654.8,"vertical_relief_m":719.0,"max_jut":285.8285,"search_radius_m":7500,"elev_angle_deg":23.4846}},{"type":"Feature","geometry":{"type":"Point","coordinates":[101.72329139583375,3.4504739220672884]},"properties":{"peak_name":"Gunung Ulu Kali","local_name":"Gunung Ulu Kali","english_name":"Gunung Ulu Kali","search_name":"Gunung Ulu Kali Gunung Ulu Kali Gunung Ulu Kali Gunung Ulu Kali","peak_elev":1805,"peak_lon":101.7844666666823,"peak_lat":3.435651719879316,"base_elev":145,"distance_m":6992.6,"vertical_relief_m":1660.0,"max_jut":383.6923,"search_radius_m":12000,"elev_angle_deg":13.3545}},{"type":"Feature","geometry":{"type":"Point","coordinates":[101.44193904884752,5.136971036473279]},"properties":{"peak_name":"Gunung Ulu Sepat","local_name":"Gunung Ulu Sepat","english_name":"Gunung Ulu Sepat","search_name":"Gunung Ulu Sepat Gunung Ulu Sepat Gunung Ulu Sepat Gunung Ulu Sepat","peak_elev":2156,"peak_lon":101.4831717203886,"peak_lat":5.140204971496108,"base_elev":821,"distance_m":4585.6,"vertical_relief_m":1335.0,"max_jut":373.5428,"search_radius_m":8250,"elev_angle_deg":16.2318}},{"type":"Feature","geometry":{"type":"Point","coordinates":[101.10668778481411,5.11864540467724]},"properties":{"peak_name":"Gunung Ulu Soh","local_name":"Gunung Ulu Soh","english_name":"Gunung Ulu Soh","search_name":"Gunung Ulu Soh Gunung Ulu Soh Gunung Ulu Soh Gunung Ulu Soh","peak_elev":1324,"peak_lon":101.09779446350134,"peak_lat":5.083072119426107,"base_elev":233,"distance_m":4055.5,"vertical_relief_m":1091.0,"max_jut":282.0679,"search_radius_m":8000,"elev_angle_deg":15.0571}},{"type":"Feature","geometry":{"type":"Point","coordinates":[101.3055747887182,5.79049540567023]},"properties":{"peak_name":"Gunung Ulu Titi Basah","local_name":"Gunung Ulu Titi Basah","english_name":"Gunung Ulu Titi Basah","search_name":"Gunung Ulu Titi Basah Gunung Ulu Titi Basah Gunung Ulu Titi Basah Gunung Ulu Titi Basah","peak_elev":1511,"peak_lon":101.30746125081484,"peak_lat":5.804509124102495,"base_elev":769,"distance_m":1563.7,"vertical_relief_m":742.0,"max_jut":316.6949,"search_radius_m":4750,"elev_angle_deg":25.3851}},{"type":"Feature","geometry":{"type":"Point","coordinates":[115.03228148770654,2.814197206325431]},"properties":{"peak_name":"Gunung Unyok Tapang","local_name":"Gunung Unyok Tapang","english_name":"Gunung Unyok Tapang","search_name":"Gunung Unyok Tapang Gunung Unyok Tapang Gunung Unyok Tapang Gunung Unyok Tapang","peak_elev":2001,"peak_lon":115.08321596431612,"peak_lat":2.816622657592554,"base_elev":685,"distance_m":5669.5,"vertical_relief_m":1316.0,"max_jut":297.8701,"search_radius_m":6000,"elev_angle_deg":13.068}},{"type":"Feature","geometry":{"type":"Point","coordinates":[116.3676271575502,5.868379340803393]},"properties":{"peak_name":"Minduk Sirung","local_name":"Minduk Sirung","english_name":"Minduk Sirung","search_name":"Minduk Sirung Minduk Sirung Minduk Sirung Minduk Sirung","peak_elev":2079,"peak_lon":116.37301704925493,"peak_lat":5.818253347949523,"base_elev":739,"distance_m":5575.2,"vertical_relief_m":1340.0,"max_jut":311.5471,"search_radius_m":12500,"elev_angle_deg":13.5147}},{"type":"Feature","geometry":{"type":"Point","coordinates":[114.7253271551229,3.222212008372518]},"properties":{"peak_name":"Mudung Keluan","local_name":"Mudung Keluan","english_name":"Mudung Keluan","search_name":"Mudung Keluan Mudung Keluan Mudung Keluan Mudung Keluan","peak_elev":1547,"peak_lon":114.72721361721956,"peak_lat":3.2284103838329425,"base_elev":800,"distance_m":716.7,"vertical_relief_m":747.0,"max_jut":537.7152,"search_radius_m":4750,"elev_angle_deg":46.1859}},{"type":"Feature","geometry":{"type":"Point","coordinates":[100.24349662830367,5.448237282420692]},"properties":{"peak_name":"Western Hill","local_name":"Western Hill","english_name":"Western Hill","search_name":"Western Hill Western Hill Western Hill Western Hill","peak_elev":825,"peak_lon":100.25238994961646,"peak_lat":5.426677715601824,"base_elev":129,"distance_m":2579.8,"vertical_relief_m":696.0,"max_jut":180.5225,"search_radius_m":7000,"elev_angle_deg":15.0983}}]}