{"type":"FeatureCollection","features":[{"type":"Feature","geometry":{"type":"Point","coordinates":[119.00624864159448,40.79406910361468]},"properties":{"peak_name":"1002无名峰","peak_elev":1002,"peak_lon":118.999242,"peak_lat":40.798112,"base_elev":579,"distance_m":742.4,"vertical_relief_m":423.0,"max_jut":209.5813,"search_radius_m":1500,"elev_angle_deg":29.6734}},{"type":"Feature","geometry":{"type":"Point","coordinates":[118.9935823960884,40.83341531305912]},"properties":{"peak_name":"1005无名峰","peak_elev":1005,"peak_lon":119.004093,"peak_lat":40.82559967041016,"base_elev":529,"distance_m":1240.7,"vertical_relief_m":476.0,"max_jut":170.596,"search_radius_m":1375,"elev_angle_deg":20.9895}},{"type":"Feature","geometry":{"type":"Point","coordinates":[119.89153835409428,40.7948775873704]},"properties":{"peak_name":"小猴山1012","peak_elev":1012,"peak_lon":119.902857,"peak_lat":40.794608,"base_elev":552,"distance_m":955.7,"vertical_relief_m":460.0,"max_jut":199.9118,"search_radius_m":1250,"elev_angle_deg":25.7026}},{"type":"Feature","geometry":{"type":"Point","coordinates":[119.39324286599316,40.13434635895731]},"properties":{"peak_name":"1016无名峰","peak_elev":1016,"peak_lon":119.391895,"peak_lat":40.135694,"base_elev":754,"distance_m":188.6,"vertical_relief_m":262.0,"max_jut":212.6225,"search_radius_m":375,"elev_angle_deg":54.2519}},{"type":"Feature","geometry":{"type":"Point","coordinates":[119.46654539317731,40.1335378752016]},"properties":{"peak_name":"1018无名峰","peak_elev":1018,"peak_lon":119.461694,"peak_lat":40.14054489135742,"base_elev":399,"distance_m":881.1,"vertical_relief_m":619.0,"max_jut":355.711,"search_radius_m":1000,"elev_angle_deg":35.0892}},{"type":"Feature","geometry":{"type":"Point","coordinates":[120.044341783923,41.157078309927385]},"properties":{"peak_name":"大铁山1022","peak_elev":1022,"peak_lon":120.040299,"peak_lat":41.161525,"base_elev":699,"distance_m":599.2,"vertical_relief_m":323.0,"max_jut":153.2678,"search_radius_m":1875,"elev_angle_deg":28.327}},{"type":"Feature","geometry":{"type":"Point","coordinates":[119.06904087995444,41.177020909234834]},"properties":{"peak_name":"1025无名峰","peak_elev":1025,"peak_lon":119.068771,"peak_lat":41.180524,"base_elev":747,"distance_m":389.7,"vertical_relief_m":278.0,"max_jut":161.3151,"search_radius_m":500,"elev_angle_deg":35.5029}},{"type":"Feature","geometry":{"type":"Point","coordinates":[118.38317716052916,40.66309473519006]},"properties":{"peak_name":"1034无名峰","peak_elev":1034,"peak_lon":118.381291,"peak_lat":40.656088,"base_elev":610,"distance_m":794.3,"vertical_relief_m":424.0,"max_jut":199.4915,"search_radius_m":1250,"elev_angle_deg":28.0934}},{"type":"Feature","geometry":{"type":"Point","coordinates":[119.98370550224492,40.83152885096247]},"properties":{"peak_name":"1041无名峰","peak_elev":1041,"peak_lon":119.941934,"peak_lat":40.81805419921875,"base_elev":284,"distance_m":3828.3,"vertical_relief_m":757.0,"max_jut":147.1096,"search_radius_m":7500,"elev_angle_deg":11.1853}},{"type":"Feature","geometry":{"type":"Point","coordinates":[119.97238672966502,40.80673534912077]},"properties":{"peak_name":"1057无名峰","peak_elev":1057,"peak_lon":119.955409,"peak_lat":40.808082580566406,"base_elev":517,"distance_m":1440.4,"vertical_relief_m":540.0,"max_jut":189.9836,"search_radius_m":6750,"elev_angle_deg":20.5508}},{"type":"Feature","geometry":{"type":"Point","coordinates":[119.92226073681115,40.80377090868318]},"properties":{"peak_name":"1061无名峰","peak_elev":1061,"peak_lon":119.933849,"peak_lat":40.8110466003418,"base_elev":566,"distance_m":1268.4,"vertical_relief_m":495.0,"max_jut":180.1125,"search_radius_m":7750,"elev_angle_deg":21.3185}},{"type":"Feature","geometry":{"type":"Point","coordinates":[118.87850820819268,40.77547397723341]},"properties":{"peak_name":"1062无名峰","peak_elev":1062,"peak_lon":118.88282012939452,"peak_lat":40.775203704833984,"base_elev":805,"distance_m":365.2,"vertical_relief_m":257.0,"max_jut":148.1409,"search_radius_m":1000,"elev_angle_deg":35.135}},{"type":"Feature","geometry":{"type":"Point","coordinates":[118.31095261168596,40.72858191940237]},"properties":{"peak_name":"1065无名峰","peak_elev":1065,"peak_lon":118.305697,"peak_lat":40.730468,"base_elev":676,"distance_m":490.9,"vertical_relief_m":389.0,"max_jut":241.8677,"search_radius_m":500,"elev_angle_deg":38.3941}},{"type":"Feature","geometry":{"type":"Point","coordinates":[118.262982575514,40.72561747896478]},"properties":{"peak_name":"1066无名峰","peak_elev":1066,"peak_lon":118.269181,"peak_lat":40.724001,"base_elev":693,"distance_m":553.6,"vertical_relief_m":373.0,"max_jut":208.7323,"search_radius_m":750,"elev_angle_deg":33.971}},{"type":"Feature","geometry":{"type":"Point","coordinates":[119.97265622425026,40.84419509646855]},"properties":{"peak_name":"1072无名峰","peak_elev":1072,"peak_lon":119.93600463867188,"peak_lat":40.823175,"base_elev":287,"distance_m":3873.7,"vertical_relief_m":785.0,"max_jut":156.0659,"search_radius_m":7250,"elev_angle_deg":11.4558}},{"type":"Feature","geometry":{"type":"Point","coordinates":[118.1683899760962,40.61431621526237]},"properties":{"peak_name":"1079无名峰","peak_elev":1079,"peak_lon":118.176744,"peak_lat":40.622671,"base_elev":288,"distance_m":1166.4,"vertical_relief_m":791.0,"max_jut":443.9957,"search_radius_m":1875,"elev_angle_deg":34.1434}},{"type":"Feature","geometry":{"type":"Point","coordinates":[119.65842553786526,40.50840484326468]},"properties":{"peak_name":"1080无名峰","peak_elev":1080,"peak_lon":119.651149,"peak_lat":40.504632,"base_elev":648,"distance_m":745.6,"vertical_relief_m":432.0,"max_jut":216.7837,"search_radius_m":1125,"elev_angle_deg":30.088}},{"type":"Feature","geometry":{"type":"Point","coordinates":[119.61045550169328,40.27583101620613]},"properties":{"peak_name":"1081无名峰","peak_elev":1081,"peak_lon":119.584584,"peak_lat":40.276101,"base_elev":347,"distance_m":2200.6,"vertical_relief_m":734.0,"max_jut":232.7761,"search_radius_m":2750,"elev_angle_deg":18.4459}},{"type":"Feature","geometry":{"type":"Point","coordinates":[118.28696759359998,40.722383543941945]},"properties":{"peak_name":"1084无名峰","peak_elev":1084,"peak_lon":118.283464,"peak_lat":40.724809,"base_elev":689,"distance_m":400.2,"vertical_relief_m":395.0,"max_jut":277.5859,"search_radius_m":625,"elev_angle_deg":44.6253}},{"type":"Feature","geometry":{"type":"Point","coordinates":[118.29208799071944,40.71888011433388]},"properties":{"peak_name":"1086无名峰","peak_elev":1086,"peak_lon":118.291818,"peak_lat":40.725348,"base_elev":585,"distance_m":718.6,"vertical_relief_m":501.0,"max_jut":286.2725,"search_radius_m":750,"elev_angle_deg":34.8838}},{"type":"Feature","geometry":{"type":"Point","coordinates":[118.28804557194093,40.74825502412459]},"properties":{"peak_name":"1087无名峰","peak_elev":1087,"peak_lon":118.296804,"peak_lat":40.73639678955078,"base_elev":508,"distance_m":1510.4,"vertical_relief_m":579.0,"max_jut":207.1745,"search_radius_m":2500,"elev_angle_deg":20.9739}},{"type":"Feature","geometry":{"type":"Point","coordinates":[119.46843185527398,40.07101513142688]},"properties":{"peak_name":"1088无名峰(2)","peak_elev":1088,"peak_lon":119.457652,"peak_lat":40.090149,"base_elev":254,"distance_m":2315.0,"vertical_relief_m":834.0,"max_jut":282.4778,"search_radius_m":4000,"elev_angle_deg":19.812}},{"type":"Feature","geometry":{"type":"Point","coordinates":[118.02771380260307,40.671179572747135]},"properties":{"peak_name":"1098无名峰","peak_elev":1098,"peak_lon":118.034047,"peak_lat":40.68169021606445,"base_elev":272,"distance_m":1284.1,"vertical_relief_m":826.0,"max_jut":446.6477,"search_radius_m":1500,"elev_angle_deg":32.7512}},{"type":"Feature","geometry":{"type":"Point","coordinates":[118.28481163691808,40.73639726237421]},"properties":{"peak_name":"1105无名峰","peak_elev":1105,"peak_lon":118.289124,"peak_lat":40.73262405395508,"base_elev":707,"distance_m":555.2,"vertical_relief_m":398.0,"max_jut":231.93,"search_radius_m":750,"elev_angle_deg":35.6352}},{"type":"Feature","geometry":{"type":"Point","coordinates":[119.5888959348744,40.304936431411605]},"properties":{"peak_name":"1110无名峰","peak_elev":1110,"peak_lon":119.57595825195312,"peak_lat":40.307092,"base_elev":591,"distance_m":1125.6,"vertical_relief_m":519.0,"max_jut":217.7399,"search_radius_m":1750,"elev_angle_deg":24.7538}},{"type":"Feature","geometry":{"type":"Point","coordinates":[119.64818474362627,40.44291765905236]},"properties":{"peak_name":"1122无名峰","peak_elev":1122,"peak_lon":119.634441,"peak_lat":40.438471,"base_elev":561,"distance_m":1266.3,"vertical_relief_m":561.0,"max_jut":227.599,"search_radius_m":1500,"elev_angle_deg":23.8944}},{"type":"Feature","geometry":{"type":"Point","coordinates":[118.07110243082606,41.08108083689087]},"properties":{"peak_name":"1123无名峰(1)","peak_elev":1123,"peak_lon":118.081613,"peak_lat":41.087279,"base_elev":659,"distance_m":1119.7,"vertical_relief_m":464.0,"max_jut":177.8006,"search_radius_m":2750,"elev_angle_deg":22.509}},{"type":"Feature","geometry":{"type":"Point","coordinates":[118.0810737304798,40.58925321883543]},"properties":{"peak_name":"1133无名峰","peak_elev":1133,"peak_lon":118.095357,"peak_lat":40.579012,"base_elev":469,"distance_m":1660.0,"vertical_relief_m":664.0,"max_jut":246.7464,"search_radius_m":2750,"elev_angle_deg":21.8014}},{"type":"Feature","geometry":{"type":"Point","coordinates":[118.08942806262208,40.600571991415336]},"properties":{"peak_name":"1139无名峰","peak_elev":1139,"peak_lon":118.102633,"peak_lat":40.582246,"base_elev":380,"distance_m":2321.8,"vertical_relief_m":759.0,"max_jut":235.7329,"search_radius_m":2750,"elev_angle_deg":18.1026}},{"type":"Feature","geometry":{"type":"Point","coordinates":[119.62932012265978,40.4259395001825]},"properties":{"peak_name":"冰沟大顶1145","peak_elev":1145,"peak_lon":119.637944,"peak_lat":40.433485,"base_elev":585,"distance_m":1112.5,"vertical_relief_m":560.0,"max_jut":251.8644,"search_radius_m":1750,"elev_angle_deg":26.7193}},{"type":"Feature","geometry":{"type":"Point","coordinates":[118.205849723444,40.70971729843586]},"properties":{"peak_name":"1146无名峰","peak_elev":1146,"peak_lon":118.203963,"peak_lat":40.714029,"base_elev":638,"distance_m":504.7,"vertical_relief_m":508.0,"max_jut":360.2289,"search_radius_m":1000,"elev_angle_deg":45.1867}},{"type":"Feature","geometry":{"type":"Point","coordinates":[119.429624635,40.07020664767117]},"properties":{"peak_name":"1154无名峰","peak_elev":1154,"peak_lon":119.429625,"peak_lat":40.10065841674805,"base_elev":308,"distance_m":3381.3,"vertical_relief_m":846.0,"max_jut":205.0664,"search_radius_m":10000,"elev_angle_deg":14.047}},{"type":"Feature","geometry":{"type":"Point","coordinates":[118.28885405569665,40.78760123356902]},"properties":{"peak_name":"1169无名峰","peak_elev":1169,"peak_lon":118.293974,"peak_lat":40.802693,"base_elev":415,"distance_m":1730.8,"vertical_relief_m":754.0,"max_jut":300.876,"search_radius_m":2250,"elev_angle_deg":23.5397}},{"type":"Feature","geometry":{"type":"Point","coordinates":[119.3905479201408,40.09661711702429]},"properties":{"peak_name":"1203无名峰","peak_elev":1203,"peak_lon":119.396746,"peak_lat":40.108071,"base_elev":482,"distance_m":1377.2,"vertical_relief_m":721.0,"max_jut":334.1813,"search_radius_m":2000,"elev_angle_deg":27.6332}},{"type":"Feature","geometry":{"type":"Point","coordinates":[118.21986344187624,40.71241224428822]},"properties":{"peak_name":"北砬子山东峰1204","peak_elev":1204,"peak_lon":118.217168,"peak_lat":40.716185,"base_elev":735,"distance_m":476.9,"vertical_relief_m":469.0,"max_jut":328.7918,"search_radius_m":1125,"elev_angle_deg":44.5215}},{"type":"Feature","geometry":{"type":"Point","coordinates":[118.32281037343634,40.79164365234756]},"properties":{"peak_name":"1220无名峰(2)","peak_elev":1220,"peak_lon":118.314187,"peak_lat":40.801076,"base_elev":528,"distance_m":1275.5,"vertical_relief_m":692.0,"max_jut":329.9947,"search_radius_m":3000,"elev_angle_deg":28.4813}},{"type":"Feature","geometry":{"type":"Point","coordinates":[118.32685279221488,40.73127686525473]},"properties":{"peak_name":"1222无名峰","peak_elev":1222,"peak_lon":118.329278,"peak_lat":40.738014221191406,"base_elev":699,"distance_m":775.7,"vertical_relief_m":523.0,"max_jut":292.1611,"search_radius_m":2500,"elev_angle_deg":33.989}},{"type":"Feature","geometry":{"type":"Point","coordinates":[118.37482282838688,40.67037108899142]},"properties":{"peak_name":"1231无名峰","peak_elev":1231,"peak_lon":118.370511,"peak_lat":40.678995,"base_elev":748,"distance_m":1024.7,"vertical_relief_m":483.0,"max_jut":205.7944,"search_radius_m":2250,"elev_angle_deg":25.2372}},{"type":"Feature","geometry":{"type":"Point","coordinates":[118.55268925464252,41.1902261439114]},"properties":{"peak_name":"1254无名峰","peak_elev":1254,"peak_lon":118.553498,"peak_lat":41.196694,"base_elev":954,"distance_m":721.5,"vertical_relief_m":300.0,"max_jut":115.0619,"search_radius_m":1750,"elev_angle_deg":22.5776}},{"type":"Feature","geometry":{"type":"Point","coordinates":[118.75750513942178,40.77951639601195]},"properties":{"peak_name":"1264无名峰","peak_elev":1264,"peak_lon":118.746456,"peak_lat":40.785176,"base_elev":782,"distance_m":1124.7,"vertical_relief_m":482.0,"max_jut":190.0884,"search_radius_m":2250,"elev_angle_deg":23.198}},{"type":"Feature","geometry":{"type":"Point","coordinates":[119.36683239664004,40.125183543059286]},"properties":{"peak_name":"1266无名峰","peak_elev":1266,"peak_lon":119.398363,"peak_lat":40.11629104614258,"base_elev":357,"distance_m":2863.4,"vertical_relief_m":909.0,"max_jut":275.5362,"search_radius_m":3250,"elev_angle_deg":17.6123}},{"type":"Feature","geometry":{"type":"Point","coordinates":[118.11476055363428,41.0729959993338]},"properties":{"peak_name":"1274无名峰","peak_elev":1274,"peak_lon":118.104248046875,"peak_lat":41.08134841918945,"base_elev":688,"distance_m":1281.0,"vertical_relief_m":586.0,"max_jut":243.8971,"search_radius_m":3250,"elev_angle_deg":24.582}},{"type":"Feature","geometry":{"type":"Point","coordinates":[119.44741127762558,40.166416214600375]},"properties":{"peak_name":"1285无名峰","peak_elev":1285,"peak_lon":119.433667,"peak_lat":40.14512634277344,"base_elev":376,"distance_m":2638.1,"vertical_relief_m":909.0,"max_jut":295.9449,"search_radius_m":5000,"elev_angle_deg":19.0122}},{"type":"Feature","geometry":{"type":"Point","coordinates":[118.02124593255742,40.486845276445806]},"properties":{"peak_name":"1321无名峰","peak_elev":1321,"peak_lon":118.005076,"peak_lat":40.492235,"base_elev":569,"distance_m":1495.9,"vertical_relief_m":752.0,"max_jut":338.2916,"search_radius_m":2500,"elev_angle_deg":26.689}},{"type":"Feature","geometry":{"type":"Point","coordinates":[119.4611555014726,40.130573434764]},"properties":{"peak_name":"1339无名峰","peak_elev":1339,"peak_lon":119.418306,"peak_lat":40.138119,"base_elev":370,"distance_m":3746.8,"vertical_relief_m":969.0,"max_jut":243.161,"search_radius_m":10000,"elev_angle_deg":14.5002}},{"type":"Feature","geometry":{"type":"Point","coordinates":[118.7515762585466,40.50517090824184]},"properties":{"peak_name":"1405无名峰","peak_elev":1405,"peak_lon":118.772597,"peak_lat":40.51460266113281,"base_elev":777,"distance_m":2066.7,"vertical_relief_m":628.0,"max_jut":182.8525,"search_radius_m":10000,"elev_angle_deg":16.9022}},{"type":"Feature","geometry":{"type":"Point","coordinates":[118.78741903838296,40.46690267713836]},"properties":{"peak_name":"1438无名峰","peak_elev":1438,"peak_lon":118.766398,"peak_lat":40.478221,"base_elev":606,"distance_m":2181.1,"vertical_relief_m":832.0,"max_jut":296.8611,"search_radius_m":2250,"elev_angle_deg":20.8798}},{"type":"Feature","geometry":{"type":"Point","coordinates":[118.8410484608449,40.51541170248081]},"properties":{"peak_name":"1445无名峰","peak_elev":1445,"peak_lon":118.842665,"peak_lat":40.525114,"base_elev":942,"distance_m":1086.1,"vertical_relief_m":503.0,"max_jut":211.1647,"search_radius_m":1125,"elev_angle_deg":24.85}},{"type":"Feature","geometry":{"type":"Point","coordinates":[118.87850820819268,40.5032844461452]},"properties":{"peak_name":"1467无名峰","peak_elev":1467,"peak_lon":118.863821,"peak_lat":40.516759,"base_elev":739,"distance_m":1946.4,"vertical_relief_m":728.0,"max_jut":255.0974,"search_radius_m":2750,"elev_angle_deg":20.507}},{"type":"Feature","geometry":{"type":"Point","coordinates":[118.84751633089056,40.54640357978293]},"properties":{"peak_name":"1534无名峰","peak_elev":1534,"peak_lon":118.849942,"peak_lat":40.527808,"base_elev":798,"distance_m":2075.2,"vertical_relief_m":736.0,"max_jut":245.7372,"search_radius_m":2500,"elev_angle_deg":19.5278}},{"type":"Feature","geometry":{"type":"Point","coordinates":[118.4171334782689,41.11395917628965]},"properties":{"peak_name":"1554无名峰","peak_elev":1554,"peak_lon":118.465912,"peak_lat":41.107087,"base_elev":755,"distance_m":4167.6,"vertical_relief_m":799.0,"max_jut":150.7891,"search_radius_m":6500,"elev_angle_deg":10.8529}},{"type":"Feature","geometry":{"type":"Point","coordinates":[118.78984448965008,40.47390953635448]},"properties":{"peak_name":"1561无名峰","peak_elev":1561,"peak_lon":118.794965,"peak_lat":40.48792266845703,"base_elev":771,"distance_m":1615.5,"vertical_relief_m":790.0,"max_jut":346.7451,"search_radius_m":1625,"elev_angle_deg":26.0592}},{"type":"Feature","geometry":{"type":"Point","coordinates":[118.78714954379772,40.46932812840548]},"properties":{"peak_name":"1647无名峰","peak_elev":1647,"peak_lon":118.786072,"peak_lat":40.490888,"base_elev":643,"distance_m":2395.9,"vertical_relief_m":1004.0,"max_jut":387.5953,"search_radius_m":9750,"elev_angle_deg":22.7361}},{"type":"Feature","geometry":{"type":"Point","coordinates":[118.7893055004796,40.46555520421217]},"properties":{"peak_name":"1672无名峰","peak_elev":1672,"peak_lon":118.786072,"peak_lat":40.500859,"base_elev":573,"distance_m":3929.9,"vertical_relief_m":1099.0,"max_jut":295.617,"search_radius_m":10000,"elev_angle_deg":15.6237}},{"type":"Feature","geometry":{"type":"Point","coordinates":[118.82353131280456,40.55556639568095]},"properties":{"peak_name":"1688无名峰","peak_elev":1688,"peak_lon":118.814907,"peak_lat":40.530503,"base_elev":803,"distance_m":2877.5,"vertical_relief_m":885.0,"max_jut":259.9019,"search_radius_m":5250,"elev_angle_deg":17.0957}},{"type":"Feature","geometry":{"type":"Point","coordinates":[119.12132282949018,39.875092567960415]},"properties":{"peak_name":"天台山528","peak_elev":528,"peak_lon":119.127521,"peak_lat":39.871589,"base_elev":123,"distance_m":657.7,"vertical_relief_m":405.0,"max_jut":212.5382,"search_radius_m":750,"elev_angle_deg":31.624}},{"type":"Feature","geometry":{"type":"Point","coordinates":[119.0989547789156,40.19606061897632]},"properties":{"peak_name":"影午山566","peak_elev":566,"peak_lon":119.099763,"peak_lat":40.190401,"base_elev":135,"distance_m":632.2,"vertical_relief_m":431.0,"max_jut":242.5568,"search_radius_m":1000,"elev_angle_deg":34.2841}},{"type":"Feature","geometry":{"type":"Point","coordinates":[119.75921651274346,40.20441495111863]},"properties":{"peak_name":"575无名峰","peak_elev":575,"peak_lon":119.761642,"peak_lat":40.208188,"base_elev":249,"distance_m":467.1,"vertical_relief_m":326.0,"max_jut":186.5015,"search_radius_m":500,"elev_angle_deg":34.9121}},{"type":"Feature","geometry":{"type":"Point","coordinates":[119.41507192739728,40.02088913857301]},"properties":{"peak_name":"北天门581","peak_elev":581,"peak_lon":119.409413,"peak_lat":40.021428,"base_elev":329,"distance_m":486.8,"vertical_relief_m":252.0,"max_jut":116.0774,"search_radius_m":500,"elev_angle_deg":27.3691}},{"type":"Feature","geometry":{"type":"Point","coordinates":[119.1334500858258,39.734416394467296]},"properties":{"peak_name":"狗头山589","peak_elev":589,"peak_lon":119.121458,"peak_lat":39.741153717041016,"base_elev":110,"distance_m":1271.3,"vertical_relief_m":479.0,"max_jut":169.0534,"search_radius_m":2500,"elev_angle_deg":20.6454}},{"type":"Feature","geometry":{"type":"Point","coordinates":[118.17701380282377,40.58116838127836]},"properties":{"peak_name":"河口西山624","peak_elev":624,"peak_lon":118.169468,"peak_lat":40.581977,"base_elev":218,"distance_m":645.1,"vertical_relief_m":406.0,"max_jut":216.6275,"search_radius_m":1000,"elev_angle_deg":32.1847}},{"type":"Feature","geometry":{"type":"Point","coordinates":[118.17674430823853,40.56149527655614]},"properties":{"peak_name":"629无名峰","peak_elev":629,"peak_lon":118.171624,"peak_lat":40.562034,"base_elev":210,"distance_m":437.7,"vertical_relief_m":419.0,"max_jut":290.0988,"search_radius_m":750,"elev_angle_deg":43.7495}},{"type":"Feature","geometry":{"type":"Point","coordinates":[118.07164141999652,40.38066440986288]},"properties":{"peak_name":"630无名峰","peak_elev":630,"peak_lon":118.072989,"peak_lat":40.384976,"base_elev":213,"distance_m":492.3,"vertical_relief_m":417.0,"max_jut":269.3554,"search_radius_m":1000,"elev_angle_deg":40.2661}},{"type":"Feature","geometry":{"type":"Point","coordinates":[119.92441669349304,40.56553769533468]},"properties":{"peak_name":"635无名峰","peak_elev":635,"peak_lon":119.921452,"peak_lat":40.567424,"base_elev":419,"distance_m":327.0,"vertical_relief_m":216.0,"max_jut":119.1378,"search_radius_m":500,"elev_angle_deg":33.4468}},{"type":"Feature","geometry":{"type":"Point","coordinates":[119.13452806416674,39.744657188706256]},"properties":{"peak_name":"翠屏山637","peak_elev":637,"peak_lon":119.13129425048828,"peak_lat":39.748969,"base_elev":244,"distance_m":553.2,"vertical_relief_m":393.0,"max_jut":227.5355,"search_radius_m":625,"elev_angle_deg":35.3904}},{"type":"Feature","geometry":{"type":"Point","coordinates":[118.21474304475676,40.5612257819709]},"properties":{"peak_name":"东山643","peak_elev":643,"peak_lon":118.21905517578124,"peak_lat":40.563112,"base_elev":298,"distance_m":421.0,"vertical_relief_m":345.0,"max_jut":218.8827,"search_radius_m":1250,"elev_angle_deg":39.3338}},{"type":"Feature","geometry":{"type":"Point","coordinates":[118.30125080661747,40.4221665759892]},"properties":{"peak_name":"南山647","peak_elev":647,"peak_lon":118.301251,"peak_lat":40.416507,"base_elev":241,"distance_m":628.5,"vertical_relief_m":406.0,"max_jut":220.0995,"search_radius_m":1250,"elev_angle_deg":32.8618}},{"type":"Feature","geometry":{"type":"Point","coordinates":[118.14602192552162,40.39171368785755]},"properties":{"peak_name":"651无名峰","peak_elev":651,"peak_lon":118.14198303222656,"peak_lat":40.384707,"base_elev":172,"distance_m":850.3,"vertical_relief_m":479.0,"max_jut":234.9722,"search_radius_m":1250,"elev_angle_deg":29.3939}},{"type":"Feature","geometry":{"type":"Point","coordinates":[119.17333528444072,40.093922171171926]},"properties":{"peak_name":"660无名峰","peak_elev":660,"peak_lon":119.171449,"peak_lat":40.098773,"base_elev":291,"distance_m":562.1,"vertical_relief_m":369.0,"max_jut":202.339,"search_radius_m":1375,"elev_angle_deg":33.2836}},{"type":"Feature","geometry":{"type":"Point","coordinates":[118.03472066181922,40.37446603440245]},"properties":{"peak_name":"662无名峰","peak_elev":662,"peak_lon":118.03498840332033,"peak_lat":40.368537,"base_elev":229,"distance_m":658.8,"vertical_relief_m":433.0,"max_jut":237.6037,"search_radius_m":875,"elev_angle_deg":33.3151}},{"type":"Feature","geometry":{"type":"Point","coordinates":[118.01989845963124,40.3650337239192]},"properties":{"peak_name":"665无名峰(1)","peak_elev":665,"peak_lon":118.013161,"peak_lat":40.362878,"base_elev":275,"distance_m":620.3,"vertical_relief_m":390.0,"max_jut":207.8665,"search_radius_m":1000,"elev_angle_deg":32.1587}},{"type":"Feature","geometry":{"type":"Point","coordinates":[118.19075802667078,40.67252704567331]},"properties":{"peak_name":"大老头子沟山顶673","peak_elev":673,"peak_lon":118.183751,"peak_lat":40.674414,"base_elev":261,"distance_m":628.4,"vertical_relief_m":412.0,"max_jut":226.2329,"search_radius_m":1000,"elev_angle_deg":33.2502}},{"type":"Feature","geometry":{"type":"Point","coordinates":[118.9477683165983,40.3725795723058]},"properties":{"peak_name":"南大山678","peak_elev":678,"peak_lon":118.945612,"peak_lat":40.369885,"base_elev":415,"distance_m":350.8,"vertical_relief_m":263.0,"max_jut":157.7272,"search_radius_m":1000,"elev_angle_deg":36.8594}},{"type":"Feature","geometry":{"type":"Point","coordinates":[119.04424737811271,40.21223029409047]},"properties":{"peak_name":"681无名峰(1)","peak_elev":681,"peak_lon":119.057183,"peak_lat":40.206032,"base_elev":111,"distance_m":1298.6,"vertical_relief_m":570.0,"max_jut":229.356,"search_radius_m":1875,"elev_angle_deg":23.6983}},{"type":"Feature","geometry":{"type":"Point","coordinates":[119.49538131379757,40.09257469824575]},"properties":{"peak_name":"小金刚崖682","peak_elev":682,"peak_lon":119.490261,"peak_lat":40.09095764160156,"base_elev":343,"distance_m":472.1,"vertical_relief_m":339.0,"max_jut":197.9715,"search_radius_m":875,"elev_angle_deg":35.6809}},{"type":"Feature","geometry":{"type":"Point","coordinates":[119.8430293287518,40.269632640745705]},"properties":{"peak_name":"685无名峰","peak_elev":685,"peak_lon":119.843029,"peak_lat":40.273136138916016,"base_elev":347,"distance_m":389.0,"vertical_relief_m":338.0,"max_jut":221.5056,"search_radius_m":625,"elev_angle_deg":40.9872}},{"type":"Feature","geometry":{"type":"Point","coordinates":[119.87024828186064,40.5146032187251]},"properties":{"peak_name":"五指山690","peak_elev":690,"peak_lon":119.873213,"peak_lat":40.518376,"base_elev":329,"distance_m":488.5,"vertical_relief_m":361.0,"max_jut":214.5024,"search_radius_m":1125,"elev_angle_deg":36.4643}},{"type":"Feature","geometry":{"type":"Point","coordinates":[118.12688780996989,40.38389834488571]},"properties":{"peak_name":"694无名峰","peak_elev":694,"peak_lon":118.129313,"peak_lat":40.378508,"base_elev":286,"distance_m":633.0,"vertical_relief_m":408.0,"max_jut":220.8903,"search_radius_m":875,"elev_angle_deg":32.8038}},{"type":"Feature","geometry":{"type":"Point","coordinates":[118.26864196180394,40.4108478034093]},"properties":{"peak_name":"三十二壳楞697","peak_elev":697,"peak_lon":118.259883,"peak_lat":40.405997,"base_elev":210,"distance_m":918.1,"vertical_relief_m":487.0,"max_jut":228.414,"search_radius_m":1625,"elev_angle_deg":27.9434}},{"type":"Feature","geometry":{"type":"Point","coordinates":[118.0886195788664,40.38443733405618]},"properties":{"peak_name":"熊山700","peak_elev":700,"peak_lon":118.082152,"peak_lat":40.385515,"base_elev":198,"distance_m":562.1,"vertical_relief_m":502.0,"max_jut":334.8364,"search_radius_m":1250,"elev_angle_deg":41.7674}},{"type":"Feature","geometry":{"type":"Point","coordinates":[119.10596163813176,40.2154642291133]},"properties":{"peak_name":"鸡冠山704","peak_elev":704,"peak_lon":119.099494,"peak_lat":40.216273,"base_elev":288,"distance_m":557.8,"vertical_relief_m":416.0,"max_jut":249.0782,"search_radius_m":1500,"elev_angle_deg":36.7151}},{"type":"Feature","geometry":{"type":"Point","coordinates":[118.38964503057484,40.441570186126185]},"properties":{"peak_name":"715无名峰","peak_elev":715,"peak_lon":118.381964,"peak_lat":40.4437255859375,"base_elev":308,"distance_m":694.2,"vertical_relief_m":407.0,"max_jut":206.1626,"search_radius_m":1500,"elev_angle_deg":30.3825}},{"type":"Feature","geometry":{"type":"Point","coordinates":[118.2885845611114,40.52080159418553]},"properties":{"peak_name":"719无名峰","peak_elev":719,"peak_lon":118.290202,"peak_lat":40.524844,"base_elev":339,"distance_m":469.3,"vertical_relief_m":380.0,"max_jut":238.9683,"search_radius_m":500,"elev_angle_deg":38.9977}},{"type":"Feature","geometry":{"type":"Point","coordinates":[119.84060387748468,40.2650512327967]},"properties":{"peak_name":"歪脖子山724","peak_elev":724,"peak_lon":119.83197784423828,"peak_lat":40.271789,"base_elev":243,"distance_m":1047.9,"vertical_relief_m":481.0,"max_jut":200.7474,"search_radius_m":1375,"elev_angle_deg":24.6558}},{"type":"Feature","geometry":{"type":"Point","coordinates":[118.05439376654144,40.67495249694044]},"properties":{"peak_name":"727无名峰","peak_elev":727,"peak_lon":118.057358,"peak_lat":40.678186,"base_elev":428,"distance_m":437.9,"vertical_relief_m":299.0,"max_jut":168.6028,"search_radius_m":500,"elev_angle_deg":34.3254}},{"type":"Feature","geometry":{"type":"Point","coordinates":[119.59293835365294,40.25427144938726]},"properties":{"peak_name":"732无名峰","peak_elev":732,"peak_lon":119.58673858642578,"peak_lat":40.25184631347656,"base_elev":380,"distance_m":592.2,"vertical_relief_m":352.0,"max_jut":180.0728,"search_radius_m":625,"elev_angle_deg":30.727}},{"type":"Feature","geometry":{"type":"Point","coordinates":[119.74331633221456,40.28499383210415]},"properties":{"peak_name":"738无名峰","peak_elev":738,"peak_lon":119.743855,"peak_lat":40.287419,"base_elev":484,"distance_m":273.2,"vertical_relief_m":254.0,"max_jut":172.8443,"search_radius_m":625,"elev_angle_deg":42.9143}},{"type":"Feature","geometry":{"type":"Point","coordinates":[118.21231759348964,40.51891513208887]},"properties":{"peak_name":"740无名峰","peak_elev":740,"peak_lon":118.215013,"peak_lat":40.51460266113281,"base_elev":389,"distance_m":530.6,"vertical_relief_m":351.0,"max_jut":193.5765,"search_radius_m":625,"elev_angle_deg":33.4852}},{"type":"Feature","geometry":{"type":"Point","coordinates":[118.03552914557493,40.43159888647246]},"properties":{"peak_name":"东蛇皮741","peak_elev":741,"peak_lon":118.026905,"peak_lat":40.431060791015625,"base_elev":324,"distance_m":734.2,"vertical_relief_m":417.0,"max_jut":206.3255,"search_radius_m":1000,"elev_angle_deg":29.5951}},{"type":"Feature","geometry":{"type":"Point","coordinates":[118.07541434418982,40.67710845362232]},"properties":{"peak_name":"742无名峰","peak_elev":742,"peak_lon":118.069755,"peak_lat":40.676029205322266,"base_elev":397,"distance_m":493.3,"vertical_relief_m":345.0,"max_jut":198.0446,"search_radius_m":1000,"elev_angle_deg":34.9678}},{"type":"Feature","geometry":{"type":"Point","coordinates":[119.40132770355024,40.073440582694005]},"properties":{"peak_name":"大石崫745","peak_elev":745,"peak_lon":119.409682,"peak_lat":40.072093,"base_elev":391,"distance_m":728.2,"vertical_relief_m":354.0,"max_jut":155.0655,"search_radius_m":750,"elev_angle_deg":25.9258}},{"type":"Feature","geometry":{"type":"Point","coordinates":[118.3713193987788,40.569580114113215]},"properties":{"peak_name":"747无名峰","peak_elev":747,"peak_lon":118.3738784790039,"peak_lat":40.573623,"base_elev":228,"distance_m":498.5,"vertical_relief_m":519.0,"max_jut":374.1949,"search_radius_m":875,"elev_angle_deg":46.1542}},{"type":"Feature","geometry":{"type":"Point","coordinates":[118.45378474186096,40.55206296607288]},"properties":{"peak_name":"750无名峰","peak_elev":750,"peak_lon":118.452976,"peak_lat":40.555566,"base_elev":439,"distance_m":395.0,"vertical_relief_m":311.0,"max_jut":192.2481,"search_radius_m":1125,"elev_angle_deg":38.2148}},{"type":"Feature","geometry":{"type":"Point","coordinates":[119.51424593476406,40.14512614236674]},"properties":{"peak_name":"751无名峰","peak_elev":751,"peak_lon":119.497807,"peak_lat":40.142431,"base_elev":220,"distance_m":1432.4,"vertical_relief_m":531.0,"max_jut":184.943,"search_radius_m":2500,"elev_angle_deg":20.3401}},{"type":"Feature","geometry":{"type":"Point","coordinates":[118.15437625766394,40.78409780396096]},"properties":{"peak_name":"752无名峰","peak_elev":752,"peak_lon":118.148986,"peak_lat":40.78679275512695,"base_elev":419,"distance_m":544.6,"vertical_relief_m":333.0,"max_jut":173.8954,"search_radius_m":750,"elev_angle_deg":31.444}},{"type":"Feature","geometry":{"type":"Point","coordinates":[118.22282788231384,40.65554888680345]},"properties":{"peak_name":"754无名峰(1)","peak_elev":754,"peak_lon":118.221211,"peak_lat":40.66012954711914,"base_elev":323,"distance_m":526.7,"vertical_relief_m":431.0,"max_jut":272.7666,"search_radius_m":750,"elev_angle_deg":39.2936}},{"type":"Feature","geometry":{"type":"Point","coordinates":[118.17189340570428,40.82155755130874]},"properties":{"peak_name":"756无名峰","peak_elev":756,"peak_lon":118.172432,"peak_lat":40.825869,"base_elev":355,"distance_m":480.9,"vertical_relief_m":401.0,"max_jut":256.6043,"search_radius_m":750,"elev_angle_deg":39.8231}},{"type":"Feature","geometry":{"type":"Point","coordinates":[118.43707607757636,40.40518841711934]},"properties":{"peak_name":"女儿山757","peak_elev":757,"peak_lon":118.439906,"peak_lat":40.40950012207031,"base_elev":359,"distance_m":535.7,"vertical_relief_m":398.0,"max_jut":237.2776,"search_radius_m":1250,"elev_angle_deg":36.6106}},{"type":"Feature","geometry":{"type":"Point","coordinates":[118.13173871250412,40.45477542080274]},"properties":{"peak_name":"758无名峰","peak_elev":758,"peak_lon":118.121767,"peak_lat":40.45369720458984,"base_elev":325,"distance_m":854.3,"vertical_relief_m":433.0,"max_jut":196.1402,"search_radius_m":875,"elev_angle_deg":26.8781}},{"type":"Feature","geometry":{"type":"Point","coordinates":[118.1368591096236,40.79784202780799]},"properties":{"peak_name":"766无名峰","peak_elev":766,"peak_lon":118.1312026977539,"peak_lat":40.800806,"base_elev":412,"distance_m":579.8,"vertical_relief_m":354.0,"max_jut":184.6429,"search_radius_m":625,"elev_angle_deg":31.4064}},{"type":"Feature","geometry":{"type":"Point","coordinates":[119.48352355204716,40.16372126874801]},"properties":{"peak_name":"红旗尖768","peak_elev":768,"peak_lon":119.476786,"peak_lat":40.155367,"base_elev":260,"distance_m":1090.9,"vertical_relief_m":508.0,"max_jut":214.3929,"search_radius_m":1125,"elev_angle_deg":24.97}},{"type":"Feature","geometry":{"type":"Point","coordinates":[118.22336687148432,40.67144906733237]},"properties":{"peak_name":"772无名峰","peak_elev":772,"peak_lon":118.220672,"peak_lat":40.675761,"base_elev":388,"distance_m":530.3,"vertical_relief_m":384.0,"max_jut":225.1326,"search_radius_m":750,"elev_angle_deg":35.909}},{"type":"Feature","geometry":{"type":"Point","coordinates":[119.38354106092468,40.04379617831806]},"properties":{"peak_name":"774无名峰","peak_elev":774,"peak_lon":119.376804,"peak_lat":40.047839,"base_elev":277,"distance_m":729.4,"vertical_relief_m":497.0,"max_jut":280.0499,"search_radius_m":1125,"elev_angle_deg":34.2698}},{"type":"Feature","geometry":{"type":"Point","coordinates":[119.89962319165134,40.56904112494274]},"properties":{"peak_name":"五指山775","peak_elev":775,"peak_lon":119.903396,"peak_lat":40.566885,"base_elev":432,"distance_m":399.2,"vertical_relief_m":343.0,"max_jut":223.6619,"search_radius_m":750,"elev_angle_deg":40.6698}},{"type":"Feature","geometry":{"type":"Point","coordinates":[119.72741615168565,40.06104383177316]},"properties":{"peak_name":"大流子山776","peak_elev":776,"peak_lon":119.718253,"peak_lat":40.072632,"base_elev":139,"distance_m":1505.6,"vertical_relief_m":637.0,"max_jut":248.1393,"search_radius_m":1875,"elev_angle_deg":22.9326}},{"type":"Feature","geometry":{"type":"Point","coordinates":[118.00669322495467,40.76092126963067]},"properties":{"peak_name":"779无名峰","peak_elev":779,"peak_lon":118.012622,"peak_lat":40.761999,"base_elev":371,"distance_m":514.7,"vertical_relief_m":408.0,"max_jut":253.808,"search_radius_m":875,"elev_angle_deg":38.4037}},{"type":"Feature","geometry":{"type":"Point","coordinates":[119.62932012265978,40.28526332668939]},"properties":{"peak_name":"783无名峰","peak_elev":783,"peak_lon":119.622852,"peak_lat":40.285802,"base_elev":437,"distance_m":553.3,"vertical_relief_m":346.0,"max_jut":183.7845,"search_radius_m":750,"elev_angle_deg":32.0193}},{"type":"Feature","geometry":{"type":"Point","coordinates":[118.16704250317002,40.64503859797926]},"properties":{"peak_name":"784无名峰","peak_elev":784,"peak_lon":118.155993,"peak_lat":40.649351,"base_elev":240,"distance_m":1050.1,"vertical_relief_m":544.0,"max_jut":250.573,"search_radius_m":1500,"elev_angle_deg":27.3862}},{"type":"Feature","geometry":{"type":"Point","coordinates":[119.82093077276248,40.45800935582557]},"properties":{"peak_name":"鹦鹉山786","peak_elev":786,"peak_lon":119.828207,"peak_lat":40.460165,"base_elev":399,"distance_m":662.0,"vertical_relief_m":387.0,"max_jut":195.617,"search_radius_m":1750,"elev_angle_deg":30.3102}},{"type":"Feature","geometry":{"type":"Point","coordinates":[118.20962264763727,40.53400682886208]},"properties":{"peak_name":"787无名峰","peak_elev":787,"peak_lon":118.207736,"peak_lat":40.539666,"base_elev":407,"distance_m":648.4,"vertical_relief_m":380.0,"max_jut":191.9711,"search_radius_m":2250,"elev_angle_deg":30.3728}},{"type":"Feature","geometry":{"type":"Point","coordinates":[118.3263138030444,40.56176477114138]},"properties":{"peak_name":"792无名峰","peak_elev":792,"peak_lon":118.320924,"peak_lat":40.567962646484375,"base_elev":213,"distance_m":825.8,"vertical_relief_m":579.0,"max_jut":332.3514,"search_radius_m":875,"elev_angle_deg":35.0358}},{"type":"Feature","geometry":{"type":"Point","coordinates":[119.7098990036453,40.08610682820009]},"properties":{"peak_name":"后寺湖山793","peak_elev":793,"peak_lon":119.715289,"peak_lat":40.087454,"base_elev":395,"distance_m":483.4,"vertical_relief_m":398.0,"max_jut":253.2938,"search_radius_m":500,"elev_angle_deg":39.4658}},{"type":"Feature","geometry":{"type":"Point","coordinates":[118.39907734105807,40.46690267713836]},"properties":{"peak_name":"794无名峰(2)","peak_elev":794,"peak_lon":118.392879,"peak_lat":40.471215,"base_elev":369,"distance_m":711.1,"vertical_relief_m":425.0,"max_jut":218.166,"search_radius_m":1375,"elev_angle_deg":30.8653}},{"type":"Feature","geometry":{"type":"Point","coordinates":[119.7511316751864,40.47902993347397]},"properties":{"peak_name":"795无名峰","peak_elev":795,"peak_lon":119.748167,"peak_lat":40.481455,"base_elev":507,"distance_m":368.4,"vertical_relief_m":288.0,"max_jut":177.4311,"search_radius_m":375,"elev_angle_deg":38.0168}},{"type":"Feature","geometry":{"type":"Point","coordinates":[118.22956524694474,40.85713083655988]},"properties":{"peak_name":"796无名峰","peak_elev":796,"peak_lon":118.222289,"peak_lat":40.852819,"base_elev":329,"distance_m":778.3,"vertical_relief_m":467.0,"max_jut":240.4743,"search_radius_m":1125,"elev_angle_deg":30.9648}},{"type":"Feature","geometry":{"type":"Point","coordinates":[118.17539683531233,40.55583589026619]},"properties":{"peak_name":"804无名峰","peak_elev":804,"peak_lon":118.166234,"peak_lat":40.553409576416016,"base_elev":265,"distance_m":821.5,"vertical_relief_m":539.0,"max_jut":296.1129,"search_radius_m":1375,"elev_angle_deg":33.2696}},{"type":"Feature","geometry":{"type":"Point","coordinates":[118.39746037354668,40.56392072782326]},"properties":{"peak_name":"805无名峰(1)","peak_elev":805,"peak_lon":118.400964,"peak_lat":40.56985092163086,"base_elev":273,"distance_m":722.3,"vertical_relief_m":532.0,"max_jut":315.3641,"search_radius_m":875,"elev_angle_deg":36.373}},{"type":"Feature","geometry":{"type":"Point","coordinates":[118.22390586065478,40.669023616065246]},"properties":{"peak_name":"809无名峰","peak_elev":809,"peak_lon":118.216091,"peak_lat":40.666598,"base_elev":356,"distance_m":713.6,"vertical_relief_m":453.0,"max_jut":243.1267,"search_radius_m":750,"elev_angle_deg":32.4078}},{"type":"Feature","geometry":{"type":"Point","coordinates":[118.31957643841352,40.57901242459647]},"properties":{"peak_name":"塌山813","peak_elev":813,"peak_lon":118.314187,"peak_lat":40.582112,"base_elev":425,"distance_m":571.6,"vertical_relief_m":388.0,"max_jut":218.0923,"search_radius_m":1000,"elev_angle_deg":34.1685}},{"type":"Feature","geometry":{"type":"Point","coordinates":[119.70208366067344,40.07559653937589]},"properties":{"peak_name":"没缝山818","peak_elev":818,"peak_lon":119.693999,"peak_lat":40.083951,"base_elev":230,"distance_m":1155.9,"vertical_relief_m":588.0,"max_jut":266.6035,"search_radius_m":1250,"elev_angle_deg":26.9622}},{"type":"Feature","geometry":{"type":"Point","coordinates":[118.36781596917074,40.72400051145336]},"properties":{"peak_name":"小甲山819","peak_elev":819,"peak_lon":118.372667,"peak_lat":40.724809,"base_elev":477,"distance_m":419.6,"vertical_relief_m":342.0,"max_jut":216.3932,"search_radius_m":625,"elev_angle_deg":39.1822}},{"type":"Feature","geometry":{"type":"Point","coordinates":[118.01989845963124,40.75445339958501]},"properties":{"peak_name":"821无名峰","peak_elev":821,"peak_lon":118.02448272705078,"peak_lat":40.752836,"base_elev":486,"distance_m":426.8,"vertical_relief_m":335.0,"max_jut":207.0862,"search_radius_m":500,"elev_angle_deg":38.1288}},{"type":"Feature","geometry":{"type":"Point","coordinates":[119.70936001447484,40.26882415699]},"properties":{"peak_name":"825无名峰","peak_elev":825,"peak_lon":119.70423889160156,"peak_lat":40.271789,"base_elev":435,"distance_m":546.0,"vertical_relief_m":390.0,"max_jut":226.8491,"search_radius_m":1375,"elev_angle_deg":35.5377}},{"type":"Feature","geometry":{"type":"Point","coordinates":[119.36629340746958,40.12006314593981]},"properties":{"peak_name":"826无名峰","peak_elev":826,"peak_lon":119.366563,"peak_lat":40.116829,"base_elev":465,"distance_m":359.8,"vertical_relief_m":361.0,"max_jut":255.4953,"search_radius_m":375,"elev_angle_deg":45.0954}},{"type":"Feature","geometry":{"type":"Point","coordinates":[119.682141061366,40.09284419283099]},"properties":{"peak_name":"老南山西峰830","peak_elev":830,"peak_lon":119.697233,"peak_lat":40.093383,"base_elev":269,"distance_m":1288.4,"vertical_relief_m":561.0,"max_jut":224.4352,"search_radius_m":4750,"elev_angle_deg":23.5295}},{"type":"Feature","geometry":{"type":"Point","coordinates":[118.1931834779379,40.49897253278142]},"properties":{"peak_name":"大东岭832","peak_elev":832,"peak_lon":118.185907,"peak_lat":40.499512,"base_elev":417,"distance_m":619.7,"vertical_relief_m":415.0,"max_jut":231.3128,"search_radius_m":625,"elev_angle_deg":33.8094}},{"type":"Feature","geometry":{"type":"Point","coordinates":[119.0561051398631,40.5402052043225]},"properties":{"peak_name":"架子山834","peak_elev":834,"peak_lon":119.065403,"peak_lat":40.531312,"base_elev":313,"distance_m":1263.2,"vertical_relief_m":521.0,"max_jut":198.6673,"search_radius_m":1750,"elev_angle_deg":22.4134}},{"type":"Feature","geometry":{"type":"Point","coordinates":[118.30717968749266,40.70783083633921]},"properties":{"peak_name":"835无名峰","peak_elev":835,"peak_lon":118.313648,"peak_lat":40.710256,"base_elev":433,"distance_m":609.3,"vertical_relief_m":402.0,"max_jut":221.653,"search_radius_m":750,"elev_angle_deg":33.4158}},{"type":"Feature","geometry":{"type":"Point","coordinates":[118.17674430823853,40.55421892275477]},"properties":{"peak_name":"837无名峰(2)","peak_elev":837,"peak_lon":118.17081451416016,"peak_lat":40.548021,"base_elev":264,"distance_m":852.0,"vertical_relief_m":573.0,"max_jut":319.7591,"search_radius_m":1250,"elev_angle_deg":33.9222}},{"type":"Feature","geometry":{"type":"Point","coordinates":[118.08942806262208,40.78086386893813]},"properties":{"peak_name":"840无名峰","peak_elev":840,"peak_lon":118.09374237060548,"peak_lat":40.778438,"base_elev":490,"distance_m":453.0,"vertical_relief_m":350.0,"max_jut":214.1466,"search_radius_m":1375,"elev_angle_deg":37.6906}},{"type":"Feature","geometry":{"type":"Point","coordinates":[118.51927192607327,40.41111729799453]},"properties":{"peak_name":"八面峰844","peak_elev":844,"peak_lon":118.523449,"peak_lat":40.407479,"base_elev":451,"distance_m":537.5,"vertical_relief_m":393.0,"max_jut":231.998,"search_radius_m":1375,"elev_angle_deg":36.1729}},{"type":"Feature","geometry":{"type":"Point","coordinates":[118.09400947057112,40.70136296629355]},"properties":{"peak_name":"846无名峰","peak_elev":846,"peak_lon":118.089698,"peak_lat":40.702441,"base_elev":529,"distance_m":383.5,"vertical_relief_m":317.0,"max_jut":202.2146,"search_radius_m":625,"elev_angle_deg":39.577}},{"type":"Feature","geometry":{"type":"Point","coordinates":[118.7456473776714,40.29415664800217]},"properties":{"peak_name":"848无名峰(2)","peak_elev":848,"peak_lon":118.753867,"peak_lat":40.293752,"base_elev":418,"distance_m":700.3,"vertical_relief_m":430.0,"max_jut":225.4019,"search_radius_m":2250,"elev_angle_deg":31.5509}},{"type":"Feature","geometry":{"type":"Point","coordinates":[119.7128634440829,40.46744166630882]},"properties":{"peak_name":"850无名峰","peak_elev":850,"peak_lon":119.707743,"peak_lat":40.467711,"base_elev":492,"distance_m":435.3,"vertical_relief_m":358.0,"max_jut":227.746,"search_radius_m":500,"elev_angle_deg":39.4346}},{"type":"Feature","geometry":{"type":"Point","coordinates":[118.0759533333603,40.87707343586733]},"properties":{"peak_name":"狮子山854","peak_elev":854,"peak_lon":118.07218170166016,"peak_lat":40.882733,"base_elev":451,"distance_m":704.3,"vertical_relief_m":403.0,"max_jut":200.0657,"search_radius_m":1375,"elev_angle_deg":29.7782}},{"type":"Feature","geometry":{"type":"Point","coordinates":[118.56104358678483,40.50490141365661]},"properties":{"peak_name":"855无名峰","peak_elev":855,"peak_lon":118.569667,"peak_lat":40.506788,"base_elev":451,"distance_m":760.4,"vertical_relief_m":404.0,"max_jut":189.8942,"search_radius_m":1125,"elev_angle_deg":27.9817}},{"type":"Feature","geometry":{"type":"Point","coordinates":[120.01712283081416,41.14360358066559]},"properties":{"peak_name":"东大楼856","peak_elev":856,"peak_lon":120.019009,"peak_lat":41.146299,"base_elev":537,"distance_m":338.6,"vertical_relief_m":319.0,"max_jut":218.6843,"search_radius_m":875,"elev_angle_deg":43.2928}},{"type":"Feature","geometry":{"type":"Point","coordinates":[118.4322251750421,40.55960881445949]},"properties":{"peak_name":"头道沟梁尖858","peak_elev":858,"peak_lon":118.424679,"peak_lat":40.561495,"base_elev":445,"distance_m":672.5,"vertical_relief_m":413.0,"max_jut":216.4617,"search_radius_m":1625,"elev_angle_deg":31.5552}},{"type":"Feature","geometry":{"type":"Point","coordinates":[119.08871398467664,40.91830610740841]},"properties":{"peak_name":"859无名峰","peak_elev":859,"peak_lon":119.0959930419922,"peak_lat":40.912916,"base_elev":438,"distance_m":856.9,"vertical_relief_m":421.0,"max_jut":185.7381,"search_radius_m":1125,"elev_angle_deg":26.1652}},{"type":"Feature","geometry":{"type":"Point","coordinates":[118.20234629383592,40.598685529318686]},"properties":{"peak_name":"860无名峰(1)","peak_elev":860,"peak_lon":118.196687,"peak_lat":40.60137939453125,"base_elev":309,"distance_m":564.7,"vertical_relief_m":551.0,"max_jut":385.0743,"search_radius_m":875,"elev_angle_deg":44.2965}},{"type":"Feature","geometry":{"type":"Point","coordinates":[119.19543384043004,40.155905925776175]},"properties":{"peak_name":"黑龙头山862","peak_elev":862,"peak_lon":119.207022,"peak_lat":40.152402,"base_elev":365,"distance_m":1061.2,"vertical_relief_m":497.0,"max_jut":211.1271,"search_radius_m":2250,"elev_angle_deg":25.0955}},{"type":"Feature","geometry":{"type":"Point","coordinates":[118.1158385319752,40.52726946423119]},"properties":{"peak_name":"872无名峰","peak_elev":872,"peak_lon":118.107754,"peak_lat":40.526191,"base_elev":444,"distance_m":695.4,"vertical_relief_m":428.0,"max_jut":224.7237,"search_radius_m":875,"elev_angle_deg":31.6112}},{"type":"Feature","geometry":{"type":"Point","coordinates":[118.50849214266384,40.70890881468015]},"properties":{"peak_name":"877无名峰","peak_elev":877,"peak_lon":118.502833,"peak_lat":40.704193115234375,"base_elev":455,"distance_m":709.2,"vertical_relief_m":422.0,"max_jut":215.8624,"search_radius_m":750,"elev_angle_deg":30.7542}},{"type":"Feature","geometry":{"type":"Point","coordinates":[118.98226362350847,41.01694112560474]},"properties":{"peak_name":"879无名峰","peak_elev":879,"peak_lon":118.984689,"peak_lat":41.019906,"base_elev":588,"distance_m":387.3,"vertical_relief_m":291.0,"max_jut":174.7685,"search_radius_m":625,"elev_angle_deg":36.9196}},{"type":"Feature","geometry":{"type":"Point","coordinates":[118.58233365901847,40.79110466317709]},"properties":{"peak_name":"881无名峰","peak_elev":881,"peak_lon":118.589071,"peak_lat":40.795417,"base_elev":503,"distance_m":743.4,"vertical_relief_m":378.0,"max_jut":171.4575,"search_radius_m":1250,"elev_angle_deg":26.9522}},{"type":"Feature","geometry":{"type":"Point","coordinates":[118.23791957908703,40.691661161225056]},"properties":{"peak_name":"888无名峰","peak_elev":888,"peak_lon":118.236303,"peak_lat":40.695165,"base_elev":468,"distance_m":412.4,"vertical_relief_m":420.0,"max_jut":299.5559,"search_radius_m":750,"elev_angle_deg":45.5231}},{"type":"Feature","geometry":{"type":"Point","coordinates":[119.72094828163996,40.11575123257603]},"properties":{"peak_name":"塔山889","peak_elev":889,"peak_lon":119.722161,"peak_lat":40.100121,"base_elev":124,"distance_m":1738.6,"vertical_relief_m":765.0,"max_jut":307.7355,"search_radius_m":3500,"elev_angle_deg":23.7499}},{"type":"Feature","geometry":{"type":"Point","coordinates":[118.66318203458924,40.6318333633027]},"properties":{"peak_name":"892无名峰","peak_elev":892,"peak_lon":118.660487,"peak_lat":40.63344955444336,"base_elev":578,"distance_m":290.2,"vertical_relief_m":314.0,"max_jut":230.7247,"search_radius_m":750,"elev_angle_deg":47.2558}},{"type":"Feature","geometry":{"type":"Point","coordinates":[118.08942806262208,40.67064058357666]},"properties":{"peak_name":"896无名峰","peak_elev":896,"peak_lon":118.100208,"peak_lat":40.67764663696289,"base_elev":301,"distance_m":1198.3,"vertical_relief_m":595.0,"max_jut":264.8093,"search_radius_m":1375,"elev_angle_deg":26.4061}},{"type":"Feature","geometry":{"type":"Point","coordinates":[119.34715929191783,40.06805069098929]},"properties":{"peak_name":"黄牛顶897","peak_elev":897,"peak_lon":119.354436,"peak_lat":40.073978424072266,"base_elev":292,"distance_m":904.7,"vertical_relief_m":605.0,"max_jut":336.4062,"search_radius_m":1250,"elev_angle_deg":33.7718}},{"type":"Feature","geometry":{"type":"Point","coordinates":[118.157879687272,40.6145857098476]},"properties":{"peak_name":"900无名峰","peak_elev":900,"peak_lon":118.158419,"peak_lat":40.620784,"base_elev":219,"distance_m":689.8,"vertical_relief_m":681.0,"max_jut":478.1156,"search_radius_m":1375,"elev_angle_deg":44.6322}},{"type":"Feature","geometry":{"type":"Point","coordinates":[118.39907734105807,40.49331314649147]},"properties":{"peak_name":"904无名峰","peak_elev":904,"peak_lon":118.40850830078124,"peak_lat":40.489271,"base_elev":423,"distance_m":916.9,"vertical_relief_m":481.0,"max_jut":223.7215,"search_radius_m":1375,"elev_angle_deg":27.6812}},{"type":"Feature","geometry":{"type":"Point","coordinates":[118.03525965098969,40.45800935582557]},"properties":{"peak_name":"905无名峰","peak_elev":905,"peak_lon":118.039302,"peak_lat":40.462321,"base_elev":502,"distance_m":588.9,"vertical_relief_m":403.0,"max_jut":227.5924,"search_radius_m":1250,"elev_angle_deg":34.3849}},{"type":"Feature","geometry":{"type":"Point","coordinates":[118.4661814927818,40.53508480720303]},"properties":{"peak_name":"910无名峰","peak_elev":910,"peak_lon":118.4618682861328,"peak_lat":40.531042,"base_elev":541,"distance_m":578.9,"vertical_relief_m":369.0,"max_jut":198.3736,"search_radius_m":1000,"elev_angle_deg":32.5141}},{"type":"Feature","geometry":{"type":"Point","coordinates":[118.60928311754206,40.80646585453553]},"properties":{"peak_name":"911无名峰(3)","peak_elev":911,"peak_lon":118.6048355102539,"peak_lat":40.80848693847656,"base_elev":560,"distance_m":437.3,"vertical_relief_m":351.0,"max_jut":219.9226,"search_radius_m":875,"elev_angle_deg":38.7524}},{"type":"Feature","geometry":{"type":"Point","coordinates":[119.08035965253434,40.945525060517234]},"properties":{"peak_name":"912无名峰(2)","peak_elev":912,"peak_lon":119.08547973632812,"peak_lat":40.948490142822266,"base_elev":602,"distance_m":542.5,"vertical_relief_m":310.0,"max_jut":153.9396,"search_radius_m":875,"elev_angle_deg":29.7449}},{"type":"Feature","geometry":{"type":"Point","coordinates":[119.44552481552893,40.13326838061637]},"properties":{"peak_name":"913无名峰","peak_elev":913,"peak_lon":119.443638,"peak_lat":40.130304,"base_elev":584,"distance_m":366.3,"vertical_relief_m":329.0,"max_jut":219.7475,"search_radius_m":375,"elev_angle_deg":41.9293}},{"type":"Feature","geometry":{"type":"Point","coordinates":[118.06382607702469,40.708369825509685]},"properties":{"peak_name":"916无名峰","peak_elev":916,"peak_lon":118.0644989013672,"peak_lat":40.711334228515625,"base_elev":623,"distance_m":334.1,"vertical_relief_m":293.0,"max_jut":193.0685,"search_radius_m":500,"elev_angle_deg":41.2502}},{"type":"Feature","geometry":{"type":"Point","coordinates":[118.5982338395474,40.58655827298308]},"properties":{"peak_name":"八大坑山尖917","peak_elev":917,"peak_lon":118.597156,"peak_lat":40.59086990356445,"base_elev":531,"distance_m":487.4,"vertical_relief_m":386.0,"max_jut":239.4662,"search_radius_m":1625,"elev_angle_deg":38.3777}},{"type":"Feature","geometry":{"type":"Point","coordinates":[118.31310856836784,40.62832993369463]},"properties":{"peak_name":"919无名峰","peak_elev":919,"peak_lon":118.312839,"peak_lat":40.63372039794922,"base_elev":472,"distance_m":599.0,"vertical_relief_m":447.0,"max_jut":267.102,"search_radius_m":1750,"elev_angle_deg":36.7319}},{"type":"Feature","geometry":{"type":"Point","coordinates":[118.977143226389,41.00535285843959]},"properties":{"peak_name":"裂山921","peak_elev":921,"peak_lon":118.976604,"peak_lat":41.009261,"base_elev":622,"distance_m":436.4,"vertical_relief_m":299.0,"max_jut":168.863,"search_radius_m":1000,"elev_angle_deg":34.417}},{"type":"Feature","geometry":{"type":"Point","coordinates":[119.36764088039575,40.12168011345122]},"properties":{"peak_name":"922无名峰","peak_elev":922,"peak_lon":119.373031,"peak_lat":40.11656188964844,"base_elev":405,"distance_m":730.8,"vertical_relief_m":517.0,"max_jut":298.6014,"search_radius_m":750,"elev_angle_deg":35.2773}},{"type":"Feature","geometry":{"type":"Point","coordinates":[119.69238185560496,40.11063083545656]},"properties":{"peak_name":"大峪顶923","peak_elev":923,"peak_lon":119.703701,"peak_lat":40.09634780883789,"base_elev":173,"distance_m":1856.5,"vertical_relief_m":750.0,"max_jut":280.8335,"search_radius_m":3250,"elev_angle_deg":21.998}},{"type":"Feature","geometry":{"type":"Point","coordinates":[118.28804557194093,40.57443101664746]},"properties":{"peak_name":"925无名峰(1)","peak_elev":925,"peak_lon":118.293166,"peak_lat":40.561495,"base_elev":256,"distance_m":1500.5,"vertical_relief_m":669.0,"max_jut":272.1899,"search_radius_m":2000,"elev_angle_deg":24.0298}},{"type":"Feature","geometry":{"type":"Point","coordinates":[118.11664701573092,40.49196567356529]},"properties":{"peak_name":"黑沟峪939","peak_elev":939,"peak_lon":118.132143,"peak_lat":40.491696,"base_elev":306,"distance_m":1314.1,"vertical_relief_m":633.0,"max_jut":275.2766,"search_radius_m":1625,"elev_angle_deg":25.72}},{"type":"Feature","geometry":{"type":"Point","coordinates":[118.0225934054836,40.53373733427684]},"properties":{"peak_name":"943无名峰","peak_elev":943,"peak_lon":118.014509,"peak_lat":40.531581,"base_elev":528,"distance_m":725.6,"vertical_relief_m":415.0,"max_jut":206.3597,"search_radius_m":750,"elev_angle_deg":29.767}},{"type":"Feature","geometry":{"type":"Point","coordinates":[118.24627391122937,40.86791061996931]},"properties":{"peak_name":"河西东大山944","peak_elev":944,"peak_lon":118.257054,"peak_lat":40.863868,"base_elev":425,"distance_m":1013.7,"vertical_relief_m":519.0,"max_jut":236.8633,"search_radius_m":1750,"elev_angle_deg":27.1118}},{"type":"Feature","geometry":{"type":"Point","coordinates":[118.41659448909844,40.50894383243515]},"properties":{"peak_name":"946无名峰","peak_elev":946,"peak_lon":118.423197,"peak_lat":40.504093170166016,"base_elev":495,"distance_m":776.7,"vertical_relief_m":451.0,"max_jut":226.5696,"search_radius_m":2000,"elev_angle_deg":30.1421}},{"type":"Feature","geometry":{"type":"Point","coordinates":[118.41659448909844,40.50894383243515]},"properties":{"peak_name":"955无名峰(1)","peak_elev":955,"peak_lon":118.428722,"peak_lat":40.508405,"base_elev":495,"distance_m":1029.6,"vertical_relief_m":460.0,"max_jut":188.0303,"search_radius_m":2250,"elev_angle_deg":24.0739}},{"type":"Feature","geometry":{"type":"Point","coordinates":[118.2864286044295,40.70082397712308]},"properties":{"peak_name":"960无名峰","peak_elev":960,"peak_lon":118.280769,"peak_lat":40.704866,"base_elev":464,"distance_m":655.9,"vertical_relief_m":496.0,"max_jut":299.3031,"search_radius_m":1250,"elev_angle_deg":37.097}},{"type":"Feature","geometry":{"type":"Point","coordinates":[118.22148040938768,40.58305484337501]},"properties":{"peak_name":"965无名峰","peak_elev":965,"peak_lon":118.226331,"peak_lat":40.59248733520508,"base_elev":335,"distance_m":1125.1,"vertical_relief_m":630.0,"max_jut":307.617,"search_radius_m":1375,"elev_angle_deg":29.2467}},{"type":"Feature","geometry":{"type":"Point","coordinates":[118.8477858254758,40.72373101686812]},"properties":{"peak_name":"鸡冠山966","peak_elev":966,"peak_lon":118.845091,"peak_lat":40.726426,"base_elev":677,"distance_m":376.0,"vertical_relief_m":289.0,"max_jut":176.1208,"search_radius_m":750,"elev_angle_deg":37.5465}},{"type":"Feature","geometry":{"type":"Point","coordinates":[118.25004683542268,40.6280604391094]},"properties":{"peak_name":"967无名峰","peak_elev":967,"peak_lon":118.250047,"peak_lat":40.62294006347656,"base_elev":522,"distance_m":568.6,"vertical_relief_m":445.0,"max_jut":274.0334,"search_radius_m":625,"elev_angle_deg":38.0476}},{"type":"Feature","geometry":{"type":"Point","coordinates":[118.20800568012586,40.68707975327605]},"properties":{"peak_name":"968无名峰","peak_elev":968,"peak_lon":118.205041,"peak_lat":40.694356,"base_elev":340,"distance_m":846.0,"vertical_relief_m":628.0,"max_jut":374.0851,"search_radius_m":1250,"elev_angle_deg":36.5871}},{"type":"Feature","geometry":{"type":"Point","coordinates":[119.75328763186828,40.49762505985524]},"properties":{"peak_name":"972无名峰","peak_elev":972,"peak_lon":119.723374,"peak_lat":40.485498,"base_elev":307,"distance_m":2871.4,"vertical_relief_m":665.0,"max_jut":150.2682,"search_radius_m":6250,"elev_angle_deg":13.0395}},{"type":"Feature","geometry":{"type":"Point","coordinates":[118.49528690798728,40.51541170248081]},"properties":{"peak_name":"干巴山975","peak_elev":975,"peak_lon":118.499868,"peak_lat":40.522149,"base_elev":535,"distance_m":842.9,"vertical_relief_m":440.0,"max_jut":203.5338,"search_radius_m":1250,"elev_angle_deg":27.5649}},{"type":"Feature","geometry":{"type":"Point","coordinates":[118.17108492194856,40.960347262705206]},"properties":{"peak_name":"976无名峰(1)","peak_elev":976,"peak_lon":118.174723,"peak_lat":40.963851,"base_elev":547,"distance_m":495.2,"vertical_relief_m":429.0,"max_jut":280.9403,"search_radius_m":1125,"elev_angle_deg":40.9029}},{"type":"Feature","geometry":{"type":"Point","coordinates":[118.0616701203428,40.77736043933006]},"properties":{"peak_name":"月牙山977","peak_elev":977,"peak_lon":118.058706,"peak_lat":40.762269,"base_elev":432,"distance_m":1694.5,"vertical_relief_m":545.0,"max_jut":166.6856,"search_radius_m":3250,"elev_angle_deg":17.8293}},{"type":"Feature","geometry":{"type":"Point","coordinates":[119.21834088017508,40.77331802055152]},"properties":{"peak_name":"980无名峰","peak_elev":980,"peak_lon":119.212412,"peak_lat":40.774665,"base_elev":616,"distance_m":522.4,"vertical_relief_m":364.0,"max_jut":208.409,"search_radius_m":1750,"elev_angle_deg":34.8682}},{"type":"Feature","geometry":{"type":"Point","coordinates":[119.30457914745055,41.08188932064658]},"properties":{"peak_name":"黄金带山982","peak_elev":982,"peak_lon":119.311317,"peak_lat":41.07622909545898,"base_elev":561,"distance_m":846.0,"vertical_relief_m":421.0,"max_jut":187.6272,"search_radius_m":1000,"elev_angle_deg":26.4566}},{"type":"Feature","geometry":{"type":"Point","coordinates":[119.67028329961563,40.50544040282709]},"properties":{"peak_name":"锁链砬山983","peak_elev":983,"peak_lon":119.665837,"peak_lat":40.508135,"base_elev":655,"distance_m":481.2,"vertical_relief_m":328.0,"max_jut":184.8689,"search_radius_m":500,"elev_angle_deg":34.2795}},{"type":"Feature","geometry":{"type":"Point","coordinates":[119.5694923247374,40.369076142697736]},"properties":{"peak_name":"锥山985","peak_elev":985,"peak_lon":119.567606,"peak_lat":40.37231063842773,"base_elev":653,"distance_m":393.3,"vertical_relief_m":332.0,"max_jut":214.0718,"search_radius_m":1125,"elev_angle_deg":40.169}},{"type":"Feature","geometry":{"type":"Point","coordinates":[118.19560892920502,40.70729184716874]},"properties":{"peak_name":"986无名峰","peak_elev":986,"peak_lon":118.195339,"peak_lat":40.711604,"base_elev":534,"distance_m":479.4,"vertical_relief_m":452.0,"max_jut":309.8605,"search_radius_m":750,"elev_angle_deg":43.315}},{"type":"Feature","geometry":{"type":"Point","coordinates":[118.39476542769432,40.64962000592826]},"properties":{"peak_name":"988无名峰","peak_elev":988,"peak_lon":118.390184,"peak_lat":40.65501022338867,"base_elev":532,"distance_m":713.0,"vertical_relief_m":456.0,"max_jut":245.6459,"search_radius_m":875,"elev_angle_deg":32.601}},{"type":"Feature","geometry":{"type":"Point","coordinates":[118.9787601939004,40.78921820108044]},"properties":{"peak_name":"小窑沟梁尖989","peak_elev":989,"peak_lon":118.989001,"peak_lat":40.791913,"base_elev":494,"distance_m":914.7,"vertical_relief_m":495.0,"max_jut":235.9879,"search_radius_m":1125,"elev_angle_deg":28.4205}},{"type":"Feature","geometry":{"type":"Point","coordinates":[118.5125345614424,40.55556639568095]},"properties":{"peak_name":"990无名峰","peak_elev":990,"peak_lon":118.514152,"peak_lat":40.546808,"base_elev":539,"distance_m":982.2,"vertical_relief_m":451.0,"max_jut":188.0011,"search_radius_m":1375,"elev_angle_deg":24.6633}},{"type":"Feature","geometry":{"type":"Point","coordinates":[118.21555152851248,40.60299744268246]},"properties":{"peak_name":"994无名峰(1)","peak_elev":994,"peak_lon":118.21636199951172,"peak_lat":40.607848,"base_elev":460,"distance_m":543.0,"vertical_relief_m":534.0,"max_jut":374.1885,"search_radius_m":625,"elev_angle_deg":44.5212}},{"type":"Feature","geometry":{"type":"Point","coordinates":[118.07056344165558,40.6003024968301]},"properties":{"peak_name":"995无名峰(1)","peak_elev":995,"peak_lon":118.062479,"peak_lat":40.59248733520508,"base_elev":327,"distance_m":1105.2,"vertical_relief_m":668.0,"max_jut":345.5707,"search_radius_m":1250,"elev_angle_deg":31.1494}},{"type":"Feature","geometry":{"type":"Point","coordinates":[119.97858510512545,40.2793344458142]},"properties":{"peak_name":"三山710","peak_elev":705,"peak_lon":119.970231,"peak_lat":40.271519,"base_elev":115,"distance_m":1121.6,"vertical_relief_m":590.0,"max_jut":274.7102,"search_radius_m":1500,"elev_angle_deg":27.7459}},{"type":"Feature","geometry":{"type":"Point","coordinates":[118.00696271953991,40.52268805628218]},"properties":{"peak_name":"五指山1389","peak_elev":1356,"peak_lon":118.023941,"peak_lat":40.521881103515625,"base_elev":492,"distance_m":1441.5,"vertical_relief_m":864.0,"max_jut":445.0006,"search_radius_m":2500,"elev_angle_deg":30.9374}},{"type":"Feature","geometry":{"type":"Point","coordinates":[118.13928456089072,40.80188444658653]},"properties":{"peak_name":"五道沟北尖1017","peak_elev":1017,"peak_lon":118.151681,"peak_lat":40.80592727661133,"base_elev":450,"distance_m":1138.3,"vertical_relief_m":567.0,"max_jut":253.1969,"search_radius_m":1625,"elev_angle_deg":26.4784}},{"type":"Feature","geometry":{"type":"Point","coordinates":[118.25543672712736,40.598955023903926]},"properties":{"peak_name":"仙台山1004.5","peak_elev":997,"peak_lon":118.245825,"peak_lat":40.601111,"base_elev":581,"distance_m":848.0,"vertical_relief_m":416.0,"max_jut":183.5398,"search_radius_m":4500,"elev_angle_deg":26.131}},{"type":"Feature","geometry":{"type":"Point","coordinates":[119.14800279342852,39.86592975206239]},"properties":{"peak_name":"兔儿山571","peak_elev":562,"peak_lon":119.150428,"peak_lat":39.871454,"base_elev":193,"distance_m":647.5,"vertical_relief_m":369.0,"max_jut":182.5532,"search_radius_m":1375,"elev_angle_deg":29.6781}},{"type":"Feature","geometry":{"type":"Point","coordinates":[119.36656290205482,40.12626152140023]},"properties":{"peak_name":"八仙顶/八仙台/八仙峰1390","peak_elev":1394,"peak_lon":119.410221,"peak_lat":40.119794,"base_elev":350,"distance_m":3790.1,"vertical_relief_m":1044.0,"max_jut":277.8487,"search_radius_m":10000,"elev_angle_deg":15.4005}},{"type":"Feature","geometry":{"type":"Point","coordinates":[118.00696271953991,40.52268805628218]},"properties":{"peak_name":"兴隆五指山1383.7","peak_elev":1391,"peak_lon":118.02448272705078,"peak_lat":40.515951,"base_elev":492,"distance_m":1662.5,"vertical_relief_m":899.0,"max_jut":428.1763,"search_radius_m":2000,"elev_angle_deg":28.4024}},{"type":"Feature","geometry":{"type":"Point","coordinates":[118.234416149479,40.578203940840766]},"properties":{"peak_name":"兴隆北大山1043","peak_elev":1054,"peak_lon":118.240884,"peak_lat":40.594913482666016,"base_elev":291,"distance_m":1934.6,"vertical_relief_m":763.0,"max_jut":279.6879,"search_radius_m":3500,"elev_angle_deg":21.5241}},{"type":"Feature","geometry":{"type":"Point","coordinates":[118.05196831527432,40.74070917573798]},"properties":{"peak_name":"兴隆山1072.1","peak_elev":1064,"peak_lon":118.049004,"peak_lat":40.749602,"base_elev":546,"distance_m":1018.8,"vertical_relief_m":518.0,"max_jut":234.5722,"search_radius_m":1500,"elev_angle_deg":26.9507}},{"type":"Feature","geometry":{"type":"Point","coordinates":[118.08215170882072,40.75553137792596]},"properties":{"peak_name":"北山大尖1027","peak_elev":1040,"peak_lon":118.070024,"peak_lat":40.757957458496094,"base_elev":441,"distance_m":1059.0,"vertical_relief_m":599.0,"max_jut":295.4315,"search_radius_m":1250,"elev_angle_deg":29.4937}},{"type":"Feature","geometry":{"type":"Point","coordinates":[118.06032264741664,40.697859536685485]},"properties":{"peak_name":"北梁顶1126","peak_elev":1133,"peak_lon":118.053046,"peak_lat":40.70270919799805,"base_elev":560,"distance_m":817.5,"vertical_relief_m":573.0,"max_jut":329.0885,"search_radius_m":1750,"elev_angle_deg":35.0273}},{"type":"Feature","geometry":{"type":"Point","coordinates":[118.2090836584668,40.71052578219157]},"properties":{"peak_name":"北砬子山1223.6","peak_elev":1217,"peak_lon":118.212048,"peak_lat":40.71591567993164,"base_elev":660,"distance_m":648.8,"vertical_relief_m":557.0,"max_jut":362.6566,"search_radius_m":1500,"elev_angle_deg":40.6464}},{"type":"Feature","geometry":{"type":"Point","coordinates":[118.03202571596684,40.48954022229817]},"properties":{"peak_name":"十二顶1254","peak_elev":1291,"peak_lon":118.013026,"peak_lat":40.49735641479492,"base_elev":427,"distance_m":1829.7,"vertical_relief_m":864.0,"max_jut":369.4404,"search_radius_m":2000,"elev_angle_deg":25.2771}},{"type":"Feature","geometry":{"type":"Point","coordinates":[118.40635369485946,40.71241224428822]},"properties":{"peak_name":"南大山1216.7","peak_elev":1214,"peak_lon":118.417942,"peak_lat":40.70459747314453,"base_elev":673,"distance_m":1308.5,"vertical_relief_m":541.0,"max_jut":206.8542,"search_radius_m":2500,"elev_angle_deg":22.4627}},{"type":"Feature","geometry":{"type":"Point","coordinates":[118.1939919616936,40.617011161114725]},"properties":{"peak_name":"卡杈山1094","peak_elev":1151,"peak_lon":118.193722,"peak_lat":40.622401,"base_elev":517,"distance_m":599.0,"vertical_relief_m":634.0,"max_jut":460.5716,"search_radius_m":1250,"elev_angle_deg":46.626}},{"type":"Feature","geometry":{"type":"Point","coordinates":[118.7906529734058,40.89054816512912]},"properties":{"peak_name":"双山尖1201.4","peak_elev":1205,"peak_lon":118.784185,"peak_lat":40.898633,"base_elev":712,"distance_m":1050.3,"vertical_relief_m":493.0,"max_jut":209.4343,"search_radius_m":1750,"elev_angle_deg":25.1449}},{"type":"Feature","geometry":{"type":"Point","coordinates":[119.45010622347792,40.11844617842839]},"properties":{"peak_name":"响山/黑尖顶/天女峰1421.8","peak_elev":1414,"peak_lon":119.425043,"peak_lat":40.120333,"base_elev":518,"distance_m":2146.8,"vertical_relief_m":896.0,"max_jut":345.8446,"search_radius_m":9000,"elev_angle_deg":22.654}},{"type":"Feature","geometry":{"type":"Point","coordinates":[118.73459809967672,40.77493498806294]},"properties":{"peak_name":"土山尖子1286.2","peak_elev":1287,"peak_lon":118.739584,"peak_lat":40.782211,"base_elev":830,"distance_m":911.1,"vertical_relief_m":457.0,"max_jut":204.8279,"search_radius_m":2750,"elev_angle_deg":26.638}},{"type":"Feature","geometry":{"type":"Point","coordinates":[118.39584340603528,40.67791693737803]},"properties":{"peak_name":"大北山1180","peak_elev":1195,"peak_lon":118.379674,"peak_lat":40.6812858581543,"base_elev":598,"distance_m":1417.3,"vertical_relief_m":597.0,"max_jut":232.2091,"search_radius_m":1500,"elev_angle_deg":22.842}},{"type":"Feature","geometry":{"type":"Point","coordinates":[120.20091813794502,41.07461296684521]},"properties":{"peak_name":"大柏山851","peak_elev":844,"peak_lon":120.190408,"peak_lat":41.074343,"base_elev":414,"distance_m":883.8,"vertical_relief_m":430.0,"max_jut":188.5178,"search_radius_m":2000,"elev_angle_deg":25.9446}},{"type":"Feature","geometry":{"type":"Point","coordinates":[120.696788174779,40.92369599911313]},"properties":{"peak_name":"大虹螺山玉皇顶900.8","peak_elev":892,"peak_lon":120.705412,"peak_lat":40.930433,"base_elev":366,"distance_m":1042.8,"vertical_relief_m":526.0,"max_jut":237.0109,"search_radius_m":4000,"elev_angle_deg":26.7669}},{"type":"Feature","geometry":{"type":"Point","coordinates":[119.95136615201665,40.32649599823047]},"properties":{"peak_name":"大谷山658","peak_elev":643,"peak_lon":119.958104,"peak_lat":40.326765,"base_elev":235,"distance_m":573.4,"vertical_relief_m":408.0,"max_jut":236.9368,"search_radius_m":1125,"elev_angle_deg":35.4336}},{"type":"Feature","geometry":{"type":"Point","coordinates":[119.6670493645928,40.46312975294505]},"properties":{"peak_name":"大青山1224","peak_elev":1217,"peak_lon":119.66651153564452,"peak_lat":40.476065,"base_elev":507,"distance_m":1437.1,"vertical_relief_m":710.0,"max_jut":314.1451,"search_radius_m":1625,"elev_angle_deg":26.2917}},{"type":"Feature","geometry":{"type":"Point","coordinates":[119.148541782599,39.74762162914385]},"properties":{"peak_name":"碣石山仙台顶695.1","peak_elev":690,"peak_lon":119.141804,"peak_lat":39.754359,"base_elev":178,"distance_m":945.0,"vertical_relief_m":512.0,"max_jut":243.9054,"search_radius_m":2250,"elev_angle_deg":28.4488}},{"type":"Feature","geometry":{"type":"Point","coordinates":[119.27655171058603,40.48549780351963]},"properties":{"peak_name":"寿桃山978","peak_elev":967,"peak_lon":119.272509,"peak_lat":40.497625,"base_elev":406,"distance_m":1389.6,"vertical_relief_m":561.0,"max_jut":209.815,"search_radius_m":3000,"elev_angle_deg":21.9846}},{"type":"Feature","geometry":{"type":"Point","coordinates":[118.37751777423922,40.70001549336737]},"properties":{"peak_name":"小甲山1170","peak_elev":1191,"peak_lon":118.380213,"peak_lat":40.691526,"base_elev":721,"distance_m":969.9,"vertical_relief_m":470.0,"max_jut":204.7784,"search_radius_m":1000,"elev_angle_deg":25.8542}},{"type":"Feature","geometry":{"type":"Point","coordinates":[120.8005435900948,40.93690123378969]},"properties":{"peak_name":"小虹螺山鹰北顶717.2","peak_elev":715,"peak_lon":120.810515,"peak_lat":40.936093,"base_elev":291,"distance_m":844.5,"vertical_relief_m":424.0,"max_jut":190.6217,"search_radius_m":2500,"elev_angle_deg":26.66}},{"type":"Feature","geometry":{"type":"Point","coordinates":[119.75786903981728,40.29119220756458]},"properties":{"peak_name":"平顶山925","peak_elev":922,"peak_lon":119.754905,"peak_lat":40.299277,"base_elev":380,"distance_m":932.4,"vertical_relief_m":542.0,"max_jut":272.152,"search_radius_m":1625,"elev_angle_deg":30.1692}},{"type":"Feature","geometry":{"type":"Point","coordinates":[118.50256326178868,40.69812903127072]},"properties":{"peak_name":"广东山1299.2","peak_elev":1296,"peak_lon":118.481004,"peak_lat":40.699746,"base_elev":511,"distance_m":1830.9,"vertical_relief_m":785.0,"max_jut":309.9881,"search_radius_m":4000,"elev_angle_deg":23.2073}},{"type":"Feature","geometry":{"type":"Point","coordinates":[118.04927336942195,40.53966621515204]},"properties":{"peak_name":"月牙山1257.9","peak_elev":1249,"peak_lon":118.063422,"peak_lat":40.55664443969727,"base_elev":351,"distance_m":2234.0,"vertical_relief_m":898.0,"max_jut":334.8615,"search_radius_m":3000,"elev_angle_deg":21.8986}},{"type":"Feature","geometry":{"type":"Point","coordinates":[118.75265423688754,40.45693137748463]},"properties":{"peak_name":"柞子岭1401","peak_elev":1407,"peak_lon":118.748881,"peak_lat":40.478759765625,"base_elev":570,"distance_m":2445.0,"vertical_relief_m":837.0,"max_jut":270.7798,"search_radius_m":3250,"elev_angle_deg":18.8977}},{"type":"Feature","geometry":{"type":"Point","coordinates":[119.97615965385832,41.09590303907884]},"properties":{"peak_name":"楼子山1091","peak_elev":1088,"peak_lon":119.966727,"peak_lat":41.095095,"base_elev":683,"distance_m":797.5,"vertical_relief_m":405.0,"max_jut":183.7419,"search_radius_m":1125,"elev_angle_deg":26.9231}},{"type":"Feature","geometry":{"type":"Point","coordinates":[118.3368240918686,40.68438480742369]},"properties":{"peak_name":"牛盘山1136","peak_elev":1242,"peak_lon":118.343022,"peak_lat":40.673066,"base_elev":646,"distance_m":1361.8,"vertical_relief_m":596.0,"max_jut":238.8097,"search_radius_m":2000,"elev_angle_deg":23.6369}},{"type":"Feature","geometry":{"type":"Point","coordinates":[118.2864286044295,40.81589816501879]},"properties":{"peak_name":"牛盘山1244.5","peak_elev":1130,"peak_lon":118.298017,"peak_lat":40.832068,"base_elev":492,"distance_m":2044.5,"vertical_relief_m":638.0,"max_jut":189.983,"search_radius_m":2250,"elev_angle_deg":17.3309}},{"type":"Feature","geometry":{"type":"Point","coordinates":[118.07325838750796,40.8986330026862]},"properties":{"peak_name":"猫耳山1046.1","peak_elev":1044,"peak_lon":118.085116,"peak_lat":40.902406,"base_elev":575,"distance_m":1083.4,"vertical_relief_m":469.0,"max_jut":186.6284,"search_radius_m":2250,"elev_angle_deg":23.4076}},{"type":"Feature","geometry":{"type":"Point","coordinates":[118.33790207020957,40.71268173887346]},"properties":{"peak_name":"猴头子山1007","peak_elev":1048,"peak_lon":118.348682,"peak_lat":40.709178,"base_elev":429,"distance_m":990.5,"vertical_relief_m":619.0,"max_jut":328.4906,"search_radius_m":1125,"elev_angle_deg":32.0028}},{"type":"Feature","geometry":{"type":"Point","coordinates":[119.44229088050608,40.13380736978684]},"properties":{"peak_name":"王母峰/娘娘顶1348","peak_elev":1344,"peak_lon":119.424235,"peak_lat":40.133268,"base_elev":620,"distance_m":1540.0,"vertical_relief_m":724.0,"max_jut":308.6597,"search_radius_m":10000,"elev_angle_deg":25.1796}},{"type":"Feature","geometry":{"type":"Point","coordinates":[118.29801687159464,40.78760123356902]},"properties":{"peak_name":"甲山1255.5","peak_elev":1246,"peak_lon":118.306641,"peak_lat":40.800267,"base_elev":457,"distance_m":1583.7,"vertical_relief_m":789.0,"max_jut":351.7017,"search_radius_m":3000,"elev_angle_deg":26.4825}},{"type":"Feature","geometry":{"type":"Point","coordinates":[118.36296506663648,40.81751513253021]},"properties":{"peak_name":"甲山梁1129.2","peak_elev":1135,"peak_lon":118.351377,"peak_lat":40.825061,"base_elev":634,"distance_m":1287.6,"vertical_relief_m":501.0,"max_jut":181.8208,"search_radius_m":2000,"elev_angle_deg":21.2608}},{"type":"Feature","geometry":{"type":"Point","coordinates":[118.28777607735567,40.81589816501879]},"properties":{"peak_name":"盘龙山1140","peak_elev":1143,"peak_lon":118.291549,"peak_lat":40.826139,"base_elev":500,"distance_m":1181.0,"vertical_relief_m":643.0,"max_jut":307.2352,"search_radius_m":1500,"elev_angle_deg":28.5663}},{"type":"Feature","geometry":{"type":"Point","coordinates":[118.39907734105807,41.02125303896851]},"properties":{"peak_name":"石湖上1070","peak_elev":1063,"peak_lon":118.394496,"peak_lat":41.026912,"base_elev":653,"distance_m":737.2,"vertical_relief_m":410.0,"max_jut":199.2532,"search_radius_m":750,"elev_angle_deg":29.081}},{"type":"Feature","geometry":{"type":"Point","coordinates":[119.56571940054413,40.32676549281571]},"properties":{"peak_name":"秃老顶1100.9","peak_elev":1099,"peak_lon":119.570975,"peak_lat":40.339432,"base_elev":536,"distance_m":1475.7,"vertical_relief_m":563.0,"max_jut":200.504,"search_radius_m":2000,"elev_angle_deg":20.8825}},{"type":"Feature","geometry":{"type":"Point","coordinates":[118.2645995430254,40.62267054740468]},"properties":{"peak_name":"窟窿洞972","peak_elev":975,"peak_lon":118.259749,"peak_lat":40.626712799072266,"base_elev":524,"distance_m":608.2,"vertical_relief_m":451.0,"max_jut":268.7046,"search_radius_m":2000,"elev_angle_deg":36.5581}},{"type":"Feature","geometry":{"type":"Point","coordinates":[118.1931834779379,40.832337334718176]},"properties":{"peak_name":"笔架山1022.3","peak_elev":1012,"peak_lon":118.200999,"peak_lat":40.839614,"base_elev":344,"distance_m":1042.8,"vertical_relief_m":668.0,"max_jut":360.3763,"search_radius_m":1500,"elev_angle_deg":32.6429}},{"type":"Feature","geometry":{"type":"Point","coordinates":[118.91084755842098,40.769814590943454]},"properties":{"peak_name":"红石砬1204","peak_elev":1200,"peak_lon":118.905188,"peak_lat":40.775203704833984,"base_elev":720,"distance_m":765.8,"vertical_relief_m":480.0,"max_jut":254.9624,"search_radius_m":1000,"elev_angle_deg":32.0793}},{"type":"Feature","geometry":{"type":"Point","coordinates":[118.93267661982507,40.78275033103478]},"properties":{"peak_name":"红石砬子1257","peak_elev":1258,"peak_lon":118.925939,"peak_lat":40.786523,"base_elev":786,"distance_m":706.4,"vertical_relief_m":472.0,"max_jut":262.4559,"search_radius_m":2000,"elev_angle_deg":33.7499}},{"type":"Feature","geometry":{"type":"Point","coordinates":[119.7497842022602,40.36260827265208]},"properties":{"peak_name":"老佛山754","peak_elev":750,"peak_lon":119.762451171875,"peak_lat":40.354793,"base_elev":202,"distance_m":1382.4,"vertical_relief_m":548.0,"max_jut":202.1173,"search_radius_m":2000,"elev_angle_deg":21.624}},{"type":"Feature","geometry":{"type":"Point","coordinates":[119.40375315481737,40.16991964420844]},"properties":{"peak_name":"老岭/祖山/香瓜顶/寿星峰1370.1","peak_elev":1371,"peak_lon":119.4110336303711,"peak_lat":40.147417,"base_elev":511,"distance_m":2574.5,"vertical_relief_m":860.0,"max_jut":272.1872,"search_radius_m":6500,"elev_angle_deg":18.4717}},{"type":"Feature","geometry":{"type":"Point","coordinates":[119.39620730643075,40.09014924697863]},"properties":{"peak_name":"背牛顶956","peak_elev":938,"peak_lon":119.393782,"peak_lat":40.086646,"base_elev":508,"distance_m":440.6,"vertical_relief_m":430.0,"max_jut":300.258,"search_radius_m":500,"elev_angle_deg":44.3024}},{"type":"Feature","geometry":{"type":"Point","coordinates":[118.88416759448263,40.52699996964595]},"properties":{"peak_name":"芹菜顶1497.3","peak_elev":1497,"peak_lon":118.858027,"peak_lat":40.525922,"base_elev":773,"distance_m":2218.2,"vertical_relief_m":724.0,"max_jut":225.1513,"search_radius_m":3000,"elev_angle_deg":18.0762}},{"type":"Feature","geometry":{"type":"Point","coordinates":[118.51738546397664,41.0738044830895]},"properties":{"peak_name":"莲花山1200","peak_elev":1187,"peak_lon":118.516845703125,"peak_lat":41.077577,"base_elev":840,"distance_m":421.4,"vertical_relief_m":347.0,"max_jut":220.4157,"search_radius_m":750,"elev_angle_deg":39.4696}},{"type":"Feature","geometry":{"type":"Point","coordinates":[118.0616701203428,40.72022758726006]},"properties":{"peak_name":"西山顶1000","peak_elev":1007,"peak_lon":118.050082,"peak_lat":40.713221,"base_elev":557,"distance_m":1250.6,"vertical_relief_m":450.0,"max_jut":152.492,"search_radius_m":2750,"elev_angle_deg":19.7901}},{"type":"Feature","geometry":{"type":"Point","coordinates":[118.02528835133596,40.671179572747135]},"properties":{"peak_name":"西梁高尖1100","peak_elev":1069,"peak_lon":118.021246,"peak_lat":40.684789,"base_elev":271,"distance_m":1549.5,"vertical_relief_m":798.0,"max_jut":365.0486,"search_radius_m":2750,"elev_angle_deg":27.2487}},{"type":"Feature","geometry":{"type":"Point","coordinates":[118.38452463345536,41.0091257826329]},"properties":{"peak_name":"西沟脑1183(2)","peak_elev":1173,"peak_lon":118.379404,"peak_lat":41.01774978637695,"base_elev":643,"distance_m":1050.1,"vertical_relief_m":530.0,"max_jut":238.6826,"search_radius_m":2250,"elev_angle_deg":26.7807}},{"type":"Feature","geometry":{"type":"Point","coordinates":[118.09077553554827,40.55853083611854]},"properties":{"peak_name":"转角楼大南山1150","peak_elev":1163,"peak_lon":118.082421,"peak_lat":40.570658,"base_elev":497,"distance_m":1521.2,"vertical_relief_m":666.0,"max_jut":266.9939,"search_radius_m":1875,"elev_angle_deg":23.6444}},{"type":"Feature","geometry":{"type":"Point","coordinates":[118.77205784702451,40.53023390466878]},"properties":{"peak_name":"都山1846.3","peak_elev":1841,"peak_lon":118.793348,"peak_lat":40.515142,"base_elev":917,"distance_m":2462.4,"vertical_relief_m":924.0,"max_jut":324.8146,"search_radius_m":5250,"elev_angle_deg":20.5683}},{"type":"Feature","geometry":{"type":"Point","coordinates":[119.55547860630516,40.32514852530429]},"properties":{"peak_name":"鞍子山1167.7","peak_elev":1168,"peak_lon":119.554131,"peak_lat":40.309787,"base_elev":519,"distance_m":1709.6,"vertical_relief_m":649.0,"max_jut":230.0599,"search_radius_m":2250,"elev_angle_deg":20.7878}},{"type":"Feature","geometry":{"type":"Point","coordinates":[118.75130676396137,40.276100510791366]},"properties":{"peak_name":"锥子山北帽/马山雨854","peak_elev":853,"peak_lon":118.755619,"peak_lat":40.282299,"base_elev":380,"distance_m":779.9,"vertical_relief_m":473.0,"max_jut":245.1927,"search_radius_m":1125,"elev_angle_deg":31.2363}},{"type":"Feature","geometry":{"type":"Point","coordinates":[118.22363636606956,40.54613408519769]},"properties":{"peak_name":"西石湖高尖808","peak_elev":799,"peak_lon":118.214204,"peak_lat":40.540205,"base_elev":256,"distance_m":1035.4,"vertical_relief_m":543.0,"max_jut":252.3852,"search_radius_m":2000,"elev_angle_deg":27.6741}},{"type":"Feature","geometry":{"type":"Point","coordinates":[118.5187329369028,40.563112244067554]},"properties":{"peak_name":"鸡冠子山1083.4","peak_elev":1082,"peak_lon":118.535981,"peak_lat":40.558261,"base_elev":459,"distance_m":1556.9,"vertical_relief_m":623.0,"max_jut":231.8564,"search_radius_m":1625,"elev_angle_deg":21.809}},{"type":"Feature","geometry":{"type":"Point","coordinates":[118.3653905179036,40.60811783980194]},"properties":{"peak_name":"鸭嘴山1110","peak_elev":1105,"peak_lon":118.362965,"peak_lat":40.622401,"base_elev":338,"distance_m":1599.3,"vertical_relief_m":767.0,"max_jut":331.3254,"search_radius_m":2750,"elev_angle_deg":25.6217}},{"type":"Feature","geometry":{"type":"Point","coordinates":[118.31526452504974,40.74421260534605]},"properties":{"peak_name":"黄羊洞1321.3","peak_elev":1315,"peak_lon":118.317959,"peak_lat":40.739092,"base_elev":778,"distance_m":612.5,"vertical_relief_m":537.0,"max_jut":353.8594,"search_radius_m":2500,"elev_angle_deg":41.2422}},{"type":"Feature","geometry":{"type":"Point","coordinates":[118.63704105982136,40.87060556582167]},"properties":{"peak_name":"黑山1004.7","peak_elev":1006,"peak_lon":118.639736,"peak_lat":40.86467742919922,"base_elev":584,"distance_m":696.4,"vertical_relief_m":422.0,"max_jut":218.5518,"search_radius_m":1875,"elev_angle_deg":31.2148}},{"type":"Feature","geometry":{"type":"Point","coordinates":[119.96834431088648,40.78328932020525]},"properties":{"peak_name":"黑山1140","peak_elev":1138,"peak_lon":119.957295,"peak_lat":40.795417,"base_elev":448,"distance_m":1638.2,"vertical_relief_m":690.0,"max_jut":267.836,"search_radius_m":4000,"elev_angle_deg":22.8405}},{"type":"Feature","geometry":{"type":"Point","coordinates":[118.08511614925833,41.07110953723714]},"properties":{"peak_name":"黑山1275.8","peak_elev":1274,"peak_lon":118.095087,"peak_lat":41.080542,"base_elev":696,"distance_m":1341.4,"vertical_relief_m":578.0,"max_jut":228.7712,"search_radius_m":3250,"elev_angle_deg":23.3109}},{"type":"Feature","geometry":{"type":"Point","coordinates":[118.3713193987788,40.66983209982095]},"properties":{"peak_name":"龙桲罗洼1274","peak_elev":1268,"peak_lon":118.3632354736328,"peak_lat":40.676569,"base_elev":778,"distance_m":1013.3,"vertical_relief_m":490.0,"max_jut":213.39,"search_radius_m":2000,"elev_angle_deg":25.8069}},{"type":"Feature","geometry":{"type":"Point","coordinates":[119.86270243347404,40.28903625088269]},"properties":{"peak_name":"龙门山878","peak_elev":875,"peak_lon":119.852731,"peak_lat":40.294696,"base_elev":222,"distance_m":1055.4,"vertical_relief_m":653.0,"max_jut":343.8707,"search_radius_m":1375,"elev_angle_deg":31.746}}]}