{"type":"FeatureCollection","features":[{"type":"Feature","geometry":{"type":"Point","coordinates":[113.53443058296564,42.98263463031508]},"properties":{"peak_name":"赛汉乌力吉1180","peak_elev":1180,"peak_lon":113.53469848632812,"peak_lat":42.982364654541016,"base_elev":1160,"distance_m":37.1,"vertical_relief_m":20.0,"max_jut":9.4912,"search_radius_m":125,"elev_angle_deg":28.3284}},{"type":"Feature","geometry":{"type":"Point","coordinates":[113.8963618109374,42.66813444934483]},"properties":{"peak_name":"瑙滚努如1248","peak_elev":1248,"peak_lon":113.896092,"peak_lat":42.66759490966797,"base_elev":1224,"distance_m":63.9,"vertical_relief_m":24.0,"max_jut":8.4361,"search_radius_m":125,"elev_angle_deg":20.5855}},{"type":"Feature","geometry":{"type":"Point","coordinates":[113.2897294995715,42.30647271595831]},"properties":{"peak_name":"浩尧尔敖包1358","peak_elev":1358,"peak_lon":113.287843,"peak_lat":42.307551,"base_elev":1295,"distance_m":196.3,"vertical_relief_m":63.0,"max_jut":19.2726,"search_radius_m":500,"elev_angle_deg":17.7934}},{"type":"Feature","geometry":{"type":"Point","coordinates":[113.19163347054564,42.29407596503746]},"properties":{"peak_name":"1366无名峰","peak_elev":1366,"peak_lon":113.191633,"peak_lat":42.29730987548828,"base_elev":1305,"distance_m":359.2,"vertical_relief_m":61.0,"max_jut":10.202,"search_radius_m":375,"elev_angle_deg":9.6381}},{"type":"Feature","geometry":{"type":"Point","coordinates":[114.47820062046162,42.41561802297883]},"properties":{"peak_name":"1372无名峰","peak_elev":1372,"peak_lon":114.477392,"peak_lat":42.417235,"base_elev":1322,"distance_m":191.6,"vertical_relief_m":50.0,"max_jut":12.6214,"search_radius_m":375,"elev_angle_deg":14.6257}},{"type":"Feature","geometry":{"type":"Point","coordinates":[113.40588166580814,42.36279708427261]},"properties":{"peak_name":"都仁乌力吉1375","peak_elev":1375,"peak_lon":113.405747,"peak_lat":42.361989,"base_elev":1335,"distance_m":90.4,"vertical_relief_m":40.0,"max_jut":16.1655,"search_radius_m":125,"elev_angle_deg":23.8683}},{"type":"Feature","geometry":{"type":"Point","coordinates":[114.45071217276757,42.39648390742709]},"properties":{"peak_name":"1393无名峰","peak_elev":1393,"peak_lon":114.450038,"peak_lat":42.394597,"base_elev":1328,"distance_m":216.8,"vertical_relief_m":65.0,"max_jut":18.6516,"search_radius_m":250,"elev_angle_deg":16.6895}},{"type":"Feature","geometry":{"type":"Point","coordinates":[113.3236858173112,42.21322758946671]},"properties":{"peak_name":"1395无名峰","peak_elev":1395,"peak_lon":113.323416,"peak_lat":42.210802,"base_elev":1328,"distance_m":270.4,"vertical_relief_m":67.0,"max_jut":16.1013,"search_radius_m":375,"elev_angle_deg":13.9165}},{"type":"Feature","geometry":{"type":"Point","coordinates":[113.34524538413008,42.18546964718741]},"properties":{"peak_name":"1397无名峰","peak_elev":1397,"peak_lon":113.344167,"peak_lat":42.18304443359375,"base_elev":1323,"distance_m":283.7,"vertical_relief_m":74.0,"max_jut":18.6628,"search_radius_m":500,"elev_angle_deg":14.6192}},{"type":"Feature","geometry":{"type":"Point","coordinates":[113.81254899492905,42.283296181628025]},"properties":{"peak_name":"1407无名峰","peak_elev":1407,"peak_lon":113.812818,"peak_lat":42.284105,"base_elev":1375,"distance_m":92.5,"vertical_relief_m":32.0,"max_jut":10.4499,"search_radius_m":125,"elev_angle_deg":19.0829}},{"type":"Feature","geometry":{"type":"Point","coordinates":[113.32772823608974,42.26604852817293]},"properties":{"peak_name":"阿拉坦敖包1413","peak_elev":1413,"peak_lon":113.325033,"peak_lat":42.266588,"base_elev":1342,"distance_m":230.3,"vertical_relief_m":71.0,"max_jut":20.9629,"search_radius_m":875,"elev_angle_deg":17.1342}},{"type":"Feature","geometry":{"type":"Point","coordinates":[113.65705061924795,42.24880087471784]},"properties":{"peak_name":"宝格都音敖包1414","peak_elev":1413,"peak_lon":113.64667510986328,"peak_lat":42.248666,"base_elev":1292,"distance_m":856.4,"vertical_relief_m":121.0,"max_jut":16.9717,"search_radius_m":1125,"elev_angle_deg":8.042}},{"type":"Feature","geometry":{"type":"Point","coordinates":[113.33096217111256,42.19759690352303]},"properties":{"peak_name":"1420无名峰","peak_elev":1420,"peak_lon":113.327728,"peak_lat":42.198136,"base_elev":1337,"distance_m":273.8,"vertical_relief_m":83.0,"max_jut":24.1369,"search_radius_m":750,"elev_angle_deg":16.8642}},{"type":"Feature","geometry":{"type":"Point","coordinates":[114.18283455504312,42.46816946709983]},"properties":{"peak_name":"1423无名峰","peak_elev":1424,"peak_lon":114.178118,"peak_lat":42.463992,"base_elev":1322,"distance_m":604.8,"vertical_relief_m":102.0,"max_jut":16.9702,"search_radius_m":9500,"elev_angle_deg":9.5729}},{"type":"Feature","geometry":{"type":"Point","coordinates":[114.12435423004692,42.43556062228629]},"properties":{"peak_name":"1425无名峰","peak_elev":1425,"peak_lon":114.121569,"peak_lat":42.431428,"base_elev":1323,"distance_m":513.1,"vertical_relief_m":102.0,"max_jut":19.8823,"search_radius_m":1625,"elev_angle_deg":11.2433}},{"type":"Feature","geometry":{"type":"Point","coordinates":[113.46624845290096,42.20217831147203]},"properties":{"peak_name":"1427无名峰(1)","peak_elev":1427,"peak_lon":113.467731,"peak_lat":42.202987,"base_elev":1378,"distance_m":151.9,"vertical_relief_m":49.0,"max_jut":15.0653,"search_radius_m":250,"elev_angle_deg":17.8787}},{"type":"Feature","geometry":{"type":"Point","coordinates":[114.15507661276382,42.47706278841261]},"properties":{"peak_name":"1428无名峰","peak_elev":1428,"peak_lon":114.161275,"peak_lat":42.46574401855469,"base_elev":1289,"distance_m":1356.7,"vertical_relief_m":139.0,"max_jut":14.1597,"search_radius_m":9750,"elev_angle_deg":5.8498}},{"type":"Feature","geometry":{"type":"Point","coordinates":[114.1157304033194,42.42882325765539]},"properties":{"peak_name":"1430无名峰","peak_elev":1430,"peak_lon":114.118479,"peak_lat":42.42650604248047,"base_elev":1344,"distance_m":342.7,"vertical_relief_m":86.0,"max_jut":20.9458,"search_radius_m":1375,"elev_angle_deg":14.0874}},{"type":"Feature","geometry":{"type":"Point","coordinates":[113.3875560340121,42.132379213895945]},"properties":{"peak_name":"1431无名峰(1)","peak_elev":1431,"peak_lon":113.385939,"peak_lat":42.1342658996582,"base_elev":1363,"distance_m":248.6,"vertical_relief_m":68.0,"max_jut":17.9425,"search_radius_m":375,"elev_angle_deg":15.298}},{"type":"Feature","geometry":{"type":"Point","coordinates":[114.15238166691148,42.44337596525813]},"properties":{"peak_name":"1432无名峰","peak_elev":1432,"peak_lon":114.152382,"peak_lat":42.440142,"base_elev":1351,"distance_m":359.2,"vertical_relief_m":81.0,"max_jut":17.7993,"search_radius_m":2000,"elev_angle_deg":12.7077}},{"type":"Feature","geometry":{"type":"Point","coordinates":[113.1695349145563,42.1132450983442]},"properties":{"peak_name":"黑山1445","peak_elev":1445,"peak_lon":113.16683959960938,"peak_lat":42.114054,"base_elev":1388,"distance_m":240.3,"vertical_relief_m":57.0,"max_jut":13.18,"search_radius_m":625,"elev_angle_deg":13.3441}},{"type":"Feature","geometry":{"type":"Point","coordinates":[114.19226686552638,42.48083571260591]},"properties":{"peak_name":"文贡乌拉1456","peak_elev":1456,"peak_lon":114.195164,"peak_lat":42.47490692138672,"base_elev":1293,"distance_m":700.4,"vertical_relief_m":163.0,"max_jut":36.9285,"search_radius_m":1500,"elev_angle_deg":13.1009}},{"type":"Feature","geometry":{"type":"Point","coordinates":[114.4728107287569,42.34258499037991]},"properties":{"peak_name":"毛德特浑迪1458","peak_elev":1458,"peak_lon":114.472002,"peak_lat":42.34150695800781,"base_elev":1399,"distance_m":137.0,"vertical_relief_m":59.0,"max_jut":23.3271,"search_radius_m":375,"elev_angle_deg":23.2995}},{"type":"Feature","geometry":{"type":"Point","coordinates":[113.4724468283614,42.21484455697812]},"properties":{"peak_name":"巴彦陶格1462","peak_elev":1462,"peak_lon":113.472177,"peak_lat":42.217809,"base_elev":1388,"distance_m":330.0,"vertical_relief_m":74.0,"max_jut":16.1741,"search_radius_m":625,"elev_angle_deg":12.6391}},{"type":"Feature","geometry":{"type":"Point","coordinates":[113.95403365217788,42.15555574822623]},"properties":{"peak_name":"1463无名峰","peak_elev":1463,"peak_lon":113.956729,"peak_lat":42.15461349487305,"base_elev":1400,"distance_m":246.1,"vertical_relief_m":63.0,"max_jut":15.6506,"search_radius_m":625,"elev_angle_deg":14.359}},{"type":"Feature","geometry":{"type":"Point","coordinates":[114.2060110893734,42.1771153150451]},"properties":{"peak_name":"巴彦罕盖1467","peak_elev":1467,"peak_lon":114.208706,"peak_lat":42.17846298217773,"base_elev":1397,"distance_m":268.3,"vertical_relief_m":70.0,"max_jut":17.6964,"search_radius_m":500,"elev_angle_deg":14.6226}},{"type":"Feature","geometry":{"type":"Point","coordinates":[113.28568708079295,42.13642163267448]},"properties":{"peak_name":"1468无名峰","peak_elev":1468,"peak_lon":113.283801,"peak_lat":42.135613,"base_elev":1411,"distance_m":179.9,"vertical_relief_m":57.0,"max_jut":17.2388,"search_radius_m":375,"elev_angle_deg":17.5804}},{"type":"Feature","geometry":{"type":"Point","coordinates":[114.48844141470056,42.17954076631222]},"properties":{"peak_name":"1469无名峰","peak_elev":1469,"peak_lon":114.491271,"peak_lat":42.180349,"base_elev":1389,"distance_m":250.4,"vertical_relief_m":80.0,"max_jut":24.3929,"search_radius_m":375,"elev_angle_deg":17.7181}},{"type":"Feature","geometry":{"type":"Point","coordinates":[113.30266523966282,42.20379527898345]},"properties":{"peak_name":"1471无名峰","peak_elev":1471,"peak_lon":113.302126,"peak_lat":42.201639,"base_elev":1393,"distance_m":243.6,"vertical_relief_m":78.0,"max_jut":23.7639,"search_radius_m":375,"elev_angle_deg":17.7549}},{"type":"Feature","geometry":{"type":"Point","coordinates":[114.48547697426298,42.35093932252223]},"properties":{"peak_name":"乌斯特音乌拉1473","peak_elev":1473,"peak_lon":114.487902,"peak_lat":42.349053,"base_elev":1397,"distance_m":289.5,"vertical_relief_m":76.0,"max_jut":19.3086,"search_radius_m":1000,"elev_angle_deg":14.7095}},{"type":"Feature","geometry":{"type":"Point","coordinates":[113.44064646730357,42.03832560364863]},"properties":{"peak_name":"1474无名峰","peak_elev":1474,"peak_lon":113.440107,"peak_lat":42.040347,"base_elev":1412,"distance_m":228.9,"vertical_relief_m":62.0,"max_jut":16.1934,"search_radius_m":375,"elev_angle_deg":15.1555}},{"type":"Feature","geometry":{"type":"Point","coordinates":[114.48817192011536,42.17927127172699]},"properties":{"peak_name":"1476无名峰","peak_elev":1476,"peak_lon":114.486285,"peak_lat":42.178732,"base_elev":1389,"distance_m":167.0,"vertical_relief_m":87.0,"max_jut":40.2628,"search_radius_m":250,"elev_angle_deg":27.5176}},{"type":"Feature","geometry":{"type":"Point","coordinates":[114.45529358071656,42.29973535132741]},"properties":{"peak_name":"1478无名峰(2)","peak_elev":1478,"peak_lon":114.453677,"peak_lat":42.298927307128906,"base_elev":1421,"distance_m":160.7,"vertical_relief_m":57.0,"max_jut":19.0791,"search_radius_m":375,"elev_angle_deg":19.5295}},{"type":"Feature","geometry":{"type":"Point","coordinates":[113.01780946306852,42.10623823912807]},"properties":{"peak_name":"1479无名峰","peak_elev":1479,"peak_lon":113.020774,"peak_lat":42.103274,"base_elev":1367,"distance_m":410.5,"vertical_relief_m":112.0,"max_jut":29.4846,"search_radius_m":625,"elev_angle_deg":15.261}},{"type":"Feature","geometry":{"type":"Point","coordinates":[114.45987498866558,42.27763679533808]},"properties":{"peak_name":"1484无名峰","peak_elev":1484,"peak_lon":114.459605,"peak_lat":42.27602005004883,"base_elev":1423,"distance_m":181.0,"vertical_relief_m":61.0,"max_jut":19.4678,"search_radius_m":250,"elev_angle_deg":18.6247}},{"type":"Feature","geometry":{"type":"Point","coordinates":[113.30940260429372,42.20325628981298]},"properties":{"peak_name":"巴彦敖包1486","peak_elev":1486,"peak_lon":113.308864,"peak_lat":42.19894409179688,"base_elev":1366,"distance_m":481.1,"vertical_relief_m":120.0,"max_jut":29.0165,"search_radius_m":625,"elev_angle_deg":14.0054}},{"type":"Feature","geometry":{"type":"Point","coordinates":[113.35036578124956,42.1447759648168]},"properties":{"peak_name":"1491无名峰(1)","peak_elev":1491,"peak_lon":113.350096,"peak_lat":42.141812,"base_elev":1404,"distance_m":330.0,"vertical_relief_m":87.0,"max_jut":22.158,"search_radius_m":375,"elev_angle_deg":14.7692}},{"type":"Feature","geometry":{"type":"Point","coordinates":[113.88692950045414,41.60713426727126]},"properties":{"peak_name":"小庙山东顶1492","peak_elev":1492,"peak_lon":113.887603,"peak_lat":41.60929107666016,"base_elev":1397,"distance_m":246.0,"vertical_relief_m":95.0,"max_jut":34.1903,"search_radius_m":750,"elev_angle_deg":21.1155}},{"type":"Feature","geometry":{"type":"Point","coordinates":[114.43777643267624,42.16687452080614]},"properties":{"peak_name":"1493无名峰","peak_elev":1493,"peak_lon":114.438046,"peak_lat":42.165258,"base_elev":1425,"distance_m":180.9,"vertical_relief_m":68.0,"max_jut":23.9014,"search_radius_m":1125,"elev_angle_deg":20.6012}},{"type":"Feature","geometry":{"type":"Point","coordinates":[114.35908401378737,42.24907036930307]},"properties":{"peak_name":"1497无名峰(2)","peak_elev":1497,"peak_lon":114.36663055419922,"peak_lat":42.246106,"base_elev":1348,"distance_m":704.5,"vertical_relief_m":149.0,"max_jut":30.8848,"search_radius_m":750,"elev_angle_deg":11.9419}},{"type":"Feature","geometry":{"type":"Point","coordinates":[114.39357932069755,42.15420827530005]},"properties":{"peak_name":"1499无名峰(2)","peak_elev":1499,"peak_lon":114.396409,"peak_lat":42.155286,"base_elev":1421,"distance_m":262.7,"vertical_relief_m":78.0,"max_jut":22.2374,"search_radius_m":875,"elev_angle_deg":16.537}},{"type":"Feature","geometry":{"type":"Point","coordinates":[114.20735856229958,42.21403607322241]},"properties":{"peak_name":"1500无名峰(2)","peak_elev":1500,"peak_lon":114.207628,"peak_lat":42.21187973022461,"base_elev":1432,"distance_m":240.6,"vertical_relief_m":68.0,"max_jut":18.48,"search_radius_m":750,"elev_angle_deg":15.7817}},{"type":"Feature","geometry":{"type":"Point","coordinates":[113.96481343558732,41.59824094595848]},"properties":{"peak_name":"十三脑包山1501","peak_elev":1501,"peak_lon":113.970742,"peak_lat":41.598241,"base_elev":1378,"distance_m":494.3,"vertical_relief_m":123.0,"max_jut":29.776,"search_radius_m":1500,"elev_angle_deg":13.9735}},{"type":"Feature","geometry":{"type":"Point","coordinates":[114.49248383347911,42.310245640151614]},"properties":{"peak_name":"1502无名峰(2)","peak_elev":1502,"peak_lon":114.491406,"peak_lat":42.313749,"base_elev":1403,"distance_m":399.2,"vertical_relief_m":99.0,"max_jut":23.8123,"search_radius_m":500,"elev_angle_deg":13.9281}},{"type":"Feature","geometry":{"type":"Point","coordinates":[113.4002222795182,42.124563870924106]},"properties":{"peak_name":"1504无名峰(1)","peak_elev":1504,"peak_lon":113.3994140625,"peak_lat":42.12133026123047,"base_elev":1394,"distance_m":365.3,"vertical_relief_m":110.0,"max_jut":31.6859,"search_radius_m":1000,"elev_angle_deg":16.7582}},{"type":"Feature","geometry":{"type":"Point","coordinates":[114.44855621608568,42.26146712022392]},"properties":{"peak_name":"1505无名峰(2)","peak_elev":1505,"peak_lon":114.447478,"peak_lat":42.25984954833984,"base_elev":1413,"distance_m":200.5,"vertical_relief_m":92.0,"max_jut":38.3583,"search_radius_m":375,"elev_angle_deg":24.6482}},{"type":"Feature","geometry":{"type":"Point","coordinates":[114.4728107287569,42.30647271595831]},"properties":{"peak_name":"1506无名峰(3)","peak_elev":1506,"peak_lon":114.475236,"peak_lat":42.307551,"base_elev":1420,"distance_m":233.1,"vertical_relief_m":86.0,"max_jut":29.812,"search_radius_m":250,"elev_angle_deg":20.2511}},{"type":"Feature","geometry":{"type":"Point","coordinates":[114.13109159467784,42.11567054961132]},"properties":{"peak_name":"呼和呼特勒1512","peak_elev":1512,"peak_lon":114.134326,"peak_lat":42.114593,"base_elev":1418,"distance_m":293.0,"vertical_relief_m":94.0,"max_jut":28.7634,"search_radius_m":625,"elev_angle_deg":17.7872}},{"type":"Feature","geometry":{"type":"Point","coordinates":[114.48439899592204,42.21834798658619]},"properties":{"peak_name":"1513无名峰(2)","peak_elev":1513,"peak_lon":114.486285,"peak_lat":42.216731,"base_elev":1437,"distance_m":237.7,"vertical_relief_m":76.0,"max_jut":23.1546,"search_radius_m":375,"elev_angle_deg":17.7307}},{"type":"Feature","geometry":{"type":"Point","coordinates":[114.41459989834595,42.14720141608392]},"properties":{"peak_name":"1514无名峰(2)","peak_elev":1514,"peak_lon":114.412444,"peak_lat":42.148279,"base_elev":1433,"distance_m":214.7,"vertical_relief_m":81.0,"max_jut":28.6324,"search_radius_m":625,"elev_angle_deg":20.67}},{"type":"Feature","geometry":{"type":"Point","coordinates":[113.96643040309873,42.13561314891878]},"properties":{"peak_name":"宝格德1516","peak_elev":1516,"peak_lon":113.964948,"peak_lat":42.138308,"base_elev":1429,"distance_m":323.5,"vertical_relief_m":87.0,"max_jut":22.5863,"search_radius_m":500,"elev_angle_deg":15.0526}},{"type":"Feature","geometry":{"type":"Point","coordinates":[113.27598527572448,42.09357199362199]},"properties":{"peak_name":"哈登乌拉1518","peak_elev":1518,"peak_lon":113.275985,"peak_lat":42.09465026855469,"base_elev":1469,"distance_m":119.8,"vertical_relief_m":49.0,"max_jut":18.537,"search_radius_m":250,"elev_angle_deg":22.2453}},{"type":"Feature","geometry":{"type":"Point","coordinates":[113.9098365401992,42.21592253531906]},"properties":{"peak_name":"宝格都乌拉1520","peak_elev":1520,"peak_lon":113.906737,"peak_lat":42.213228,"base_elev":1417,"distance_m":393.8,"vertical_relief_m":103.0,"max_jut":26.0748,"search_radius_m":625,"elev_angle_deg":14.6576}},{"type":"Feature","geometry":{"type":"Point","coordinates":[114.41756433878356,42.15663372656717]},"properties":{"peak_name":"1521无名峰(2)","peak_elev":1521,"peak_lon":114.415139,"peak_lat":42.15340042114258,"base_elev":1418,"distance_m":411.3,"vertical_relief_m":103.0,"max_jut":25.0167,"search_radius_m":500,"elev_angle_deg":14.0592}},{"type":"Feature","geometry":{"type":"Point","coordinates":[114.0362295006748,41.67828083777353]},"properties":{"peak_name":"1522无名峰","peak_elev":1522,"peak_lon":114.037307,"peak_lat":41.68070602416992,"base_elev":1438,"distance_m":283.9,"vertical_relief_m":84.0,"max_jut":23.815,"search_radius_m":625,"elev_angle_deg":16.4824}},{"type":"Feature","geometry":{"type":"Point","coordinates":[114.42187625214731,42.24529744510977]},"properties":{"peak_name":"1524无名峰(2)","peak_elev":1524,"peak_lon":114.421607,"peak_lat":42.244219,"base_elev":1477,"distance_m":121.8,"vertical_relief_m":47.0,"max_jut":16.9023,"search_radius_m":375,"elev_angle_deg":21.1005}},{"type":"Feature","geometry":{"type":"Point","coordinates":[114.31677336390534,42.24745340179166]},"properties":{"peak_name":"1525无名峰(2)","peak_elev":1525,"peak_lon":114.31865692138672,"peak_lat":42.24394989013672,"base_elev":1408,"distance_m":419.1,"vertical_relief_m":117.0,"max_jut":31.4465,"search_radius_m":625,"elev_angle_deg":15.5981}},{"type":"Feature","geometry":{"type":"Point","coordinates":[113.86698690114667,42.114323076685146]},"properties":{"peak_name":"1526无名峰(1)","peak_elev":1526,"peak_lon":113.869951,"peak_lat":42.11297607421875,"base_elev":1443,"distance_m":287.2,"vertical_relief_m":83.0,"max_jut":23.0786,"search_radius_m":500,"elev_angle_deg":16.1191}},{"type":"Feature","geometry":{"type":"Point","coordinates":[114.37013329178204,42.250956831399726]},"properties":{"peak_name":"乃满乌拉1528","peak_elev":1528,"peak_lon":114.373906,"peak_lat":42.246645,"base_elev":1386,"distance_m":571.3,"vertical_relief_m":142.0,"max_jut":34.2562,"search_radius_m":875,"elev_angle_deg":13.9583}},{"type":"Feature","geometry":{"type":"Point","coordinates":[113.50505567317494,41.57290845494631]},"properties":{"peak_name":"1531无名峰","peak_elev":1531,"peak_lon":113.503169,"peak_lat":41.573178,"base_elev":1462,"distance_m":160.2,"vertical_relief_m":69.0,"max_jut":27.3553,"search_radius_m":375,"elev_angle_deg":23.3021}},{"type":"Feature","geometry":{"type":"Point","coordinates":[114.47146325583071,42.28275719245755]},"properties":{"peak_name":"和日也德音敖包1532","peak_elev":1532,"peak_lon":114.467421,"peak_lat":42.283296,"base_elev":1427,"distance_m":338.7,"vertical_relief_m":105.0,"max_jut":31.1591,"search_radius_m":625,"elev_angle_deg":17.2239}},{"type":"Feature","geometry":{"type":"Point","coordinates":[114.27446271402331,42.26146712022392]},"properties":{"peak_name":"1533无名峰","peak_elev":1533,"peak_lon":114.271364,"peak_lat":42.259042,"base_elev":1425,"distance_m":371.4,"vertical_relief_m":108.0,"max_jut":30.1754,"search_radius_m":1000,"elev_angle_deg":16.214}},{"type":"Feature","geometry":{"type":"Point","coordinates":[114.42591867092588,42.271168925292415]},"properties":{"peak_name":"1534无名峰","peak_elev":1534,"peak_lon":114.426727,"peak_lat":42.269013,"base_elev":1457,"distance_m":248.6,"vertical_relief_m":77.0,"max_jut":22.7664,"search_radius_m":375,"elev_angle_deg":17.2096}},{"type":"Feature","geometry":{"type":"Point","coordinates":[113.11078509497489,41.48559220932989]},"properties":{"peak_name":"1535无名峰","peak_elev":1535,"peak_lon":113.107416,"peak_lat":41.484379,"base_elev":1453,"distance_m":312.0,"vertical_relief_m":82.0,"max_jut":20.8819,"search_radius_m":625,"elev_angle_deg":14.7255}},{"type":"Feature","geometry":{"type":"Point","coordinates":[114.28093058406895,42.25472975559303]},"properties":{"peak_name":"1536无名峰","peak_elev":1536,"peak_lon":114.278236,"peak_lat":42.252574,"base_elev":1429,"distance_m":326.8,"vertical_relief_m":107.0,"max_jut":33.3159,"search_radius_m":750,"elev_angle_deg":18.1293}},{"type":"Feature","geometry":{"type":"Point","coordinates":[113.92762318282476,42.11674852795227]},"properties":{"peak_name":"1537无名峰(2)","peak_elev":1537,"peak_lon":113.928971,"peak_lat":42.117288,"base_elev":1478,"distance_m":126.5,"vertical_relief_m":59.0,"max_jut":24.9676,"search_radius_m":250,"elev_angle_deg":25.0045}},{"type":"Feature","geometry":{"type":"Point","coordinates":[113.94810477130268,42.11108914166231]},"properties":{"peak_name":"1538无名峰(4)","peak_elev":1538,"peak_lon":113.949991,"peak_lat":42.112437,"base_elev":1452,"distance_m":216.2,"vertical_relief_m":86.0,"max_jut":31.8076,"search_radius_m":375,"elev_angle_deg":21.6917}},{"type":"Feature","geometry":{"type":"Point","coordinates":[113.34228094369249,42.13291820306642]},"properties":{"peak_name":"1539无名峰","peak_elev":1539,"peak_lon":113.339586,"peak_lat":42.134805,"base_elev":1456,"distance_m":305.9,"vertical_relief_m":83.0,"max_jut":21.7536,"search_radius_m":1375,"elev_angle_deg":15.1806}},{"type":"Feature","geometry":{"type":"Point","coordinates":[113.35413870544286,42.08818210191727]},"properties":{"peak_name":"1540无名峰(1)","peak_elev":1540,"peak_lon":113.352791,"peak_lat":42.085487365722656,"base_elev":1447,"distance_m":319.4,"vertical_relief_m":93.0,"max_jut":25.9831,"search_radius_m":625,"elev_angle_deg":16.234}},{"type":"Feature","geometry":{"type":"Point","coordinates":[114.33024809316711,42.17145592875514]},"properties":{"peak_name":"1541无名峰(1)","peak_elev":1541,"peak_lon":114.326475,"peak_lat":42.1693000793457,"base_elev":1450,"distance_m":393.1,"vertical_relief_m":91.0,"max_jut":20.5465,"search_radius_m":500,"elev_angle_deg":13.034}},{"type":"Feature","geometry":{"type":"Point","coordinates":[114.20277715435056,42.11216712000326]},"properties":{"peak_name":"1542无名峰(2)","peak_elev":1542,"peak_lon":114.205876,"peak_lat":42.112706,"base_elev":1471,"distance_m":263.2,"vertical_relief_m":71.0,"max_jut":18.5347,"search_radius_m":500,"elev_angle_deg":15.0966}},{"type":"Feature","geometry":{"type":"Point","coordinates":[114.28012210031326,42.24610592886548]},"properties":{"peak_name":"1543无名峰(2)","peak_elev":1543,"peak_lon":114.282143,"peak_lat":42.24906921386719,"base_elev":1435,"distance_m":369.0,"vertical_relief_m":108.0,"max_jut":30.3289,"search_radius_m":750,"elev_angle_deg":16.3139}},{"type":"Feature","geometry":{"type":"Point","coordinates":[114.16154448280948,42.13291820306642]},"properties":{"peak_name":"1546无名峰","peak_elev":1546,"peak_lon":114.160197,"peak_lat":42.136961,"base_elev":1447,"distance_m":462.7,"vertical_relief_m":99.0,"max_jut":20.6977,"search_radius_m":500,"elev_angle_deg":12.077}},{"type":"Feature","geometry":{"type":"Point","coordinates":[113.11940892170244,41.47777686635805]},"properties":{"peak_name":"1548无名峰(2)","peak_elev":1548,"peak_lon":113.117253,"peak_lat":41.479124,"base_elev":1466,"distance_m":234.1,"vertical_relief_m":82.0,"max_jut":27.1315,"search_radius_m":375,"elev_angle_deg":19.3042}},{"type":"Feature","geometry":{"type":"Point","coordinates":[113.75406866993288,41.65294834676136]},"properties":{"peak_name":"1549无名峰(1)","peak_elev":1549,"peak_lon":113.752991,"peak_lat":41.655104,"base_elev":1470,"distance_m":255.7,"vertical_relief_m":79.0,"max_jut":23.3055,"search_radius_m":375,"elev_angle_deg":17.1688}},{"type":"Feature","geometry":{"type":"Point","coordinates":[114.32189376102482,42.079019286019246]},"properties":{"peak_name":"1550无名峰(2)","peak_elev":1550,"peak_lon":114.320007,"peak_lat":42.078211,"base_elev":1483,"distance_m":180.1,"vertical_relief_m":67.0,"max_jut":23.3957,"search_radius_m":375,"elev_angle_deg":20.406}},{"type":"Feature","geometry":{"type":"Point","coordinates":[113.50667264068636,42.03536116321104]},"properties":{"peak_name":"1551无名峰","peak_elev":1551,"peak_lon":113.504247,"peak_lat":42.035361,"base_elev":1480,"distance_m":200.9,"vertical_relief_m":71.0,"max_jut":23.7181,"search_radius_m":250,"elev_angle_deg":19.4639}},{"type":"Feature","geometry":{"type":"Point","coordinates":[113.9707423164625,42.02269491770495]},"properties":{"peak_name":"胡勒包1552","peak_elev":1552,"peak_lon":113.973437,"peak_lat":42.021617,"base_elev":1483,"distance_m":253.3,"vertical_relief_m":69.0,"max_jut":18.1675,"search_radius_m":375,"elev_angle_deg":15.2379}},{"type":"Feature","geometry":{"type":"Point","coordinates":[113.79233690103636,41.68663516991584]},"properties":{"peak_name":"1553无名峰(1)","peak_elev":1553,"peak_lon":113.795571,"peak_lat":41.687444,"base_elev":1455,"distance_m":283.8,"vertical_relief_m":98.0,"max_jut":32.0464,"search_radius_m":375,"elev_angle_deg":19.0505}},{"type":"Feature","geometry":{"type":"Point","coordinates":[114.05455513247084,41.99817091044849]},"properties":{"peak_name":"1554无名峰","peak_elev":1554,"peak_lon":114.05482482910156,"peak_lat":41.99547576904297,"base_elev":1485,"distance_m":300.2,"vertical_relief_m":69.0,"max_jut":15.4411,"search_radius_m":500,"elev_angle_deg":12.9444}},{"type":"Feature","geometry":{"type":"Point","coordinates":[114.43238654097152,42.274941849485714]},"properties":{"peak_name":"1555无名峰","peak_elev":1555,"peak_lon":114.430051,"peak_lat":42.276828,"base_elev":1475,"distance_m":284.6,"vertical_relief_m":80.0,"max_jut":21.6595,"search_radius_m":875,"elev_angle_deg":15.7005}},{"type":"Feature","geometry":{"type":"Point","coordinates":[113.15552119612404,41.99062506206189]},"properties":{"peak_name":"石鸡子山1556","peak_elev":1556,"peak_lon":113.156599,"peak_lat":41.98820114135742,"base_elev":1465,"distance_m":283.7,"vertical_relief_m":91.0,"max_jut":27.7796,"search_radius_m":500,"elev_angle_deg":17.7842}},{"type":"Feature","geometry":{"type":"Point","coordinates":[113.89743978927837,42.12941477345835]},"properties":{"peak_name":"1557无名峰(1)","peak_elev":1557,"peak_lon":113.893128,"peak_lat":42.131301,"base_elev":1469,"distance_m":413.5,"vertical_relief_m":88.0,"max_jut":18.3468,"search_radius_m":750,"elev_angle_deg":12.0143}},{"type":"Feature","geometry":{"type":"Point","coordinates":[114.42457119799968,42.26200610939439]},"properties":{"peak_name":"1558无名峰(3)","peak_elev":1558,"peak_lon":114.424302,"peak_lat":42.262815,"base_elev":1495,"distance_m":92.6,"vertical_relief_m":63.0,"max_jut":35.4294,"search_radius_m":375,"elev_angle_deg":34.2292}},{"type":"Feature","geometry":{"type":"Point","coordinates":[114.38765043982237,42.21430556780765]},"properties":{"peak_name":"1560无名峰(4)","peak_elev":1560,"peak_lon":114.38253021240234,"peak_lat":42.216462,"base_elev":1436,"distance_m":485.9,"vertical_relief_m":124.0,"max_jut":30.7108,"search_radius_m":625,"elev_angle_deg":14.3161}},{"type":"Feature","geometry":{"type":"Point","coordinates":[113.79152841728066,41.688252137427256]},"properties":{"peak_name":"1561无名峰","peak_elev":1561,"peak_lon":113.786273,"peak_lat":41.687713,"base_elev":1455,"distance_m":441.6,"vertical_relief_m":106.0,"max_jut":24.7995,"search_radius_m":500,"elev_angle_deg":13.4977}},{"type":"Feature","geometry":{"type":"Point","coordinates":[113.2350220987686,41.45810376163583]},"properties":{"peak_name":"1562无名峰(1)","peak_elev":1562,"peak_lon":113.233809,"peak_lat":41.461068,"base_elev":1471,"distance_m":344.5,"vertical_relief_m":91.0,"max_jut":23.2241,"search_radius_m":375,"elev_angle_deg":14.7968}},{"type":"Feature","geometry":{"type":"Point","coordinates":[114.40759303912982,42.080905748115896]},"properties":{"peak_name":"1563无名峰(3)","peak_elev":1563,"peak_lon":114.410018,"peak_lat":42.0784797668457,"base_elev":1440,"distance_m":336.0,"vertical_relief_m":123.0,"max_jut":42.2947,"search_radius_m":500,"elev_angle_deg":20.1062}},{"type":"Feature","geometry":{"type":"Point","coordinates":[114.41163545790836,42.233978672529865]},"properties":{"peak_name":"1564无名峰(2)","peak_elev":1564,"peak_lon":114.409749,"peak_lat":42.23478698730469,"base_elev":1491,"distance_m":179.8,"vertical_relief_m":73.0,"max_jut":27.5084,"search_radius_m":625,"elev_angle_deg":22.0975}},{"type":"Feature","geometry":{"type":"Point","coordinates":[113.08410513103654,41.55134888812744]},"properties":{"peak_name":"尖山1565","peak_elev":1565,"peak_lon":113.085453,"peak_lat":41.552966,"base_elev":1467,"distance_m":211.9,"vertical_relief_m":98.0,"max_jut":41.1326,"search_radius_m":375,"elev_angle_deg":24.8197}},{"type":"Feature","geometry":{"type":"Point","coordinates":[113.25846812768413,41.43034581935654]},"properties":{"peak_name":"察汗脑包1566","peak_elev":1566,"peak_lon":113.258468,"peak_lat":41.430885314941406,"base_elev":1530,"distance_m":59.9,"vertical_relief_m":36.0,"max_jut":18.5243,"search_radius_m":375,"elev_angle_deg":31.0059}},{"type":"Feature","geometry":{"type":"Point","coordinates":[114.31892932058724,42.17253390709609]},"properties":{"peak_name":"恩克音敖包1567","peak_elev":1567,"peak_lon":114.316773,"peak_lat":42.1693000793457,"base_elev":1473,"distance_m":401.0,"vertical_relief_m":94.0,"max_jut":21.4482,"search_radius_m":625,"elev_angle_deg":13.1927}},{"type":"Feature","geometry":{"type":"Point","coordinates":[114.20385513269152,42.12564184926505]},"properties":{"peak_name":"温其格音呼特勒1568","peak_elev":1568,"peak_lon":114.206011,"peak_lat":42.126989,"base_elev":1490,"distance_m":232.7,"vertical_relief_m":78.0,"max_jut":24.8104,"search_radius_m":375,"elev_angle_deg":18.5309}},{"type":"Feature","geometry":{"type":"Point","coordinates":[113.50155224356688,41.58530520586716]},"properties":{"peak_name":"1569无名峰(1)","peak_elev":1569,"peak_lon":113.499666,"peak_lat":41.58476638793945,"base_elev":1498,"distance_m":168.3,"vertical_relief_m":71.0,"max_jut":27.6485,"search_radius_m":250,"elev_angle_deg":22.8732}},{"type":"Feature","geometry":{"type":"Point","coordinates":[113.77428076382556,41.69202506162056]},"properties":{"peak_name":"马鬃山1571","peak_elev":1571,"peak_lon":113.778323,"peak_lat":41.692834,"base_elev":1462,"distance_m":348.3,"vertical_relief_m":109.0,"max_jut":32.6246,"search_radius_m":500,"elev_angle_deg":17.3774}},{"type":"Feature","geometry":{"type":"Point","coordinates":[113.15929412031734,41.61629708316928]},"properties":{"peak_name":"北炼丹炉/三号火山1572","peak_elev":1572,"peak_lon":113.157947,"peak_lat":41.614411,"base_elev":1475,"distance_m":237.7,"vertical_relief_m":97.0,"max_jut":36.6427,"search_radius_m":500,"elev_angle_deg":22.1993}},{"type":"Feature","geometry":{"type":"Point","coordinates":[113.93570802038184,42.10596874454284]},"properties":{"peak_name":"1573无名峰(2)","peak_elev":1573,"peak_lon":113.936786,"peak_lat":42.103274,"base_elev":1462,"distance_m":312.3,"vertical_relief_m":111.0,"max_jut":37.1466,"search_radius_m":500,"elev_angle_deg":19.5666}},{"type":"Feature","geometry":{"type":"Point","coordinates":[113.76323148583089,42.0628496109051]},"properties":{"peak_name":"夏日哈达1574","peak_elev":1574,"peak_lon":113.766735,"peak_lat":42.06096267700195,"base_elev":1486,"distance_m":357.8,"vertical_relief_m":88.0,"max_jut":21.0436,"search_radius_m":500,"elev_angle_deg":13.8175}},{"type":"Feature","geometry":{"type":"Point","coordinates":[114.37148076470822,42.19005105513642]},"properties":{"peak_name":"1575无名峰(3)","peak_elev":1575,"peak_lon":114.368247,"peak_lat":42.185739,"base_elev":1431,"distance_m":548.4,"vertical_relief_m":144.0,"max_jut":36.5637,"search_radius_m":625,"elev_angle_deg":14.7127}},{"type":"Feature","geometry":{"type":"Point","coordinates":[114.3639349163216,42.18331369050552]},"properties":{"peak_name":"1576无名峰(3)","peak_elev":1576,"peak_lon":114.359892,"peak_lat":42.1826400756836,"base_elev":1474,"distance_m":342.3,"vertical_relief_m":102.0,"max_jut":29.1961,"search_radius_m":1125,"elev_angle_deg":16.5932}},{"type":"Feature","geometry":{"type":"Point","coordinates":[114.29710025918313,42.24017704799029]},"properties":{"peak_name":"1577无名峰(3)","peak_elev":1577,"peak_lon":114.295349,"peak_lat":42.242872,"base_elev":1458,"distance_m":332.4,"vertical_relief_m":119.0,"max_jut":40.0947,"search_radius_m":1000,"elev_angle_deg":19.6975}},{"type":"Feature","geometry":{"type":"Point","coordinates":[113.15794664739116,41.33224979033069]},"properties":{"peak_name":"1579无名峰(2)","peak_elev":1579,"peak_lon":113.160372,"peak_lat":41.331172,"base_elev":1500,"distance_m":235.7,"vertical_relief_m":79.0,"max_jut":25.1429,"search_radius_m":250,"elev_angle_deg":18.5297}},{"type":"Feature","geometry":{"type":"Point","coordinates":[114.30114267796166,42.20837668693246]},"properties":{"peak_name":"1580无名峰(5)","peak_elev":1580,"peak_lon":114.299256,"peak_lat":42.205412,"base_elev":1458,"distance_m":364.3,"vertical_relief_m":122.0,"max_jut":38.7274,"search_radius_m":750,"elev_angle_deg":18.5151}},{"type":"Feature","geometry":{"type":"Point","coordinates":[113.74571433779056,41.71035069341659]},"properties":{"peak_name":"1581无名峰(1)","peak_elev":1581,"peak_lon":113.74544525146484,"peak_lat":41.708194732666016,"base_elev":1518,"distance_m":240.5,"vertical_relief_m":63.0,"max_jut":15.9477,"search_radius_m":500,"elev_angle_deg":14.679}},{"type":"Feature","geometry":{"type":"Point","coordinates":[114.4164863604426,42.240985531746]},"properties":{"peak_name":"1582无名峰(2)","peak_elev":1582,"peak_lon":114.413252,"peak_lat":42.239369,"base_elev":1475,"distance_m":321.7,"vertical_relief_m":107.0,"max_jut":33.8122,"search_radius_m":500,"elev_angle_deg":18.3975}},{"type":"Feature","geometry":{"type":"Point","coordinates":[113.1018917736621,41.58422722752621]},"properties":{"peak_name":"南炼丹炉/六号火山1583","peak_elev":1583,"peak_lon":113.102431,"peak_lat":41.58287811279297,"base_elev":1518,"distance_m":156.4,"vertical_relief_m":65.0,"max_jut":24.9216,"search_radius_m":250,"elev_angle_deg":22.5678}},{"type":"Feature","geometry":{"type":"Point","coordinates":[113.9548421359336,42.008950693857926]},"properties":{"peak_name":"1584无名峰(2)","peak_elev":1584,"peak_lon":113.957268,"peak_lat":42.008412,"base_elev":1519,"distance_m":209.7,"vertical_relief_m":65.0,"max_jut":19.2872,"search_radius_m":375,"elev_angle_deg":17.2217}},{"type":"Feature","geometry":{"type":"Point","coordinates":[113.8362645184298,41.71601007970655]},"properties":{"peak_name":"1585无名峰(2)","peak_elev":1585,"peak_lon":113.8332977294922,"peak_lat":41.714124,"base_elev":1476,"distance_m":323.8,"vertical_relief_m":109.0,"max_jut":34.8079,"search_radius_m":750,"elev_angle_deg":18.6047}},{"type":"Feature","geometry":{"type":"Point","coordinates":[114.22864863453322,42.17738480963033]},"properties":{"peak_name":"都兰1588","peak_elev":1588,"peak_lon":114.231074,"peak_lat":42.174151,"base_elev":1466,"distance_m":411.3,"vertical_relief_m":122.0,"max_jut":34.6861,"search_radius_m":1000,"elev_angle_deg":16.5214}},{"type":"Feature","geometry":{"type":"Point","coordinates":[114.23430802082316,42.10596874454284]},"properties":{"peak_name":"1589无名峰(2)","peak_elev":1589,"peak_lon":114.235925,"peak_lat":42.105430603027344,"base_elev":1536,"distance_m":146.5,"vertical_relief_m":53.0,"max_jut":18.0629,"search_radius_m":250,"elev_angle_deg":19.8888}},{"type":"Feature","geometry":{"type":"Point","coordinates":[113.3207213768736,41.60794275102697]},"properties":{"peak_name":"1590无名峰(2)","peak_elev":1590,"peak_lon":113.316948,"peak_lat":41.607134,"base_elev":1500,"distance_m":327.1,"vertical_relief_m":90.0,"max_jut":23.926,"search_radius_m":500,"elev_angle_deg":15.384}},{"type":"Feature","geometry":{"type":"Point","coordinates":[113.4740637958728,41.6006663972256]},"properties":{"peak_name":"1592无名峰","peak_elev":1592,"peak_lon":113.477567,"peak_lat":41.5985107421875,"base_elev":1502,"distance_m":377.6,"vertical_relief_m":90.0,"max_jut":20.8854,"search_radius_m":500,"elev_angle_deg":13.4062}},{"type":"Feature","geometry":{"type":"Point","coordinates":[113.2724818461164,42.04829690330236]},"properties":{"peak_name":"可怜敖包1593","peak_elev":1593,"peak_lon":113.272617,"peak_lat":42.04506301879883,"base_elev":1471,"distance_m":359.4,"vertical_relief_m":122.0,"max_jut":39.18,"search_radius_m":1125,"elev_angle_deg":18.75}},{"type":"Feature","geometry":{"type":"Point","coordinates":[113.73816848940396,42.074168383485]},"properties":{"peak_name":"1594无名峰","peak_elev":1594,"peak_lon":113.735743,"peak_lat":42.072282,"base_elev":1496,"distance_m":290.2,"vertical_relief_m":98.0,"max_jut":31.378,"search_radius_m":625,"elev_angle_deg":18.6597}},{"type":"Feature","geometry":{"type":"Point","coordinates":[114.37094177553774,42.19759690352303]},"properties":{"peak_name":"1596无名峰(3)","peak_elev":1596,"peak_lon":114.370268,"peak_lat":42.201235,"base_elev":1472,"distance_m":407.9,"vertical_relief_m":124.0,"max_jut":36.0313,"search_radius_m":750,"elev_angle_deg":16.9091}},{"type":"Feature","geometry":{"type":"Point","coordinates":[113.93678599872278,42.10623823912807]},"properties":{"peak_name":"阿斯哈达1598","peak_elev":1582,"peak_lon":113.941637,"peak_lat":42.100848,"base_elev":1462,"distance_m":720.8,"vertical_relief_m":120.0,"max_jut":19.7091,"search_radius_m":1125,"elev_angle_deg":9.452}},{"type":"Feature","geometry":{"type":"Point","coordinates":[113.622824806923,42.028893293165375]},"properties":{"peak_name":"1598无名峰(1)","peak_elev":1598,"peak_lon":113.619726,"peak_lat":42.026737213134766,"base_elev":1517,"distance_m":351.0,"vertical_relief_m":81.0,"max_jut":18.2283,"search_radius_m":500,"elev_angle_deg":12.9946}},{"type":"Feature","geometry":{"type":"Point","coordinates":[113.31721794726556,41.47912433928423]},"properties":{"peak_name":"1599无名峰(1)","peak_elev":1599,"peak_lon":113.317218,"peak_lat":41.47615814208984,"base_elev":1506,"distance_m":329.4,"vertical_relief_m":93.0,"max_jut":25.2388,"search_radius_m":750,"elev_angle_deg":15.766}},{"type":"Feature","geometry":{"type":"Point","coordinates":[113.58132264079669,42.06231062173463]},"properties":{"peak_name":"铜顶山1600","peak_elev":1600,"peak_lon":113.584018,"peak_lat":42.06258010864258,"base_elev":1510,"distance_m":225.1,"vertical_relief_m":90.0,"max_jut":33.487,"search_radius_m":500,"elev_angle_deg":21.7926}},{"type":"Feature","geometry":{"type":"Point","coordinates":[113.69936126913,42.08009726436019]},"properties":{"peak_name":"1601无名峰","peak_elev":1601,"peak_lon":113.69734191894533,"peak_lat":42.077402,"base_elev":1502,"distance_m":342.9,"vertical_relief_m":99.0,"max_jut":27.4593,"search_radius_m":750,"elev_angle_deg":16.1042}},{"type":"Feature","geometry":{"type":"Point","coordinates":[113.72550224389786,42.02404239063113]},"properties":{"peak_name":"1602无名峰(2)","peak_elev":1602,"peak_lon":113.727928,"peak_lat":42.023503,"base_elev":1530,"distance_m":209.6,"vertical_relief_m":72.0,"max_jut":23.4353,"search_radius_m":375,"elev_angle_deg":18.9582}},{"type":"Feature","geometry":{"type":"Point","coordinates":[114.25748455515344,42.132648708481184]},"properties":{"peak_name":"1603无名峰(6)","peak_elev":1602,"peak_lon":114.260314,"peak_lat":42.134131,"base_elev":1525,"distance_m":286.1,"vertical_relief_m":77.0,"max_jut":20.0401,"search_radius_m":500,"elev_angle_deg":15.0635}},{"type":"Feature","geometry":{"type":"Point","coordinates":[114.40732354454458,42.02161693936401]},"properties":{"peak_name":"1604无名峰","peak_elev":1604,"peak_lon":114.402473,"peak_lat":42.019191,"base_elev":1511,"distance_m":483.7,"vertical_relief_m":93.0,"max_jut":17.5825,"search_radius_m":500,"elev_angle_deg":10.8833}},{"type":"Feature","geometry":{"type":"Point","coordinates":[114.33321253360472,42.19571044142637]},"properties":{"peak_name":"1605无名峰(3)","peak_elev":1605,"peak_lon":114.334291,"peak_lat":42.192881,"base_elev":1484,"distance_m":326.7,"vertical_relief_m":121.0,"max_jut":41.9997,"search_radius_m":500,"elev_angle_deg":20.3231}},{"type":"Feature","geometry":{"type":"Point","coordinates":[114.34318383325844,42.20217831147203]},"properties":{"peak_name":"1606无名峰(3)","peak_elev":1606,"peak_lon":114.343184,"peak_lat":42.197058,"base_elev":1452,"distance_m":568.8,"vertical_relief_m":154.0,"max_jut":40.2094,"search_radius_m":625,"elev_angle_deg":15.1494}},{"type":"Feature","geometry":{"type":"Point","coordinates":[113.58024466245574,42.02188643394925]},"properties":{"peak_name":"1607无名峰(2)","peak_elev":1607,"peak_lon":113.583209,"peak_lat":42.020539,"base_elev":1497,"distance_m":287.5,"vertical_relief_m":110.0,"max_jut":39.3587,"search_radius_m":375,"elev_angle_deg":20.9373}},{"type":"Feature","geometry":{"type":"Point","coordinates":[114.29656127001265,42.159598167004766]},"properties":{"peak_name":"1608无名峰(2)","peak_elev":1608,"peak_lon":114.29737091064452,"peak_lat":42.160945892333984,"base_elev":1547,"distance_m":164.0,"vertical_relief_m":61.0,"max_jut":21.2602,"search_radius_m":250,"elev_angle_deg":20.4027}},{"type":"Feature","geometry":{"type":"Point","coordinates":[113.49670134103263,41.90357831103071]},"properties":{"peak_name":"1609无名峰(1)","peak_elev":1609,"peak_lon":113.499127,"peak_lat":41.903848,"base_elev":1544,"distance_m":203.5,"vertical_relief_m":65.0,"max_jut":19.824,"search_radius_m":625,"elev_angle_deg":17.714}},{"type":"Feature","geometry":{"type":"Point","coordinates":[114.3968132557204,42.25203480974066]},"properties":{"peak_name":"1610无名峰(3)","peak_elev":1610,"peak_lon":114.397891,"peak_lat":42.248801,"base_elev":1467,"distance_m":370.1,"vertical_relief_m":143.0,"max_jut":51.5073,"search_radius_m":1375,"elev_angle_deg":21.1256}},{"type":"Feature","geometry":{"type":"Point","coordinates":[113.570273362802,42.02188643394925]},"properties":{"peak_name":"1611无名峰(1)","peak_elev":1611,"peak_lon":113.573103,"peak_lat":42.018652,"base_elev":1499,"distance_m":428.9,"vertical_relief_m":112.0,"max_jut":28.2954,"search_radius_m":500,"elev_angle_deg":14.635}},{"type":"Feature","geometry":{"type":"Point","coordinates":[113.11671397585008,41.73379672233212]},"properties":{"peak_name":"1613无名峰(1)","peak_elev":1613,"peak_lon":113.116983,"peak_lat":41.735144,"base_elev":1559,"distance_m":151.3,"vertical_relief_m":54.0,"max_jut":18.134,"search_radius_m":500,"elev_angle_deg":19.6418}},{"type":"Feature","geometry":{"type":"Point","coordinates":[113.62174682858206,42.00517776966462]},"properties":{"peak_name":"1614无名峰(2)","peak_elev":1614,"peak_lon":113.623633,"peak_lat":42.00410079956055,"base_elev":1555,"distance_m":196.8,"vertical_relief_m":59.0,"max_jut":16.963,"search_radius_m":375,"elev_angle_deg":16.6886}},{"type":"Feature","geometry":{"type":"Point","coordinates":[113.37974069104028,41.5893476246457]},"properties":{"peak_name":"1615无名峰(2)","peak_elev":1615,"peak_lon":113.379741,"peak_lat":41.586922,"base_elev":1530,"distance_m":269.4,"vertical_relief_m":85.0,"max_jut":25.5486,"search_radius_m":750,"elev_angle_deg":17.5113}},{"type":"Feature","geometry":{"type":"Point","coordinates":[113.12291235131048,41.39800646912824]},"properties":{"peak_name":"1617无名峰","peak_elev":1617,"peak_lon":113.121295,"peak_lat":41.398276,"base_elev":1565,"distance_m":138.5,"vertical_relief_m":52.0,"max_jut":18.3132,"search_radius_m":500,"elev_angle_deg":20.5787}},{"type":"Feature","geometry":{"type":"Point","coordinates":[113.24068148505856,41.96825701148731]},"properties":{"peak_name":"1620无名峰","peak_elev":1620,"peak_lon":113.242298,"peak_lat":41.965293,"base_elev":1532,"distance_m":355.4,"vertical_relief_m":88.0,"max_jut":21.1367,"search_radius_m":500,"elev_angle_deg":13.9072}},{"type":"Feature","geometry":{"type":"Point","coordinates":[113.11428852458296,41.96017217393023]},"properties":{"peak_name":"1621无名峰","peak_elev":1621,"peak_lon":113.11671447753906,"peak_lat":41.962328,"base_elev":1551,"distance_m":312.7,"vertical_relief_m":70.0,"max_jut":15.2977,"search_radius_m":1750,"elev_angle_deg":12.618}},{"type":"Feature","geometry":{"type":"Point","coordinates":[114.2299961074594,42.04290701159764]},"properties":{"peak_name":"1622无名峰(3)","peak_elev":1622,"peak_lon":114.232961,"peak_lat":42.04384994506836,"base_elev":1536,"distance_m":266.9,"vertical_relief_m":86.0,"max_jut":26.4257,"search_radius_m":375,"elev_angle_deg":17.8599}},{"type":"Feature","geometry":{"type":"Point","coordinates":[113.90633311059112,41.97822831114104]},"properties":{"peak_name":"哈布其林敖包1624","peak_elev":1624,"peak_lon":113.907546,"peak_lat":41.976342,"base_elev":1554,"distance_m":232.4,"vertical_relief_m":70.0,"max_jut":20.182,"search_radius_m":375,"elev_angle_deg":16.7626}},{"type":"Feature","geometry":{"type":"Point","coordinates":[114.30734105342208,42.14288950272015]},"properties":{"peak_name":"1625无名峰","peak_elev":1625,"peak_lon":114.308419,"peak_lat":42.144776,"base_elev":1541,"distance_m":227.7,"vertical_relief_m":84.0,"max_jut":29.0596,"search_radius_m":250,"elev_angle_deg":20.2493}},{"type":"Feature","geometry":{"type":"Point","coordinates":[113.44657534817875,41.61710556692499]},"properties":{"peak_name":"1626无名峰(1)","peak_elev":1626,"peak_lon":113.444689,"peak_lat":41.616836,"base_elev":1567,"distance_m":160.0,"vertical_relief_m":59.0,"max_jut":20.452,"search_radius_m":250,"elev_angle_deg":20.2415}},{"type":"Feature","geometry":{"type":"Point","coordinates":[113.98286957279812,41.88040177670042]},"properties":{"peak_name":"1627无名峰(2)","peak_elev":1627,"peak_lon":113.984217,"peak_lat":41.877168,"base_elev":1534,"distance_m":376.2,"vertical_relief_m":93.0,"max_jut":22.3025,"search_radius_m":875,"elev_angle_deg":13.8856}},{"type":"Feature","geometry":{"type":"Point","coordinates":[113.51853040243674,41.70199636127428]},"properties":{"peak_name":"1628无名峰(1)","peak_elev":1628,"peak_lon":113.5213623046875,"peak_lat":41.70280456542969,"base_elev":1539,"distance_m":252.2,"vertical_relief_m":89.0,"max_jut":29.6707,"search_radius_m":375,"elev_angle_deg":19.4377}},{"type":"Feature","geometry":{"type":"Point","coordinates":[113.60072625093366,41.73406621691735]},"properties":{"peak_name":"1629无名峰(1)","peak_elev":1629,"peak_lon":113.601355,"peak_lat":41.731281,"base_elev":1540,"distance_m":313.7,"vertical_relief_m":89.0,"max_jut":24.2653,"search_radius_m":500,"elev_angle_deg":15.8392}},{"type":"Feature","geometry":{"type":"Point","coordinates":[113.53982047467036,41.266223616947904]},"properties":{"peak_name":"北山1630","peak_elev":1630,"peak_lon":113.549118,"peak_lat":41.259486,"base_elev":1488,"distance_m":1080.3,"vertical_relief_m":142.0,"max_jut":18.5198,"search_radius_m":2250,"elev_angle_deg":7.4883}},{"type":"Feature","geometry":{"type":"Point","coordinates":[113.89097191923268,42.0245813798016]},"properties":{"peak_name":"1631无名峰","peak_elev":1631,"peak_lon":113.889624,"peak_lat":42.02296447753906,"base_elev":1565,"distance_m":211.5,"vertical_relief_m":66.0,"max_jut":19.6627,"search_radius_m":500,"elev_angle_deg":17.3309}},{"type":"Feature","geometry":{"type":"Point","coordinates":[114.3307870823376,42.194362968500194]},"properties":{"peak_name":"1632无名峰(9)","peak_elev":1632,"peak_lon":114.325397,"peak_lat":42.194093,"base_elev":1499,"distance_m":446.2,"vertical_relief_m":133.0,"max_jut":38.0815,"search_radius_m":750,"elev_angle_deg":16.5979}},{"type":"Feature","geometry":{"type":"Point","coordinates":[113.58347859747856,41.72759834687169]},"properties":{"peak_name":"1633无名峰(2)","peak_elev":1633,"peak_lon":113.584736,"peak_lat":41.726341,"base_elev":1559,"distance_m":174.5,"vertical_relief_m":74.0,"max_jut":28.8964,"search_radius_m":500,"elev_angle_deg":22.9803}},{"type":"Feature","geometry":{"type":"Point","coordinates":[113.24310693632567,41.41687109009475]},"properties":{"peak_name":"1634无名峰","peak_elev":1634,"peak_lon":113.243107,"peak_lat":41.418758,"base_elev":1544,"distance_m":209.6,"vertical_relief_m":90.0,"max_jut":35.4792,"search_radius_m":250,"elev_angle_deg":23.2382}},{"type":"Feature","geometry":{"type":"Point","coordinates":[113.5174524240958,41.90681224605353]},"properties":{"peak_name":"1635无名峰(2)","peak_elev":1635,"peak_lon":113.514488,"peak_lat":41.90533065795898,"base_elev":1538,"distance_m":295.9,"vertical_relief_m":97.0,"max_jut":30.2519,"search_radius_m":500,"elev_angle_deg":18.1498}},{"type":"Feature","geometry":{"type":"Point","coordinates":[113.26439700855931,41.96125015227118]},"properties":{"peak_name":"1636无名峰(1)","peak_elev":1636,"peak_lon":113.2660140991211,"peak_lat":41.962598,"base_elev":1552,"distance_m":201.0,"vertical_relief_m":84.0,"max_jut":32.4109,"search_radius_m":375,"elev_angle_deg":22.6806}},{"type":"Feature","geometry":{"type":"Point","coordinates":[113.08194917435463,41.72598137936028]},"properties":{"peak_name":"1637无名峰","peak_elev":1637,"peak_lon":113.079793,"peak_lat":41.726251,"base_elev":1574,"distance_m":181.9,"vertical_relief_m":63.0,"max_jut":20.6656,"search_radius_m":250,"elev_angle_deg":19.1032}},{"type":"Feature","geometry":{"type":"Point","coordinates":[113.59695332674036,41.727328852286455]},"properties":{"peak_name":"黄龙洞山1639","peak_elev":1639,"peak_lon":113.596414,"peak_lat":41.72867584228516,"base_elev":1578,"distance_m":156.2,"vertical_relief_m":61.0,"max_jut":22.1749,"search_radius_m":625,"elev_angle_deg":21.3319}},{"type":"Feature","geometry":{"type":"Point","coordinates":[114.42376271424398,42.02512036897208]},"properties":{"peak_name":"1640无名峰(3)","peak_elev":1640,"peak_lon":114.426188,"peak_lat":42.024447,"base_elev":1554,"distance_m":214.3,"vertical_relief_m":86.0,"max_jut":32.085,"search_radius_m":500,"elev_angle_deg":21.8659}},{"type":"Feature","geometry":{"type":"Point","coordinates":[114.2299961074594,42.06931748095076]},"properties":{"peak_name":"1641无名峰","peak_elev":1641,"peak_lon":114.232152,"peak_lat":42.070125579833984,"base_elev":1542,"distance_m":199.7,"vertical_relief_m":99.0,"max_jut":44.0333,"search_radius_m":375,"elev_angle_deg":26.3696}},{"type":"Feature","geometry":{"type":"Point","coordinates":[113.04799285661493,41.62411242614112]},"properties":{"peak_name":"1642无名峰(2)","peak_elev":1642,"peak_lon":113.047454,"peak_lat":41.618723,"base_elev":1535,"distance_m":600.3,"vertical_relief_m":107.0,"max_jut":18.7566,"search_radius_m":875,"elev_angle_deg":10.1065}},{"type":"Feature","geometry":{"type":"Point","coordinates":[113.47595025796949,41.59392903259471]},"properties":{"peak_name":"喇嘛板大脑包1643","peak_elev":1643,"peak_lon":113.475142,"peak_lat":41.592312,"base_elev":1555,"distance_m":191.8,"vertical_relief_m":88.0,"max_jut":36.6722,"search_radius_m":750,"elev_angle_deg":24.6462}},{"type":"Feature","geometry":{"type":"Point","coordinates":[113.61932137731496,41.23873516925385]},"properties":{"peak_name":"1644无名峰","peak_elev":1644,"peak_lon":113.62525177001952,"peak_lat":41.23603820800781,"base_elev":1543,"distance_m":580.4,"vertical_relief_m":101.0,"max_jut":17.3412,"search_radius_m":1750,"elev_angle_deg":9.8716}},{"type":"Feature","geometry":{"type":"Point","coordinates":[114.19442282220828,42.14531495398727]},"properties":{"peak_name":"1645无名峰","peak_elev":1645,"peak_lon":114.199543,"peak_lat":42.14396667480469,"base_elev":1485,"distance_m":449.0,"vertical_relief_m":160.0,"max_jut":53.8166,"search_radius_m":750,"elev_angle_deg":19.6134}},{"type":"Feature","geometry":{"type":"Point","coordinates":[114.20035170308346,42.1523218132034]},"properties":{"peak_name":"黄花敖包1648","peak_elev":1648,"peak_lon":114.194423,"peak_lat":42.151513,"base_elev":1488,"distance_m":498.2,"vertical_relief_m":160.0,"max_jut":49.0354,"search_radius_m":750,"elev_angle_deg":17.8047}},{"type":"Feature","geometry":{"type":"Point","coordinates":[113.4093850954162,41.69094708327962]},"properties":{"peak_name":"1650无名峰","peak_elev":1650,"peak_lon":113.409385,"peak_lat":41.686635,"base_elev":1555,"distance_m":478.9,"vertical_relief_m":95.0,"max_jut":18.4635,"search_radius_m":1625,"elev_angle_deg":11.2202}},{"type":"Feature","geometry":{"type":"Point","coordinates":[113.08895603357078,41.74861892452009]},"properties":{"peak_name":"1651无名峰(1)","peak_elev":1651,"peak_lon":113.090304,"peak_lat":41.745924,"base_elev":1563,"distance_m":319.6,"vertical_relief_m":88.0,"max_jut":23.344,"search_radius_m":500,"elev_angle_deg":15.3946}},{"type":"Feature","geometry":{"type":"Point","coordinates":[113.49993527605544,41.292903580886254]},"properties":{"peak_name":"1652无名峰","peak_elev":1652,"peak_lon":113.495084,"peak_lat":41.297889,"base_elev":1517,"distance_m":686.8,"vertical_relief_m":135.0,"max_jut":26.0416,"search_radius_m":1250,"elev_angle_deg":11.1205}},{"type":"Feature","geometry":{"type":"Point","coordinates":[113.41423599795046,41.605517299759846]},"properties":{"peak_name":"1653无名峰(1)","peak_elev":1653,"peak_lon":113.415314,"peak_lat":41.606326,"base_elev":1589,"distance_m":127.1,"vertical_relief_m":64.0,"max_jut":28.8083,"search_radius_m":1000,"elev_angle_deg":26.7271}},{"type":"Feature","geometry":{"type":"Point","coordinates":[113.04017751364309,41.97688083821486]},"properties":{"peak_name":"1654无名峰","peak_elev":1654,"peak_lon":113.041255,"peak_lat":41.9733772277832,"base_elev":1568,"distance_m":399.3,"vertical_relief_m":86.0,"max_jut":18.0926,"search_radius_m":750,"elev_angle_deg":12.1545}},{"type":"Feature","geometry":{"type":"Point","coordinates":[113.2913464670829,41.6359701878915]},"properties":{"peak_name":"1655无名峰","peak_elev":1656,"peak_lon":113.292829,"peak_lat":41.636374,"base_elev":1599,"distance_m":131.4,"vertical_relief_m":57.0,"max_jut":22.7227,"search_radius_m":500,"elev_angle_deg":23.4507}},{"type":"Feature","geometry":{"type":"Point","coordinates":[113.36033708090328,41.97634184904439]},"properties":{"peak_name":"1656无名峰(1)","peak_elev":1656,"peak_lon":113.363571,"peak_lat":41.975264,"base_elev":1572,"distance_m":293.6,"vertical_relief_m":84.0,"max_jut":23.1514,"search_radius_m":375,"elev_angle_deg":15.966}},{"type":"Feature","geometry":{"type":"Point","coordinates":[113.71068004170988,41.89926639766693]},"properties":{"peak_name":"1658无名峰","peak_elev":1658,"peak_lon":113.706638,"peak_lat":41.896841,"base_elev":1575,"distance_m":430.2,"vertical_relief_m":83.0,"max_jut":15.7405,"search_radius_m":1125,"elev_angle_deg":10.9201}},{"type":"Feature","geometry":{"type":"Point","coordinates":[113.16091108782877,41.75508679456575]},"properties":{"peak_name":"1659无名峰(3)","peak_elev":1659,"peak_lon":113.160103,"peak_lat":41.751853,"base_elev":1560,"distance_m":365.4,"vertical_relief_m":99.0,"max_jut":25.8644,"search_radius_m":375,"elev_angle_deg":15.1595}},{"type":"Feature","geometry":{"type":"Point","coordinates":[113.49912679229976,41.31257668560847]},"properties":{"peak_name":"大尖山1660","peak_elev":1660,"peak_lon":113.503978,"peak_lat":41.305031,"base_elev":1505,"distance_m":931.3,"vertical_relief_m":155.0,"max_jut":25.4347,"search_radius_m":2750,"elev_angle_deg":9.4494}},{"type":"Feature","geometry":{"type":"Point","coordinates":[114.4345424976534,42.0237728960459]},"properties":{"peak_name":"1661无名峰","peak_elev":1661,"peak_lon":114.438315,"peak_lat":42.01838302612305,"base_elev":1518,"distance_m":675.3,"vertical_relief_m":143.0,"max_jut":29.6156,"search_radius_m":875,"elev_angle_deg":11.9562}},{"type":"Feature","geometry":{"type":"Point","coordinates":[114.27419321943808,42.11270610917373]},"properties":{"peak_name":"1662无名峰(6)","peak_elev":1662,"peak_lon":114.269477,"peak_lat":42.115671,"base_elev":1531,"distance_m":510.5,"vertical_relief_m":131.0,"max_jut":32.5958,"search_radius_m":750,"elev_angle_deg":14.3922}},{"type":"Feature","geometry":{"type":"Point","coordinates":[113.36303202675565,41.6637281301708]},"properties":{"peak_name":"1663无名峰(2)","peak_elev":1663,"peak_lon":113.362358,"peak_lat":41.666423,"base_elev":1577,"distance_m":304.5,"vertical_relief_m":86.0,"max_jut":23.3504,"search_radius_m":875,"elev_angle_deg":15.7713}},{"type":"Feature","geometry":{"type":"Point","coordinates":[114.27419321943808,42.140733546038255]},"properties":{"peak_name":"1664无名峰(3)","peak_elev":1664,"peak_lon":114.271498,"peak_lat":42.139117,"base_elev":1555,"distance_m":286.2,"vertical_relief_m":109.0,"max_jut":38.8389,"search_radius_m":500,"elev_angle_deg":20.8495}},{"type":"Feature","geometry":{"type":"Point","coordinates":[114.2022381651801,42.05287831125137]},"properties":{"peak_name":"1665无名峰","peak_elev":1665,"peak_lon":114.200352,"peak_lat":42.052339,"base_elev":1611,"distance_m":167.2,"vertical_relief_m":54.0,"max_jut":16.6249,"search_radius_m":375,"elev_angle_deg":17.8987}},{"type":"Feature","geometry":{"type":"Point","coordinates":[113.51071505946489,41.696606469569566]},"properties":{"peak_name":"1666无名峰","peak_elev":1666,"peak_lon":113.515566,"peak_lat":41.695798,"base_elev":1531,"distance_m":413.7,"vertical_relief_m":135.0,"max_jut":41.9743,"search_radius_m":750,"elev_angle_deg":18.0727}},{"type":"Feature","geometry":{"type":"Point","coordinates":[113.42798022179748,41.35677379758715]},"properties":{"peak_name":"1667无名峰","peak_elev":1667,"peak_lon":113.418817,"peak_lat":41.356774,"base_elev":1538,"distance_m":766.8,"vertical_relief_m":129.0,"max_jut":21.4556,"search_radius_m":5000,"elev_angle_deg":9.5495}},{"type":"Feature","geometry":{"type":"Point","coordinates":[113.0787152393318,41.73676116276971]},"properties":{"peak_name":"辘轳山1668","peak_elev":1668,"peak_lon":113.08168029785156,"peak_lat":41.737031,"base_elev":1579,"distance_m":248.5,"vertical_relief_m":89.0,"max_jut":30.0787,"search_radius_m":750,"elev_angle_deg":19.7049}},{"type":"Feature","geometry":{"type":"Point","coordinates":[113.41396650336522,41.67855033235877]},"properties":{"peak_name":"1669无名峰(4)","peak_elev":1669,"peak_lon":113.4145050048828,"peak_lat":41.679898,"base_elev":1593,"distance_m":156.3,"vertical_relief_m":76.0,"max_jut":33.2194,"search_radius_m":625,"elev_angle_deg":25.9311}},{"type":"Feature","geometry":{"type":"Point","coordinates":[113.35764213505092,41.30664780473328]},"properties":{"peak_name":"1670无名峰(2)","peak_elev":1670,"peak_lon":113.361954,"peak_lat":41.305974,"base_elev":1585,"distance_m":368.8,"vertical_relief_m":85.0,"max_jut":19.1356,"search_radius_m":1125,"elev_angle_deg":12.9787}},{"type":"Feature","geometry":{"type":"Point","coordinates":[113.16549249577776,41.74322903281537]},"properties":{"peak_name":"1671无名峰","peak_elev":1671,"peak_lon":113.166301,"peak_lat":41.74484634399414,"base_elev":1603,"distance_m":191.8,"vertical_relief_m":68.0,"max_jut":22.708,"search_radius_m":500,"elev_angle_deg":19.5212}},{"type":"Feature","geometry":{"type":"Point","coordinates":[114.2887459270408,42.14558444857251]},"properties":{"peak_name":"1672无名峰(4)","peak_elev":1672,"peak_lon":114.290363,"peak_lat":42.142755,"base_elev":1564,"distance_m":341.5,"vertical_relief_m":108.0,"max_jut":32.5478,"search_radius_m":750,"elev_angle_deg":17.5497}},{"type":"Feature","geometry":{"type":"Point","coordinates":[114.27850513280184,42.14046405145302]},"properties":{"peak_name":"1673无名峰(2)","peak_elev":1673,"peak_lon":114.276349,"peak_lat":42.137365,"base_elev":1546,"distance_m":387.6,"vertical_relief_m":127.0,"max_jut":39.5294,"search_radius_m":500,"elev_angle_deg":18.1418}},{"type":"Feature","geometry":{"type":"Point","coordinates":[113.39779682825107,41.3473414871039]},"properties":{"peak_name":"1674无名峰","peak_elev":1674,"peak_lon":113.407229,"peak_lat":41.348689,"base_elev":1517,"distance_m":803.4,"vertical_relief_m":157.0,"max_jut":30.1809,"search_radius_m":1000,"elev_angle_deg":11.0574}},{"type":"Feature","geometry":{"type":"Point","coordinates":[113.03263166525647,41.98873859996524]},"properties":{"peak_name":"红花脑包1675","peak_elev":1675,"peak_lon":113.035057,"peak_lat":41.98496627807617,"base_elev":1534,"distance_m":464.7,"vertical_relief_m":141.0,"max_jut":40.9231,"search_radius_m":625,"elev_angle_deg":16.8789}},{"type":"Feature","geometry":{"type":"Point","coordinates":[113.3732728209946,41.29182560254531]},"properties":{"peak_name":"1676无名峰","peak_elev":1676,"peak_lon":113.360876,"peak_lat":41.285897,"base_elev":1543,"distance_m":1229.6,"vertical_relief_m":133.0,"max_jut":14.3233,"search_radius_m":5500,"elev_angle_deg":6.1734}},{"type":"Feature","geometry":{"type":"Point","coordinates":[113.51394899448772,41.21205520531549]},"properties":{"peak_name":"1678无名峰","peak_elev":1678,"peak_lon":113.522034,"peak_lat":41.212594,"base_elev":1550,"distance_m":680.7,"vertical_relief_m":128.0,"max_jut":23.7137,"search_radius_m":1750,"elev_angle_deg":10.6496}},{"type":"Feature","geometry":{"type":"Point","coordinates":[113.32422480648168,41.98927758913571]},"properties":{"peak_name":"1679无名峰(2)","peak_elev":1679,"peak_lon":113.320587,"peak_lat":41.981462,"base_elev":1530,"distance_m":919.0,"vertical_relief_m":149.0,"max_jut":23.8311,"search_radius_m":1000,"elev_angle_deg":9.2094}},{"type":"Feature","geometry":{"type":"Point","coordinates":[113.38540007733022,41.636239682476734]},"properties":{"peak_name":"1681无名峰","peak_elev":1681,"peak_lon":113.38284301757812,"peak_lat":41.635162353515625,"base_elev":1604,"distance_m":244.4,"vertical_relief_m":77.0,"max_jut":23.1774,"search_radius_m":500,"elev_angle_deg":17.4874}},{"type":"Feature","geometry":{"type":"Point","coordinates":[113.3333876223797,41.94184654213419]},"properties":{"peak_name":"1683无名峰(1)","peak_elev":1683,"peak_lon":113.334466,"peak_lat":41.943464,"base_elev":1624,"distance_m":200.7,"vertical_relief_m":59.0,"max_jut":16.6361,"search_radius_m":375,"elev_angle_deg":16.3818}},{"type":"Feature","geometry":{"type":"Point","coordinates":[114.26826433856289,42.12941477345835]},"properties":{"peak_name":"1684无名峰(5)","peak_elev":1684,"peak_lon":114.267995,"peak_lat":42.127259,"base_elev":1587,"distance_m":240.5,"vertical_relief_m":97.0,"max_jut":36.2519,"search_radius_m":875,"elev_angle_deg":21.9655}},{"type":"Feature","geometry":{"type":"Point","coordinates":[113.2018742647846,41.94966188510604]},"properties":{"peak_name":"1685无名峰(1)","peak_elev":1685,"peak_lon":113.204569,"peak_lat":41.949392,"base_elev":1614,"distance_m":225.4,"vertical_relief_m":71.0,"max_jut":21.3776,"search_radius_m":625,"elev_angle_deg":17.4842}},{"type":"Feature","geometry":{"type":"Point","coordinates":[113.5266152399938,41.70711675839377]},"properties":{"peak_name":"1686无名峰(2)","peak_elev":1686,"peak_lon":113.530658,"peak_lat":41.706847,"base_elev":1568,"distance_m":337.8,"vertical_relief_m":118.0,"max_jut":39.0021,"search_radius_m":625,"elev_angle_deg":19.2553}},{"type":"Feature","geometry":{"type":"Point","coordinates":[113.3387775140844,41.64216856335192]},"properties":{"peak_name":"1688无名峰","peak_elev":1688,"peak_lon":113.3399887084961,"peak_lat":41.643516,"base_elev":1627,"distance_m":180.5,"vertical_relief_m":61.0,"max_jut":19.5305,"search_radius_m":500,"elev_angle_deg":18.6727}},{"type":"Feature","geometry":{"type":"Point","coordinates":[114.2720372627562,42.132648708481184]},"properties":{"peak_name":"1689无名峰(3)","peak_elev":1689,"peak_lon":114.272846,"peak_lat":42.129145,"base_elev":1577,"distance_m":394.9,"vertical_relief_m":112.0,"max_jut":30.5338,"search_radius_m":2250,"elev_angle_deg":15.8342}},{"type":"Feature","geometry":{"type":"Point","coordinates":[113.32422480648168,41.66480610851173]},"properties":{"peak_name":"1690无名峰(2)","peak_elev":1690,"peak_lon":113.328537,"peak_lat":41.666423,"base_elev":1601,"distance_m":401.5,"vertical_relief_m":89.0,"max_jut":19.2937,"search_radius_m":500,"elev_angle_deg":12.4986}},{"type":"Feature","geometry":{"type":"Point","coordinates":[113.32099087145885,41.80925520619815]},"properties":{"peak_name":"1692无名峰","peak_elev":1692,"peak_lon":113.322069,"peak_lat":41.810064,"base_elev":1637,"distance_m":126.9,"vertical_relief_m":55.0,"max_jut":21.8896,"search_radius_m":625,"elev_angle_deg":23.4325}},{"type":"Feature","geometry":{"type":"Point","coordinates":[113.57296830865438,41.84455899686405]},"properties":{"peak_name":"1693无名峰","peak_elev":1693,"peak_lon":113.571621,"peak_lat":41.84078598022461,"base_elev":1610,"distance_m":433.8,"vertical_relief_m":83.0,"max_jut":15.5861,"search_radius_m":1750,"elev_angle_deg":10.8316}},{"type":"Feature","geometry":{"type":"Point","coordinates":[113.74328888652344,41.99870989961896]},"properties":{"peak_name":"1694无名峰","peak_elev":1694,"peak_lon":113.7455825805664,"peak_lat":42.000596,"base_elev":1617,"distance_m":282.8,"vertical_relief_m":77.0,"max_jut":20.2369,"search_radius_m":500,"elev_angle_deg":15.2311}},{"type":"Feature","geometry":{"type":"Point","coordinates":[113.37893220728456,41.328476866137386]},"properties":{"peak_name":"小桌子山1695","peak_elev":1695,"peak_lon":113.381178,"peak_lat":41.316799,"base_elev":1522,"distance_m":1310.5,"vertical_relief_m":173.0,"max_jut":22.6161,"search_radius_m":2500,"elev_angle_deg":7.5202}},{"type":"Feature","geometry":{"type":"Point","coordinates":[113.1094376220487,41.75158336495768]},"properties":{"peak_name":"1696无名峰(1)","peak_elev":1696,"peak_lon":113.111863,"peak_lat":41.751044,"base_elev":1607,"distance_m":210.4,"vertical_relief_m":89.0,"max_jut":34.736,"search_radius_m":750,"elev_angle_deg":22.9285}},{"type":"Feature","geometry":{"type":"Point","coordinates":[113.4287887055532,41.62438192072636]},"properties":{"peak_name":"1697无名峰(3)","peak_elev":1697,"peak_lon":113.431214,"peak_lat":41.62519073486328,"base_elev":1600,"distance_m":221.2,"vertical_relief_m":97.0,"max_jut":39.0233,"search_radius_m":625,"elev_angle_deg":23.6783}},{"type":"Feature","geometry":{"type":"Point","coordinates":[113.40722913873432,41.22445195623634]},"properties":{"peak_name":"1698无名峰(3)","peak_elev":1698,"peak_lon":113.402378,"peak_lat":41.222564697265625,"base_elev":1587,"distance_m":457.6,"vertical_relief_m":111.0,"max_jut":26.2104,"search_radius_m":750,"elev_angle_deg":13.6349}},{"type":"Feature","geometry":{"type":"Point","coordinates":[113.31128906639036,41.96421459270877]},"properties":{"peak_name":"1699无名峰(1)","peak_elev":1699,"peak_lon":113.306169,"peak_lat":41.96367645263672,"base_elev":1602,"distance_m":428.6,"vertical_relief_m":97.0,"max_jut":21.4618,"search_radius_m":750,"elev_angle_deg":12.7523}},{"type":"Feature","geometry":{"type":"Point","coordinates":[113.30697715302658,41.644594014619045]},"properties":{"peak_name":"大坝山1700","peak_elev":1700,"peak_lon":113.302234,"peak_lat":41.64453887939453,"base_elev":1597,"distance_m":395.2,"vertical_relief_m":103.0,"max_jut":26.0401,"search_radius_m":625,"elev_angle_deg":14.6079}},{"type":"Feature","geometry":{"type":"Point","coordinates":[113.54736632305696,41.71223715551325]},"properties":{"peak_name":"大山湾山1702","peak_elev":1702,"peak_lon":113.543863,"peak_lat":41.714169,"base_elev":1583,"distance_m":362.0,"vertical_relief_m":119.0,"max_jut":37.2061,"search_radius_m":1125,"elev_angle_deg":18.1972}},{"type":"Feature","geometry":{"type":"Point","coordinates":[113.37003888597178,41.59096459215712]},"properties":{"peak_name":"1704无名峰","peak_elev":1704,"peak_lon":113.367883,"peak_lat":41.592043,"base_elev":1603,"distance_m":216.0,"vertical_relief_m":101.0,"max_jut":42.8311,"search_radius_m":1000,"elev_angle_deg":25.0604}},{"type":"Feature","geometry":{"type":"Point","coordinates":[113.2296322070639,41.81895701126665]},"properties":{"peak_name":"1705无名峰(4)","peak_elev":1705,"peak_lon":113.228824,"peak_lat":41.816262,"base_elev":1606,"distance_m":306.8,"vertical_relief_m":99.0,"max_jut":30.3785,"search_radius_m":375,"elev_angle_deg":17.8842}},{"type":"Feature","geometry":{"type":"Point","coordinates":[113.41477498712092,41.63111928535725]},"properties":{"peak_name":"1706无名峰","peak_elev":1706,"peak_lon":113.413697,"peak_lat":41.627885,"base_elev":1590,"distance_m":370.3,"vertical_relief_m":116.0,"max_jut":34.6485,"search_radius_m":1000,"elev_angle_deg":17.3937}},{"type":"Feature","geometry":{"type":"Point","coordinates":[113.34497588954484,41.67181296772787]},"properties":{"peak_name":"1707无名峰","peak_elev":1707,"peak_lon":113.345515,"peak_lat":41.666962,"base_elev":1587,"distance_m":540.7,"vertical_relief_m":120.0,"max_jut":25.974,"search_radius_m":1000,"elev_angle_deg":12.5131}},{"type":"Feature","geometry":{"type":"Point","coordinates":[114.17987011460552,42.06500556758698]},"properties":{"peak_name":"1708无名峰(3)","peak_elev":1708,"peak_lon":114.179331,"peak_lat":42.056921,"base_elev":1504,"distance_m":899.1,"vertical_relief_m":204.0,"max_jut":45.093,"search_radius_m":1375,"elev_angle_deg":12.7836}},{"type":"Feature","geometry":{"type":"Point","coordinates":[113.22208635867727,41.78392271518599]},"properties":{"peak_name":"1712无名峰","peak_elev":1712,"peak_lon":113.21993255615234,"peak_lat":41.781228,"base_elev":1614,"distance_m":348.8,"vertical_relief_m":98.0,"max_jut":26.5064,"search_radius_m":625,"elev_angle_deg":15.6934}},{"type":"Feature","geometry":{"type":"Point","coordinates":[113.18893852469328,41.77314293177655]},"properties":{"peak_name":"1713无名峰","peak_elev":1713,"peak_lon":113.189073,"peak_lat":41.76937103271485,"base_elev":1607,"distance_m":419.1,"vertical_relief_m":106.0,"max_jut":25.9643,"search_radius_m":750,"elev_angle_deg":14.1938}},{"type":"Feature","geometry":{"type":"Point","coordinates":[113.78344357972358,42.00356080215321]},"properties":{"peak_name":"大脑包山1718","peak_elev":1718,"peak_lon":113.776347,"peak_lat":41.999159,"base_elev":1573,"distance_m":764.7,"vertical_relief_m":145.0,"max_jut":27.0422,"search_radius_m":1000,"elev_angle_deg":10.7368}},{"type":"Feature","geometry":{"type":"Point","coordinates":[113.3333876223797,41.64836693881235]},"properties":{"peak_name":"1721无名峰(1)","peak_elev":1721,"peak_lon":113.331232,"peak_lat":41.64863586425781,"base_elev":1656,"distance_m":182.0,"vertical_relief_m":65.0,"max_jut":21.906,"search_radius_m":1000,"elev_angle_deg":19.6538}},{"type":"Feature","geometry":{"type":"Point","coordinates":[113.30374321800376,41.92702433994622]},"properties":{"peak_name":"大山1722","peak_elev":1722,"peak_lon":113.303204,"peak_lat":41.9240608215332,"base_elev":1636,"distance_m":332.2,"vertical_relief_m":86.0,"max_jut":21.5329,"search_radius_m":1500,"elev_angle_deg":14.5141}},{"type":"Feature","geometry":{"type":"Point","coordinates":[113.2859565753782,41.64567199295999]},"properties":{"peak_name":"1723无名峰","peak_elev":1723,"peak_lon":113.287843,"peak_lat":41.647558,"base_elev":1610,"distance_m":261.9,"vertical_relief_m":113.0,"max_jut":44.778,"search_radius_m":750,"elev_angle_deg":23.3384}},{"type":"Feature","geometry":{"type":"Point","coordinates":[113.32045188228838,41.64540249837476]},"properties":{"peak_name":"1725无名峰","peak_elev":1725,"peak_lon":113.319778,"peak_lat":41.648367,"base_elev":1634,"distance_m":334.0,"vertical_relief_m":91.0,"max_jut":23.8975,"search_radius_m":1125,"elev_angle_deg":15.2406}},{"type":"Feature","geometry":{"type":"Point","coordinates":[113.34066397618106,41.22391296706588]},"properties":{"peak_name":"1726无名峰","peak_elev":1726,"peak_lon":113.35881042480467,"peak_lat":41.223464,"base_elev":1551,"distance_m":1522.4,"vertical_relief_m":175.0,"max_jut":20.0354,"search_radius_m":3000,"elev_angle_deg":6.5574}},{"type":"Feature","geometry":{"type":"Point","coordinates":[113.3102110880494,41.94615845549797]},"properties":{"peak_name":"1728无名峰(2)","peak_elev":1728,"peak_lon":113.31101989746094,"peak_lat":41.947236,"base_elev":1663,"distance_m":137.2,"vertical_relief_m":65.0,"max_jut":27.8252,"search_radius_m":500,"elev_angle_deg":25.3498}},{"type":"Feature","geometry":{"type":"Point","coordinates":[113.27787173782112,41.65456531427277]},"properties":{"peak_name":"1732无名峰(2)","peak_elev":1732,"peak_lon":113.276929,"peak_lat":41.656587,"base_elev":1635,"distance_m":237.9,"vertical_relief_m":97.0,"max_jut":36.6026,"search_radius_m":500,"elev_angle_deg":22.1824}},{"type":"Feature","geometry":{"type":"Point","coordinates":[113.30050928298093,41.816531559999525]},"properties":{"peak_name":"1734无名峰","peak_elev":1734,"peak_lon":113.300779,"peak_lat":41.813837,"base_elev":1632,"distance_m":300.1,"vertical_relief_m":102.0,"max_jut":32.7896,"search_radius_m":625,"elev_angle_deg":18.7722}},{"type":"Feature","geometry":{"type":"Point","coordinates":[113.3174874418508,41.94534997174226]},"properties":{"peak_name":"1736无名峰","peak_elev":1736,"peak_lon":113.320182,"peak_lat":41.945485,"base_elev":1647,"distance_m":223.9,"vertical_relief_m":89.0,"max_jut":32.9442,"search_radius_m":625,"elev_angle_deg":21.6778}},{"type":"Feature","geometry":{"type":"Point","coordinates":[113.23071018540485,41.76344112670806]},"properties":{"peak_name":"1741无名峰(2)","peak_elev":1741,"peak_lon":113.231788,"peak_lat":41.765597,"base_elev":1669,"distance_m":255.7,"vertical_relief_m":72.0,"max_jut":19.5045,"search_radius_m":1125,"elev_angle_deg":15.7262}},{"type":"Feature","geometry":{"type":"Point","coordinates":[113.22505079911488,41.81168065746528]},"properties":{"peak_name":"1742无名峰","peak_elev":1742,"peak_lon":113.225051,"peak_lat":41.809255,"base_elev":1640,"distance_m":269.4,"vertical_relief_m":102.0,"max_jut":36.0795,"search_radius_m":625,"elev_angle_deg":20.7376}},{"type":"Feature","geometry":{"type":"Point","coordinates":[113.26439700855931,41.650253400909]},"properties":{"peak_name":"1743无名峰","peak_elev":1743,"peak_lon":113.265026,"peak_lat":41.654475,"base_elev":1622,"distance_m":471.8,"vertical_relief_m":121.0,"max_jut":30.0283,"search_radius_m":2250,"elev_angle_deg":14.3843}},{"type":"Feature","geometry":{"type":"Point","coordinates":[113.20322173771078,41.75912921334429]},"properties":{"peak_name":"1744无名峰","peak_elev":1744,"peak_lon":113.208073,"peak_lat":41.75697326660156,"base_elev":1631,"distance_m":469.2,"vertical_relief_m":113.0,"max_jut":26.5005,"search_radius_m":625,"elev_angle_deg":13.541}},{"type":"Feature","geometry":{"type":"Point","coordinates":[113.29458040210574,41.816531559999525]},"properties":{"peak_name":"1745无名峰(1)","peak_elev":1745,"peak_lon":113.2945785522461,"peak_lat":41.813298,"base_elev":1638,"distance_m":359.2,"vertical_relief_m":107.0,"max_jut":30.5194,"search_radius_m":1125,"elev_angle_deg":16.588}},{"type":"Feature","geometry":{"type":"Point","coordinates":[113.28622606996342,41.81518408707334]},"properties":{"peak_name":"1748无名峰","peak_elev":1748,"peak_lon":113.286765,"peak_lat":41.812085,"base_elev":1642,"distance_m":347.1,"vertical_relief_m":106.0,"max_jut":30.9282,"search_radius_m":625,"elev_angle_deg":16.982}},{"type":"Feature","geometry":{"type":"Point","coordinates":[113.36976939138654,41.60282235390749]},"properties":{"peak_name":"1755无名峰(2)","peak_elev":1755,"peak_lon":113.364245,"peak_lat":41.6022834777832,"base_elev":1591,"distance_m":464.4,"vertical_relief_m":164.0,"max_jut":54.7323,"search_radius_m":1000,"elev_angle_deg":19.4504}},{"type":"Feature","geometry":{"type":"Point","coordinates":[113.22262534784775,41.758320729588576]},"properties":{"peak_name":"1758无名峰","peak_elev":1758,"peak_lon":113.222356,"peak_lat":41.759129,"base_elev":1696,"distance_m":92.5,"vertical_relief_m":62.0,"max_jut":34.4913,"search_radius_m":750,"elev_angle_deg":33.8328}},{"type":"Feature","geometry":{"type":"Point","coordinates":[113.39483238781348,41.206395819025545]},"properties":{"peak_name":"1762无名峰","peak_elev":1762,"peak_lon":113.411811,"peak_lat":41.2028923034668,"base_elev":1589,"distance_m":1476.3,"vertical_relief_m":173.0,"max_jut":20.181,"search_radius_m":2750,"elev_angle_deg":6.6837}},{"type":"Feature","geometry":{"type":"Point","coordinates":[113.25631217100224,41.88713914133132]},"properties":{"peak_name":"圆宝山西顶1763","peak_elev":1763,"peak_lon":113.25765991210938,"peak_lat":41.89037322998047,"base_elev":1618,"distance_m":376.2,"vertical_relief_m":145.0,"max_jut":52.1096,"search_radius_m":625,"elev_angle_deg":21.0783}},{"type":"Feature","geometry":{"type":"Point","coordinates":[113.25765964392842,41.81383661414717]},"properties":{"peak_name":"1764无名峰(1)","peak_elev":1764,"peak_lon":113.258199,"peak_lat":41.810603,"base_elev":1654,"distance_m":361.9,"vertical_relief_m":110.0,"max_jut":31.9549,"search_radius_m":750,"elev_angle_deg":16.9067}},{"type":"Feature","geometry":{"type":"Point","coordinates":[113.46005007744056,41.20100592732083]},"properties":{"peak_name":"1766无名峰","peak_elev":1766,"peak_lon":113.428789,"peak_lat":41.21205520629883,"base_elev":1509,"distance_m":2894.9,"vertical_relief_m":257.0,"max_jut":22.7706,"search_radius_m":4500,"elev_angle_deg":5.0732}},{"type":"Feature","geometry":{"type":"Point","coordinates":[113.26143256812172,41.886600152160845]},"properties":{"peak_name":"圆宝山东顶1767","peak_elev":1767,"peak_lon":113.263589,"peak_lat":41.889834,"base_elev":1619,"distance_m":401.3,"vertical_relief_m":148.0,"max_jut":51.1935,"search_radius_m":625,"elev_angle_deg":20.244}},{"type":"Feature","geometry":{"type":"Point","coordinates":[113.26763094358216,41.81518408707334]},"properties":{"peak_name":"1770无名峰","peak_elev":1770,"peak_lon":113.270865,"peak_lat":41.810603,"base_elev":1645,"distance_m":575.4,"vertical_relief_m":125.0,"max_jut":26.5269,"search_radius_m":1250,"elev_angle_deg":12.2565}},{"type":"Feature","geometry":{"type":"Point","coordinates":[113.27814123240634,41.81329762497669]},"properties":{"peak_name":"1771无名峰","peak_elev":1771,"peak_lon":113.27679443359376,"peak_lat":41.810603,"base_elev":1667,"distance_m":319.5,"vertical_relief_m":104.0,"max_jut":32.1681,"search_radius_m":875,"elev_angle_deg":18.0305}},{"type":"Feature","geometry":{"type":"Point","coordinates":[113.2484968280304,41.81329762497669]},"properties":{"peak_name":"1772无名峰","peak_elev":1772,"peak_lon":113.250249,"peak_lat":41.810333251953125,"base_elev":1652,"distance_m":360.0,"vertical_relief_m":120.0,"max_jut":37.9289,"search_radius_m":750,"elev_angle_deg":18.4349}},{"type":"Feature","geometry":{"type":"Point","coordinates":[113.23286614208672,41.8141061087324]},"properties":{"peak_name":"1774无名峰","peak_elev":1774,"peak_lon":113.233809,"peak_lat":41.810333251953125,"base_elev":1640,"distance_m":426.3,"vertical_relief_m":134.0,"max_jut":40.1447,"search_radius_m":750,"elev_angle_deg":17.4496}},{"type":"Feature","geometry":{"type":"Point","coordinates":[113.12884123218568,41.20989924863361]},"properties":{"peak_name":"刘原山1777","peak_elev":1777,"peak_lon":113.142451,"peak_lat":41.240622,"base_elev":1519,"distance_m":3597.8,"vertical_relief_m":258.0,"max_jut":18.4388,"search_radius_m":4750,"elev_angle_deg":4.1017}},{"type":"Feature","geometry":{"type":"Point","coordinates":[113.35737264046568,41.2053178406846]},"properties":{"peak_name":"1794无名峰","peak_elev":1794,"peak_lon":113.359798,"peak_lat":41.206531,"base_elev":1686,"distance_m":244.0,"vertical_relief_m":108.0,"max_jut":43.7655,"search_radius_m":1250,"elev_angle_deg":23.8753}},{"type":"Feature","geometry":{"type":"Point","coordinates":[113.35413870544286,41.60470881600414]},"properties":{"peak_name":"麻皇沟山1795","peak_elev":1795,"peak_lon":113.355621,"peak_lat":41.607404,"base_elev":1639,"distance_m":323.8,"vertical_relief_m":156.0,"max_jut":67.6682,"search_radius_m":2500,"elev_angle_deg":25.7238}},{"type":"Feature","geometry":{"type":"Point","coordinates":[113.02481632228464,41.25517433895323]},"properties":{"peak_name":"1796无名峰","peak_elev":1796,"peak_lon":113.023738,"peak_lat":41.25463485717773,"base_elev":1750,"distance_m":108.4,"vertical_relief_m":46.0,"max_jut":17.9865,"search_radius_m":125,"elev_angle_deg":22.9941}},{"type":"Feature","geometry":{"type":"Point","coordinates":[113.02104339809134,41.24897596349281]},"properties":{"peak_name":"1817无名峰","peak_elev":1817,"peak_lon":113.020504,"peak_lat":41.248976,"base_elev":1791,"distance_m":45.2,"vertical_relief_m":26.0,"max_jut":12.9867,"search_radius_m":125,"elev_angle_deg":29.9084}},{"type":"Feature","geometry":{"type":"Point","coordinates":[114.48466849050727,41.86719654202386]},"properties":{"peak_name":"卧龙图山1694","peak_elev":1694,"peak_lon":114.47887420654295,"peak_lat":41.860729,"base_elev":1530,"distance_m":864.6,"vertical_relief_m":164.0,"max_jut":30.5648,"search_radius_m":1750,"elev_angle_deg":10.7404}},{"type":"Feature","geometry":{"type":"Point","coordinates":[114.35315513291218,41.78149726391887]},"properties":{"peak_name":"炭头山1582.2","peak_elev":1578,"peak_lon":114.357737,"peak_lat":41.77988052368164,"base_elev":1484,"distance_m":421.1,"vertical_relief_m":94.0,"max_jut":20.5157,"search_radius_m":625,"elev_angle_deg":12.5835}},{"type":"Feature","geometry":{"type":"Point","coordinates":[114.29629177542742,41.89657145181457]},"properties":{"peak_name":"阿淖山1686.6","peak_elev":1685,"peak_lon":114.29413604736328,"peak_lat":41.894685,"base_elev":1586,"distance_m":275.5,"vertical_relief_m":99.0,"max_jut":33.4914,"search_radius_m":875,"elev_angle_deg":19.7657}},{"type":"Feature","geometry":{"type":"Point","coordinates":[114.44909520525614,41.87312542289905]},"properties":{"peak_name":"青皮山1673","peak_elev":1666,"peak_lon":114.45160675048828,"peak_lat":41.875281,"base_elev":1554,"distance_m":317.5,"vertical_relief_m":112.0,"max_jut":37.2772,"search_radius_m":875,"elev_angle_deg":19.4306}}]}