{"type":"FeatureCollection","features":[{"type":"Feature","geometry":{"type":"Point","coordinates":[122.96377662578304,40.37204058313533]},"properties":{"peak_name":"老平台1002","peak_elev":1002,"peak_lon":122.941139,"peak_lat":40.379586,"base_elev":423,"distance_m":2097.1,"vertical_relief_m":579.0,"max_jut":154.3717,"search_radius_m":2500,"elev_angle_deg":15.4346}},{"type":"Feature","geometry":{"type":"Point","coordinates":[122.86082969422291,40.21330827243141]},"properties":{"peak_name":"魏家岭1006","peak_elev":1006,"peak_lon":122.86595153808594,"peak_lat":40.223819,"base_elev":506,"distance_m":1245.9,"vertical_relief_m":500.0,"max_jut":186.0785,"search_radius_m":1375,"elev_angle_deg":21.8664}},{"type":"Feature","geometry":{"type":"Point","coordinates":[123.94123348643348,41.01478516892285]},"properties":{"peak_name":"滚马岭1009","peak_elev":1009,"peak_lon":123.928028,"peak_lat":41.005353,"base_elev":430,"distance_m":1526.9,"vertical_relief_m":579.0,"max_jut":205.4276,"search_radius_m":2250,"elev_angle_deg":20.7667}},{"type":"Feature","geometry":{"type":"Point","coordinates":[124.45596814423396,40.72750394106143]},"properties":{"peak_name":"锅头峪1012","peak_elev":1012,"peak_lon":124.456507,"peak_lat":40.70837020874024,"base_elev":272,"distance_m":2125.3,"vertical_relief_m":740.0,"max_jut":243.0483,"search_radius_m":3250,"elev_angle_deg":19.1974}},{"type":"Feature","geometry":{"type":"Point","coordinates":[122.82471741980132,40.23675430134693]},"properties":{"peak_name":"1014无名峰(1)","peak_elev":1014,"peak_lon":122.836036,"peak_lat":40.22813034057617,"base_elev":432,"distance_m":1358.3,"vertical_relief_m":582.0,"max_jut":229.3286,"search_radius_m":2000,"elev_angle_deg":23.194}},{"type":"Feature","geometry":{"type":"Point","coordinates":[122.9012538820083,40.19686910273202]},"properties":{"peak_name":"三界碑1023","peak_elev":1023,"peak_lon":122.891013,"peak_lat":40.205762,"base_elev":425,"distance_m":1317.3,"vertical_relief_m":598.0,"max_jut":247.255,"search_radius_m":2250,"elev_angle_deg":24.4161}},{"type":"Feature","geometry":{"type":"Point","coordinates":[122.81339864722142,40.20818787531193]},"properties":{"peak_name":"黄花排1030","peak_elev":1030,"peak_lon":122.831185,"peak_lat":40.219641,"base_elev":327,"distance_m":1977.3,"vertical_relief_m":703.0,"max_jut":235.694,"search_radius_m":2500,"elev_angle_deg":19.5721}},{"type":"Feature","geometry":{"type":"Point","coordinates":[124.1533257250141,41.100753941613085]},"properties":{"peak_name":"1036无名峰(1)","peak_elev":1036,"peak_lon":124.16949462890624,"peak_lat":41.099137,"base_elev":442,"distance_m":1370.1,"vertical_relief_m":594.0,"max_jut":236.7664,"search_radius_m":2750,"elev_angle_deg":23.4389}},{"type":"Feature","geometry":{"type":"Point","coordinates":[124.46432247637628,41.06922307514049]},"properties":{"peak_name":"恭恭顶子1037","peak_elev":1037,"peak_lon":124.475372,"peak_lat":41.062081,"base_elev":539,"distance_m":1221.3,"vertical_relief_m":498.0,"max_jut":188.1782,"search_radius_m":1625,"elev_angle_deg":22.1838}},{"type":"Feature","geometry":{"type":"Point","coordinates":[124.12664576107576,41.3653976243147]},"properties":{"peak_name":"歪咀砬子1038","peak_elev":1038,"peak_lon":124.14038848876952,"peak_lat":41.36674499511719,"base_elev":468,"distance_m":1159.5,"vertical_relief_m":570.0,"max_jut":251.9737,"search_radius_m":2250,"elev_angle_deg":26.1783}},{"type":"Feature","geometry":{"type":"Point","coordinates":[124.15009178999128,41.35434834632003]},"properties":{"peak_name":"歪咀砬子东峰1040","peak_elev":1040,"peak_lon":124.146588,"peak_lat":41.367015,"base_elev":415,"distance_m":1437.0,"vertical_relief_m":625.0,"max_jut":249.0584,"search_radius_m":2000,"elev_angle_deg":23.5059}},{"type":"Feature","geometry":{"type":"Point","coordinates":[123.7197089373696,40.55314094441383]},"properties":{"peak_name":"雷劈砬子1046","peak_elev":1046,"peak_lon":123.740999,"peak_lat":40.549099,"base_elev":430,"distance_m":1858.4,"vertical_relief_m":616.0,"max_jut":194.2169,"search_radius_m":2500,"elev_angle_deg":18.3387}},{"type":"Feature","geometry":{"type":"Point","coordinates":[123.58388366641074,40.86871910372501]},"properties":{"peak_name":"1047无名峰","peak_elev":1047,"peak_lon":123.583749,"peak_lat":40.856322,"base_elev":507,"distance_m":1376.8,"vertical_relief_m":540.0,"max_jut":196.9561,"search_radius_m":2500,"elev_angle_deg":21.4158}},{"type":"Feature","geometry":{"type":"Point","coordinates":[124.07544178988094,41.084853761084176]},"properties":{"peak_name":"1051无名峰","peak_elev":1051,"peak_lon":124.087569,"peak_lat":41.089031,"base_elev":576,"distance_m":1119.6,"vertical_relief_m":475.0,"max_jut":185.8197,"search_radius_m":1750,"elev_angle_deg":22.9895}},{"type":"Feature","geometry":{"type":"Point","coordinates":[123.91913493044414,41.07865538562375]},"properties":{"peak_name":"1061无名峰","peak_elev":1061,"peak_lon":123.919943,"peak_lat":41.069762,"base_elev":652,"distance_m":990.0,"vertical_relief_m":409.0,"max_jut":156.0045,"search_radius_m":1000,"elev_angle_deg":22.4471}},{"type":"Feature","geometry":{"type":"Point","coordinates":[124.39128944377735,41.16758859875158]},"properties":{"peak_name":"1063无名峰","peak_elev":1063,"peak_lon":124.371886,"peak_lat":41.169745,"base_elev":433,"distance_m":1645.9,"vertical_relief_m":630.0,"max_jut":225.708,"search_radius_m":2250,"elev_angle_deg":20.9453}},{"type":"Feature","geometry":{"type":"Point","coordinates":[124.0096851110834,41.26325917651031]},"properties":{"peak_name":"玉屏山1080","peak_elev":1080,"peak_lon":124.009685,"peak_lat":41.240487,"base_elev":329,"distance_m":2529.1,"vertical_relief_m":751.0,"max_jut":213.542,"search_radius_m":3000,"elev_angle_deg":16.5384}},{"type":"Feature","geometry":{"type":"Point","coordinates":[123.76201958725164,40.54909852563529]},"properties":{"peak_name":"天眼峰1081","peak_elev":1081,"peak_lon":123.750701,"peak_lat":40.55125427246094,"base_elev":570,"distance_m":988.2,"vertical_relief_m":511.0,"max_jut":235.1511,"search_radius_m":1750,"elev_angle_deg":27.3436}},{"type":"Feature","geometry":{"type":"Point","coordinates":[124.2923849309958,41.15815628826832]},"properties":{"peak_name":"1083无名峰(1)","peak_elev":1083,"peak_lon":124.303165,"peak_lat":41.158426,"base_elev":593,"distance_m":905.3,"vertical_relief_m":490.0,"max_jut":233.7049,"search_radius_m":1125,"elev_angle_deg":28.4248}},{"type":"Feature","geometry":{"type":"Point","coordinates":[124.3780842091008,41.66022470056273]},"properties":{"peak_name":"三块石1085","peak_elev":1085,"peak_lon":124.383474,"peak_lat":41.677472,"base_elev":476,"distance_m":1967.5,"vertical_relief_m":609.0,"max_jut":179.9194,"search_radius_m":3250,"elev_angle_deg":17.1989}},{"type":"Feature","geometry":{"type":"Point","coordinates":[124.29184594182531,41.13578823769375]},"properties":{"peak_name":"1101无名峰","peak_elev":1101,"peak_lon":124.291576,"peak_lat":41.144682,"base_elev":586,"distance_m":988.0,"vertical_relief_m":515.0,"max_jut":237.8206,"search_radius_m":1250,"elev_angle_deg":27.531}},{"type":"Feature","geometry":{"type":"Point","coordinates":[124.10697265635352,41.13282379725616]},"properties":{"peak_name":"1102无名峰","peak_elev":1102,"peak_lon":124.083527,"peak_lat":41.137675,"base_elev":514,"distance_m":2041.0,"vertical_relief_m":588.0,"max_jut":163.1335,"search_radius_m":5000,"elev_angle_deg":16.0714}},{"type":"Feature","geometry":{"type":"Point","coordinates":[124.30073926313813,41.10344888746545]},"properties":{"peak_name":"1103无名峰","peak_elev":1103,"peak_lon":124.290768,"peak_lat":41.09536361694336,"base_elev":530,"distance_m":1228.0,"vertical_relief_m":573.0,"max_jut":242.3908,"search_radius_m":1250,"elev_angle_deg":25.0143}},{"type":"Feature","geometry":{"type":"Point","coordinates":[124.21207554459552,41.09617253366408]},"properties":{"peak_name":"高萝卜顶1108","peak_elev":1108,"peak_lon":124.226089,"peak_lat":41.089031,"base_elev":481,"distance_m":1419.6,"vertical_relief_m":627.0,"max_jut":253.6061,"search_radius_m":1625,"elev_angle_deg":23.8298}},{"type":"Feature","geometry":{"type":"Point","coordinates":[124.10616417259784,41.10641332790304]},"properties":{"peak_name":"1112无名峰","peak_elev":1112,"peak_lon":124.090668,"peak_lat":41.099945068359375,"base_elev":513,"distance_m":1486.8,"vertical_relief_m":599.0,"max_jut":224.1583,"search_radius_m":3750,"elev_angle_deg":21.9435}},{"type":"Feature","geometry":{"type":"Point","coordinates":[124.1045472050864,41.10749130624399]},"properties":{"peak_name":"1120无名峰","peak_elev":1120,"peak_lon":124.08433532714844,"peak_lat":41.11072540283203,"base_elev":532,"distance_m":1735.3,"vertical_relief_m":588.0,"max_jut":189.1142,"search_radius_m":3750,"elev_angle_deg":18.7188}},{"type":"Feature","geometry":{"type":"Point","coordinates":[124.11317103181396,41.13551874310851]},"properties":{"peak_name":"长砬子1122","peak_elev":1122,"peak_lon":124.090264,"peak_lat":41.142256,"base_elev":462,"distance_m":2063.7,"vertical_relief_m":660.0,"max_jut":201.4355,"search_radius_m":2250,"elev_angle_deg":17.735}},{"type":"Feature","geometry":{"type":"Point","coordinates":[124.226358757613,41.16489365289922]},"properties":{"peak_name":"西大坡1125","peak_elev":1125,"peak_lon":124.246975,"peak_lat":41.176482,"base_elev":466,"distance_m":2156.3,"vertical_relief_m":659.0,"max_jut":192.8342,"search_radius_m":2500,"elev_angle_deg":16.994}},{"type":"Feature","geometry":{"type":"Point","coordinates":[124.1045472050864,41.10749130624399]},"properties":{"peak_name":"1127无名峰","peak_elev":1127,"peak_lon":124.086356,"peak_lat":41.10546875,"base_elev":532,"distance_m":1544.5,"vertical_relief_m":595.0,"max_jut":214.3575,"search_radius_m":3750,"elev_angle_deg":21.0686}},{"type":"Feature","geometry":{"type":"Point","coordinates":[124.10697265635352,41.13282379725616]},"properties":{"peak_name":"1128无名峰","peak_elev":1128,"peak_lon":124.0816421508789,"peak_lat":41.129725,"base_elev":514,"distance_m":2154.6,"vertical_relief_m":614.0,"max_jut":168.6539,"search_radius_m":4500,"elev_angle_deg":15.9061}},{"type":"Feature","geometry":{"type":"Point","coordinates":[124.33092265668454,41.163546179973046]},"properties":{"peak_name":"1129无名峰","peak_elev":1129,"peak_lon":124.3271484375,"peak_lat":41.154383,"base_elev":566,"distance_m":1065.8,"vertical_relief_m":563.0,"max_jut":262.7782,"search_radius_m":1875,"elev_angle_deg":27.8449}},{"type":"Feature","geometry":{"type":"Point","coordinates":[123.55828168081332,40.86818011455455]},"properties":{"peak_name":"光顶山1129.5","peak_elev":1138,"peak_lon":123.545076,"peak_lat":40.862521,"base_elev":589,"distance_m":1278.5,"vertical_relief_m":549.0,"max_jut":216.9169,"search_radius_m":3750,"elev_angle_deg":23.2391}},{"type":"Feature","geometry":{"type":"Point","coordinates":[124.1924024398733,41.17082253377441]},"properties":{"peak_name":"西大顶子1140","peak_elev":1140,"peak_lon":124.204799,"peak_lat":41.192247,"base_elev":371,"distance_m":2596.8,"vertical_relief_m":769.0,"max_jut":218.2364,"search_radius_m":3000,"elev_angle_deg":16.4958}},{"type":"Feature","geometry":{"type":"Point","coordinates":[123.9541692265248,41.06787560221432]},"properties":{"peak_name":"色树排东峰1165","peak_elev":1165,"peak_lon":123.945815,"peak_lat":41.06895446777344,"base_elev":754,"distance_m":712.3,"vertical_relief_m":411.0,"max_jut":205.7863,"search_radius_m":1000,"elev_angle_deg":29.9851}},{"type":"Feature","geometry":{"type":"Point","coordinates":[123.92533330590456,41.05035845417398]},"properties":{"peak_name":"五顶山1178","peak_elev":1168,"peak_lon":123.93234252929688,"peak_lat":41.06356430053711,"base_elev":590,"distance_m":1580.5,"vertical_relief_m":578.0,"max_jut":198.3934,"search_radius_m":3500,"elev_angle_deg":20.0878}},{"type":"Feature","geometry":{"type":"Point","coordinates":[124.33927698882684,41.14225610773941]},"properties":{"peak_name":"韭菜顶大山1171","peak_elev":1171,"peak_lon":124.336043,"peak_lat":41.151149,"base_elev":577,"distance_m":1024.3,"vertical_relief_m":594.0,"max_jut":297.7792,"search_radius_m":1500,"elev_angle_deg":30.1098}},{"type":"Feature","geometry":{"type":"Point","coordinates":[123.56609702378518,40.84338661271285]},"properties":{"peak_name":"白云山1176.6","peak_elev":1172,"peak_lon":123.571891,"peak_lat":40.852415,"base_elev":661,"distance_m":1115.3,"vertical_relief_m":511.0,"max_jut":212.7485,"search_radius_m":2250,"elev_angle_deg":24.616}},{"type":"Feature","geometry":{"type":"Point","coordinates":[124.11236254805824,41.121505024676246]},"properties":{"peak_name":"东大岗1191","peak_elev":1191,"peak_lon":124.086019,"peak_lat":41.121101,"base_elev":465,"distance_m":2212.8,"vertical_relief_m":726.0,"max_jut":226.8482,"search_radius_m":4250,"elev_angle_deg":18.1642}},{"type":"Feature","geometry":{"type":"Point","coordinates":[124.26058456993798,41.08700971776606]},"properties":{"peak_name":"1199无名峰","peak_elev":1199,"peak_lon":124.2710952758789,"peak_lat":41.09536361694336,"base_elev":530,"distance_m":1280.9,"vertical_relief_m":669.0,"max_jut":309.8655,"search_radius_m":2250,"elev_angle_deg":27.5776}},{"type":"Feature","geometry":{"type":"Point","coordinates":[124.34035496716778,41.16758859875158]},"properties":{"peak_name":"老坪坨1231","peak_elev":1231,"peak_lon":124.357603,"peak_lat":41.168936,"base_elev":556,"distance_m":1455.2,"vertical_relief_m":675.0,"max_jut":284.6296,"search_radius_m":1875,"elev_angle_deg":24.8844}},{"type":"Feature","geometry":{"type":"Point","coordinates":[124.37700623075986,41.15087993446696]},"properties":{"peak_name":"韭菜顶子1262","peak_elev":1248,"peak_lon":124.354908,"peak_lat":41.150341,"base_elev":516,"distance_m":1856.0,"vertical_relief_m":732.0,"max_jut":269.1659,"search_radius_m":2250,"elev_angle_deg":21.5241}},{"type":"Feature","geometry":{"type":"Point","coordinates":[123.17586886436364,39.92737451749617]},"properties":{"peak_name":"双塔山394","peak_elev":394,"peak_lon":123.178025,"peak_lat":39.934381,"base_elev":69,"distance_m":799.5,"vertical_relief_m":325.0,"max_jut":122.2594,"search_radius_m":1250,"elev_angle_deg":22.1219}},{"type":"Feature","geometry":{"type":"Point","coordinates":[124.16895641095778,40.34266567334463]},"properties":{"peak_name":"488无名峰","peak_elev":488,"peak_lon":124.178658,"peak_lat":40.341588,"base_elev":138,"distance_m":832.9,"vertical_relief_m":350.0,"max_jut":135.8656,"search_radius_m":1125,"elev_angle_deg":22.793}},{"type":"Feature","geometry":{"type":"Point","coordinates":[124.09053348665417,40.3612607997259]},"properties":{"peak_name":"500无名峰","peak_elev":500,"peak_lon":124.09780883789062,"peak_lat":40.36368560791016,"base_elev":125,"distance_m":674.1,"vertical_relief_m":375.0,"max_jut":182.572,"search_radius_m":875,"elev_angle_deg":29.0871}},{"type":"Feature","geometry":{"type":"Point","coordinates":[122.83091579526176,39.916594734086736]},"properties":{"peak_name":"鸡冠山506","peak_elev":506,"peak_lon":122.836306,"peak_lat":39.917403,"base_elev":196,"distance_m":469.5,"vertical_relief_m":310.0,"max_jut":171.0907,"search_radius_m":1000,"elev_angle_deg":33.4359}},{"type":"Feature","geometry":{"type":"Point","coordinates":[123.60490424405911,41.113420187119175]},"properties":{"peak_name":"东黄泥岗前山516","peak_elev":516,"peak_lon":123.598436,"peak_lat":41.108839,"base_elev":167,"distance_m":744.3,"vertical_relief_m":349.0,"max_jut":148.255,"search_radius_m":1000,"elev_angle_deg":25.1217}},{"type":"Feature","geometry":{"type":"Point","coordinates":[123.04193005550142,39.92333209871763]},"properties":{"peak_name":"老鹞窝521","peak_elev":521,"peak_lon":123.046781,"peak_lat":39.928452,"base_elev":173,"distance_m":703.7,"vertical_relief_m":348.0,"max_jut":154.2619,"search_radius_m":1625,"elev_angle_deg":26.3137}},{"type":"Feature","geometry":{"type":"Point","coordinates":[121.78931922332517,39.07496314439516]},"properties":{"peak_name":"南山峰522","peak_elev":522,"peak_lon":121.786894,"peak_lat":39.080892,"base_elev":144,"distance_m":690.9,"vertical_relief_m":378.0,"max_jut":181.269,"search_radius_m":1250,"elev_angle_deg":28.6836}},{"type":"Feature","geometry":{"type":"Point","coordinates":[123.61837897332092,40.25777487899533]},"properties":{"peak_name":"双山527","peak_elev":527,"peak_lon":123.625655,"peak_lat":40.26020050048828,"base_elev":196,"distance_m":675.0,"vertical_relief_m":331.0,"max_jut":145.9519,"search_radius_m":875,"elev_angle_deg":26.122}},{"type":"Feature","geometry":{"type":"Point","coordinates":[124.1953668803109,41.69148607245008]},"properties":{"peak_name":"棋盘山529","peak_elev":529,"peak_lon":124.189977,"peak_lat":41.690139,"base_elev":277,"distance_m":473.0,"vertical_relief_m":252.0,"max_jut":118.6958,"search_radius_m":750,"elev_angle_deg":28.0473}},{"type":"Feature","geometry":{"type":"Point","coordinates":[122.96108167993069,39.91740321784244]},"properties":{"peak_name":"帽盔山539","peak_elev":539,"peak_lon":122.971727,"peak_lat":39.916595458984375,"base_elev":132,"distance_m":914.6,"vertical_relief_m":407.0,"max_jut":165.8184,"search_radius_m":1375,"elev_angle_deg":23.9892}},{"type":"Feature","geometry":{"type":"Point","coordinates":[122.9387136293561,39.98720231541853]},"properties":{"peak_name":"仙人洞山540","peak_elev":540,"peak_lon":122.94571685791016,"peak_lat":39.990571,"base_elev":179,"distance_m":705.5,"vertical_relief_m":361.0,"max_jut":164.6357,"search_radius_m":750,"elev_angle_deg":27.0985}},{"type":"Feature","geometry":{"type":"Point","coordinates":[123.6730863741238,40.27098011367189]},"properties":{"peak_name":"尖山子541","peak_elev":541,"peak_lon":123.681171,"peak_lat":40.27098083496094,"base_elev":195,"distance_m":687.6,"vertical_relief_m":346.0,"max_jut":155.8321,"search_radius_m":1000,"elev_angle_deg":26.7115}},{"type":"Feature","geometry":{"type":"Point","coordinates":[124.20560767454984,40.61216025858048]},"properties":{"peak_name":"后大砬子545","peak_elev":545,"peak_lon":124.205069,"peak_lat":40.616472,"base_elev":223,"distance_m":481.0,"vertical_relief_m":322.0,"max_jut":178.9738,"search_radius_m":1000,"elev_angle_deg":33.7999}},{"type":"Feature","geometry":{"type":"Point","coordinates":[122.58217229308906,40.08152542025108]},"properties":{"peak_name":"546无名峰","peak_elev":546,"peak_lon":122.58675384521484,"peak_lat":40.086915,"base_elev":161,"distance_m":714.7,"vertical_relief_m":385.0,"max_jut":182.5504,"search_radius_m":875,"elev_angle_deg":28.3108}},{"type":"Feature","geometry":{"type":"Point","coordinates":[123.12250893648697,40.31221278521297]},"properties":{"peak_name":"550无名峰","peak_elev":550,"peak_lon":123.119814,"peak_lat":40.320028,"base_elev":175,"distance_m":897.5,"vertical_relief_m":375.0,"max_jut":144.4297,"search_radius_m":1250,"elev_angle_deg":22.6765}},{"type":"Feature","geometry":{"type":"Point","coordinates":[123.89757536362528,41.328476866137386]},"properties":{"peak_name":"前山558","peak_elev":558,"peak_lon":123.891916,"peak_lat":41.322817,"base_elev":194,"distance_m":787.2,"vertical_relief_m":364.0,"max_jut":152.7972,"search_radius_m":1125,"elev_angle_deg":24.8157}},{"type":"Feature","geometry":{"type":"Point","coordinates":[123.71863095902866,40.3116737960425]},"properties":{"peak_name":"563无名峰","peak_elev":563,"peak_lon":123.712163,"peak_lat":40.306284,"base_elev":212,"distance_m":812.7,"vertical_relief_m":351.0,"max_jut":139.2128,"search_radius_m":2500,"elev_angle_deg":23.3592}},{"type":"Feature","geometry":{"type":"Point","coordinates":[123.12331742024266,40.35371495133929]},"properties":{"peak_name":"569无名峰","peak_elev":569,"peak_lon":123.123991,"peak_lat":40.360991,"base_elev":218,"distance_m":810.0,"vertical_relief_m":351.0,"max_jut":139.4051,"search_radius_m":875,"elev_angle_deg":23.4287}},{"type":"Feature","geometry":{"type":"Point","coordinates":[124.11209305347302,40.39413913912468]},"properties":{"peak_name":"西大砬子571","peak_elev":571,"peak_lon":124.119504,"peak_lat":40.3906364440918,"base_elev":157,"distance_m":739.7,"vertical_relief_m":414.0,"max_jut":202.4108,"search_radius_m":1000,"elev_angle_deg":29.2351}},{"type":"Feature","geometry":{"type":"Point","coordinates":[123.61191110327526,40.44237866988189]},"properties":{"peak_name":"南山573","peak_elev":573,"peak_lon":123.605982,"peak_lat":40.44911575317383,"base_elev":212,"distance_m":901.5,"vertical_relief_m":361.0,"max_jut":134.1859,"search_radius_m":1375,"elev_angle_deg":21.8233}},{"type":"Feature","geometry":{"type":"Point","coordinates":[124.13661706072948,40.57523950040317]},"properties":{"peak_name":"老黑山575","peak_elev":575,"peak_lon":124.135943,"peak_lat":40.58170700073242,"base_elev":170,"distance_m":720.5,"vertical_relief_m":405.0,"max_jut":198.2623,"search_radius_m":1375,"elev_angle_deg":29.3408}},{"type":"Feature","geometry":{"type":"Point","coordinates":[122.97132247416964,40.02088913857301]},"properties":{"peak_name":"拦马峰578","peak_elev":578,"peak_lon":122.962968,"peak_lat":40.020081,"base_elev":112,"distance_m":718.8,"vertical_relief_m":466.0,"max_jut":253.9256,"search_radius_m":1125,"elev_angle_deg":32.9555}},{"type":"Feature","geometry":{"type":"Point","coordinates":[123.97330334207656,41.450288418664]},"properties":{"peak_name":"棒槌砬子584","peak_elev":584,"peak_lon":123.979232,"peak_lat":41.447324,"base_elev":332,"distance_m":594.8,"vertical_relief_m":252.0,"max_jut":98.4193,"search_radius_m":1250,"elev_angle_deg":22.961}},{"type":"Feature","geometry":{"type":"Point","coordinates":[123.57202590466036,40.10308498706995]},"properties":{"peak_name":"城山586","peak_elev":584,"peak_lon":123.557743,"peak_lat":40.101199,"base_elev":132,"distance_m":1235.7,"vertical_relief_m":452.0,"max_jut":155.5967,"search_radius_m":1250,"elev_angle_deg":20.0917}},{"type":"Feature","geometry":{"type":"Point","coordinates":[122.56249918836684,40.3755440127434]},"properties":{"peak_name":"望海楼593","peak_elev":593,"peak_lon":122.56761932373048,"peak_lat":40.381473,"base_elev":235,"distance_m":789.0,"vertical_relief_m":358.0,"max_jut":147.9032,"search_radius_m":2000,"elev_angle_deg":24.4056}},{"type":"Feature","geometry":{"type":"Point","coordinates":[123.321395940391,40.40572740628981]},"properties":{"peak_name":"598无名峰","peak_elev":598,"peak_lon":123.320183,"peak_lat":40.412465,"base_elev":267,"distance_m":755.2,"vertical_relief_m":331.0,"max_jut":132.727,"search_radius_m":875,"elev_angle_deg":23.6676}},{"type":"Feature","geometry":{"type":"Point","coordinates":[123.8986533419662,40.88973968137341]},"properties":{"peak_name":"尖山子599","peak_elev":599,"peak_lon":123.892994,"peak_lat":40.886506,"base_elev":253,"distance_m":597.0,"vertical_relief_m":346.0,"max_jut":173.6397,"search_radius_m":1000,"elev_angle_deg":30.0951}},{"type":"Feature","geometry":{"type":"Point","coordinates":[124.0894555083132,41.255982822708944]},"properties":{"peak_name":"600无名峰(2)","peak_elev":600,"peak_lon":124.083796,"peak_lat":41.252479,"base_elev":264,"distance_m":613.5,"vertical_relief_m":336.0,"max_jut":161.5219,"search_radius_m":875,"elev_angle_deg":28.7085}},{"type":"Feature","geometry":{"type":"Point","coordinates":[123.78600460533762,40.4326768648134]},"properties":{"peak_name":"大台子609","peak_elev":609,"peak_lon":123.786544,"peak_lat":40.42701721191406,"base_elev":257,"distance_m":630.1,"vertical_relief_m":352.0,"max_jut":171.4882,"search_radius_m":875,"elev_angle_deg":29.1895}},{"type":"Feature","geometry":{"type":"Point","coordinates":[123.5572037024724,41.10398787663592]},"properties":{"peak_name":"棺材砬子前山610","peak_elev":610,"peak_lon":123.562324,"peak_lat":41.096981,"base_elev":166,"distance_m":889.1,"vertical_relief_m":444.0,"max_jut":198.3022,"search_radius_m":1125,"elev_angle_deg":26.5367}},{"type":"Feature","geometry":{"type":"Point","coordinates":[124.4861515377804,40.83934419393431]},"properties":{"peak_name":"613无名峰","peak_elev":613,"peak_lon":124.480762,"peak_lat":40.840692,"base_elev":331,"distance_m":478.6,"vertical_relief_m":282.0,"max_jut":143.3997,"search_radius_m":625,"elev_angle_deg":30.5074}},{"type":"Feature","geometry":{"type":"Point","coordinates":[124.19671435323708,40.35209798382788]},"properties":{"peak_name":"佛爷山616","peak_elev":616,"peak_lon":124.18324279785156,"peak_lat":40.349538,"base_elev":135,"distance_m":1179.3,"vertical_relief_m":481.0,"max_jut":182.0175,"search_radius_m":1750,"elev_angle_deg":22.189}},{"type":"Feature","geometry":{"type":"Point","coordinates":[123.18476218567643,40.36314726182255]},"properties":{"peak_name":"天龙寺625","peak_elev":625,"peak_lon":123.179911,"peak_lat":40.368537,"base_elev":224,"distance_m":726.6,"vertical_relief_m":401.0,"max_jut":193.7382,"search_radius_m":750,"elev_angle_deg":28.8937}},{"type":"Feature","geometry":{"type":"Point","coordinates":[124.30343420899048,41.36405015138852]},"properties":{"peak_name":"631无名峰","peak_elev":631,"peak_lon":124.304243,"peak_lat":41.357852,"base_elev":260,"distance_m":691.7,"vertical_relief_m":371.0,"max_jut":175.2005,"search_radius_m":875,"elev_angle_deg":28.2073}},{"type":"Feature","geometry":{"type":"Point","coordinates":[124.28214413675684,41.0128987068262]},"properties":{"peak_name":"634无名峰(2)","peak_elev":634,"peak_lon":124.276889,"peak_lat":41.012899,"base_elev":294,"distance_m":442.1,"vertical_relief_m":340.0,"max_jut":207.619,"search_radius_m":750,"elev_angle_deg":37.5623}},{"type":"Feature","geometry":{"type":"Point","coordinates":[123.05405731183704,40.24672560100066]},"properties":{"peak_name":"635无名峰","peak_elev":635,"peak_lon":123.059178,"peak_lat":40.248073,"base_elev":380,"distance_m":460.7,"vertical_relief_m":255.0,"max_jut":123.6961,"search_radius_m":750,"elev_angle_deg":28.9648}},{"type":"Feature","geometry":{"type":"Point","coordinates":[122.25770081246507,40.12787848891165]},"properties":{"peak_name":"观头山636","peak_elev":636,"peak_lon":122.250963,"peak_lat":40.133403,"base_elev":255,"distance_m":840.3,"vertical_relief_m":381.0,"max_jut":157.391,"search_radius_m":2000,"elev_angle_deg":24.39}},{"type":"Feature","geometry":{"type":"Point","coordinates":[123.6806322225104,40.480377406400144]},"properties":{"peak_name":"高丽城637","peak_elev":637,"peak_lon":123.681171,"peak_lat":40.490618,"base_elev":211,"distance_m":1138.1,"vertical_relief_m":426.0,"max_jut":149.1626,"search_radius_m":1250,"elev_angle_deg":20.5213}},{"type":"Feature","geometry":{"type":"Point","coordinates":[123.34726742057366,40.87788191962304]},"properties":{"peak_name":"638无名峰","peak_elev":638,"peak_lon":123.341608,"peak_lat":40.875186920166016,"base_elev":312,"distance_m":563.2,"vertical_relief_m":326.0,"max_jut":163.5019,"search_radius_m":1500,"elev_angle_deg":30.0638}},{"type":"Feature","geometry":{"type":"Point","coordinates":[124.0390600208741,40.972744013626055]},"properties":{"peak_name":"老平坨639","peak_elev":639,"peak_lon":124.041755,"peak_lat":40.976247,"base_elev":350,"distance_m":450.3,"vertical_relief_m":289.0,"max_jut":156.0585,"search_radius_m":1000,"elev_angle_deg":32.6921}},{"type":"Feature","geometry":{"type":"Point","coordinates":[122.99557698684086,39.91012686404108]},"properties":{"peak_name":"老古城山641","peak_elev":641,"peak_lon":123.001506,"peak_lat":39.90837478637695,"base_elev":290,"distance_m":543.0,"vertical_relief_m":351.0,"max_jut":190.8085,"search_radius_m":1250,"elev_angle_deg":32.879}},{"type":"Feature","geometry":{"type":"Point","coordinates":[123.7571686847174,40.701632460878784]},"properties":{"peak_name":"646无名峰","peak_elev":646,"peak_lon":123.750701,"peak_lat":40.6992073059082,"base_elev":345,"distance_m":609.4,"vertical_relief_m":301.0,"max_jut":133.4964,"search_radius_m":625,"elev_angle_deg":26.2861}},{"type":"Feature","geometry":{"type":"Point","coordinates":[122.79345604791396,39.95809690021306]},"properties":{"peak_name":"649无名峰","peak_elev":649,"peak_lon":122.792378,"peak_lat":39.949473,"base_elev":206,"distance_m":962.0,"vertical_relief_m":443.0,"max_jut":185.0872,"search_radius_m":1750,"elev_angle_deg":24.726}},{"type":"Feature","geometry":{"type":"Point","coordinates":[123.61541453288334,41.154652858660256]},"properties":{"peak_name":"650无名峰","peak_elev":650,"peak_lon":123.621343,"peak_lat":41.158426,"base_elev":312,"distance_m":650.5,"vertical_relief_m":338.0,"max_jut":155.9579,"search_radius_m":1875,"elev_angle_deg":27.4564}},{"type":"Feature","geometry":{"type":"Point","coordinates":[122.8891266256727,40.18042993303264]},"properties":{"peak_name":"653无名峰(2)","peak_elev":653,"peak_lon":122.893304,"peak_lat":40.18393325805664,"base_elev":286,"distance_m":527.2,"vertical_relief_m":367.0,"max_jut":209.743,"search_radius_m":875,"elev_angle_deg":34.843}},{"type":"Feature","geometry":{"type":"Point","coordinates":[122.96916651748776,39.88614184595508]},"properties":{"peak_name":"雄石656","peak_elev":656,"peak_lon":122.982911,"peak_lat":39.882638,"base_elev":172,"distance_m":1238.4,"vertical_relief_m":484.0,"max_jut":176.505,"search_radius_m":2500,"elev_angle_deg":21.3469}},{"type":"Feature","geometry":{"type":"Point","coordinates":[122.73982662545204,40.34886404880505]},"properties":{"peak_name":"662无名峰","peak_elev":662,"peak_lon":122.735515,"peak_lat":40.349134,"base_elev":422,"distance_m":367.5,"vertical_relief_m":240.0,"max_jut":131.452,"search_radius_m":1500,"elev_angle_deg":33.147}},{"type":"Feature","geometry":{"type":"Point","coordinates":[123.70677319727828,40.58736675673878]},"properties":{"peak_name":"666无名峰","peak_elev":666,"peak_lon":123.711355,"peak_lat":40.588984,"base_elev":371,"distance_m":427.4,"vertical_relief_m":295.0,"max_jut":167.7754,"search_radius_m":750,"elev_angle_deg":34.6142}},{"type":"Feature","geometry":{"type":"Point","coordinates":[123.82723727687872,40.91345520487417]},"properties":{"peak_name":"667无名峰","peak_elev":667,"peak_lon":123.824273,"peak_lat":40.91075897216797,"base_elev":440,"distance_m":389.9,"vertical_relief_m":227.0,"max_jut":114.2375,"search_radius_m":625,"elev_angle_deg":30.208}},{"type":"Feature","geometry":{"type":"Point","coordinates":[123.9857000929974,40.9918781291778]},"properties":{"peak_name":"669无名峰","peak_elev":669,"peak_lon":123.986778,"peak_lat":40.997268,"base_elev":292,"distance_m":605.4,"vertical_relief_m":377.0,"max_jut":199.1172,"search_radius_m":875,"elev_angle_deg":31.9117}},{"type":"Feature","geometry":{"type":"Point","coordinates":[122.75734377349237,39.95189852475263]},"properties":{"peak_name":"670无名峰","peak_elev":670,"peak_lon":122.755727,"peak_lat":39.944083,"base_elev":247,"distance_m":878.7,"vertical_relief_m":423.0,"max_jut":183.2719,"search_radius_m":1125,"elev_angle_deg":25.7058}},{"type":"Feature","geometry":{"type":"Point","coordinates":[124.29966128479715,41.36647560265564]},"properties":{"peak_name":"蛤蟆岭671","peak_elev":671,"peak_lon":124.29508209228516,"peak_lat":41.364589,"base_elev":254,"distance_m":436.7,"vertical_relief_m":417.0,"max_jut":288.2432,"search_radius_m":625,"elev_angle_deg":43.6781}},{"type":"Feature","geometry":{"type":"Point","coordinates":[124.34547536428728,41.43870015149885]},"properties":{"peak_name":"676无名峰","peak_elev":676,"peak_lon":124.340894,"peak_lat":41.435736,"base_elev":400,"distance_m":505.0,"vertical_relief_m":276.0,"max_jut":132.471,"search_radius_m":1000,"elev_angle_deg":28.6581}},{"type":"Feature","geometry":{"type":"Point","coordinates":[123.1483804166696,40.32110610652576]},"properties":{"peak_name":"大南山679","peak_elev":679,"peak_lon":123.145685,"peak_lat":40.330808,"base_elev":253,"distance_m":1101.4,"vertical_relief_m":426.0,"max_jut":153.5128,"search_radius_m":2500,"elev_angle_deg":21.1455}},{"type":"Feature","geometry":{"type":"Point","coordinates":[124.09888781879646,40.37311856147628]},"properties":{"peak_name":"胡晓德峰683","peak_elev":683,"peak_lon":124.106434,"peak_lat":40.372041,"base_elev":266,"distance_m":652.0,"vertical_relief_m":417.0,"max_jut":225.0697,"search_radius_m":1625,"elev_angle_deg":32.6018}},{"type":"Feature","geometry":{"type":"Point","coordinates":[122.76947102982798,40.127070005155936]},"properties":{"peak_name":"687无名峰","peak_elev":687,"peak_lon":122.769741,"peak_lat":40.132729,"base_elev":272,"distance_m":628.8,"vertical_relief_m":415.0,"max_jut":228.3763,"search_radius_m":875,"elev_angle_deg":33.4243}},{"type":"Feature","geometry":{"type":"Point","coordinates":[122.61585911624354,39.8990775860464]},"properties":{"peak_name":"688无名峰","peak_elev":688,"peak_lon":122.621519,"peak_lat":39.903389,"base_elev":270,"distance_m":680.8,"vertical_relief_m":418.0,"max_jut":218.8082,"search_radius_m":875,"elev_angle_deg":31.5492}},{"type":"Feature","geometry":{"type":"Point","coordinates":[124.33119215126976,40.26289527611481]},"properties":{"peak_name":"五龙山东峰693","peak_elev":693,"peak_lon":124.334696,"peak_lat":40.27394485473633,"base_elev":198,"distance_m":1262.6,"vertical_relief_m":495.0,"max_jut":180.4885,"search_radius_m":3250,"elev_angle_deg":21.4076}},{"type":"Feature","geometry":{"type":"Point","coordinates":[123.3588556877388,40.8948600784929]},"properties":{"peak_name":"694无名峰(3)","peak_elev":694,"peak_lon":123.363168,"peak_lat":40.898364,"base_elev":368,"distance_m":532.4,"vertical_relief_m":326.0,"max_jut":170.2989,"search_radius_m":2000,"elev_angle_deg":31.48}},{"type":"Feature","geometry":{"type":"Point","coordinates":[124.19374991279948,40.8557833636337]},"properties":{"peak_name":"北大砬696","peak_elev":696,"peak_lon":124.192402,"peak_lat":40.858748,"base_elev":385,"distance_m":348.3,"vertical_relief_m":311.0,"max_jut":207.0387,"search_radius_m":750,"elev_angle_deg":41.7619}},{"type":"Feature","geometry":{"type":"Point","coordinates":[122.978598827971,39.89880809146117]},"properties":{"peak_name":"歇马山大靴王707.1","peak_elev":697,"peak_lon":122.987762,"peak_lat":39.895843505859375,"base_elev":244,"distance_m":850.0,"vertical_relief_m":453.0,"max_jut":213.3722,"search_radius_m":1500,"elev_angle_deg":28.055}},{"type":"Feature","geometry":{"type":"Point","coordinates":[124.45974106842726,40.74475159451652]},"properties":{"peak_name":"698无名峰","peak_elev":698,"peak_lon":124.463244,"peak_lat":40.754184,"base_elev":209,"distance_m":1088.4,"vertical_relief_m":489.0,"max_jut":200.2266,"search_radius_m":1750,"elev_angle_deg":24.1936}},{"type":"Feature","geometry":{"type":"Point","coordinates":[124.32499377580936,40.26909365157523]},"properties":{"peak_name":"五龙山699","peak_elev":699,"peak_lon":124.329306,"peak_lat":40.275292,"base_elev":281,"distance_m":779.9,"vertical_relief_m":418.0,"max_jut":197.3826,"search_radius_m":3500,"elev_angle_deg":28.1898}},{"type":"Feature","geometry":{"type":"Point","coordinates":[122.6403831235,39.88802830805174]},"properties":{"peak_name":"700无名峰","peak_elev":700,"peak_lon":122.629334,"peak_lat":39.893418,"base_elev":235,"distance_m":1118.6,"vertical_relief_m":465.0,"max_jut":178.7073,"search_radius_m":2750,"elev_angle_deg":22.5726}},{"type":"Feature","geometry":{"type":"Point","coordinates":[124.3743112849075,41.41902704677664]},"properties":{"peak_name":"701无名峰","peak_elev":701,"peak_lon":124.368517,"peak_lat":41.416063,"base_elev":371,"distance_m":585.7,"vertical_relief_m":330.0,"max_jut":162.1613,"search_radius_m":1250,"elev_angle_deg":29.3981}},{"type":"Feature","geometry":{"type":"Point","coordinates":[123.07453890031496,40.19659960814679]},"properties":{"peak_name":"骆驼砬子705","peak_elev":705,"peak_lon":123.073461,"peak_lat":40.185821533203125,"base_elev":243,"distance_m":1200.3,"vertical_relief_m":462.0,"max_jut":165.757,"search_radius_m":1500,"elev_angle_deg":21.0519}},{"type":"Feature","geometry":{"type":"Point","coordinates":[124.1999482882599,40.95360989807431]},"properties":{"peak_name":"大南岔707","peak_elev":707,"peak_lon":124.199948,"peak_lat":40.958191,"base_elev":397,"distance_m":508.8,"vertical_relief_m":310.0,"max_jut":161.1583,"search_radius_m":1125,"elev_angle_deg":31.353}},{"type":"Feature","geometry":{"type":"Point","coordinates":[123.50599973127756,40.92854690164737]},"properties":{"peak_name":"708无名峰","peak_elev":708,"peak_lon":123.503035,"peak_lat":40.927469,"base_elev":514,"distance_m":276.9,"vertical_relief_m":194.0,"max_jut":111.449,"search_radius_m":375,"elev_angle_deg":35.0156}},{"type":"Feature","geometry":{"type":"Point","coordinates":[122.85867373754104,39.95135953558216]},"properties":{"peak_name":"蓉花山711","peak_elev":711,"peak_lon":122.870801,"peak_lat":39.959983,"base_elev":152,"distance_m":1410.9,"vertical_relief_m":559.0,"max_jut":206.0309,"search_radius_m":2500,"elev_angle_deg":21.6135}},{"type":"Feature","geometry":{"type":"Point","coordinates":[123.67766778207282,40.51271675662845]},"properties":{"peak_name":"715无名峰","peak_elev":715,"peak_lon":123.68197631835938,"peak_lat":40.517568,"base_elev":384,"distance_m":650.8,"vertical_relief_m":331.0,"max_jut":150.042,"search_radius_m":1125,"elev_angle_deg":26.9581}},{"type":"Feature","geometry":{"type":"Point","coordinates":[124.33550406463354,40.9204620640903]},"properties":{"peak_name":"717无名峰","peak_elev":717,"peak_lon":124.340085,"peak_lat":40.921001,"base_elev":446,"distance_m":390.5,"vertical_relief_m":271.0,"max_jut":154.7674,"search_radius_m":1125,"elev_angle_deg":34.76}},{"type":"Feature","geometry":{"type":"Point","coordinates":[123.80648619381556,40.51109978911703]},"properties":{"peak_name":"影背山719","peak_elev":719,"peak_lon":123.801635,"peak_lat":40.51622009277344,"base_elev":390,"distance_m":701.7,"vertical_relief_m":329.0,"max_jut":139.6719,"search_radius_m":1375,"elev_angle_deg":25.1201}},{"type":"Feature","geometry":{"type":"Point","coordinates":[122.2135037004864,39.93114744168947]},"properties":{"peak_name":"滚石峰721","peak_elev":721,"peak_lon":122.216468,"peak_lat":39.92467880249024,"base_elev":387,"distance_m":761.6,"vertical_relief_m":334.0,"max_jut":134.0244,"search_radius_m":1125,"elev_angle_deg":23.6799}},{"type":"Feature","geometry":{"type":"Point","coordinates":[123.58038023680268,41.061407732168654]},"properties":{"peak_name":"722无名峰","peak_elev":722,"peak_lon":123.589543,"peak_lat":41.053323,"base_elev":233,"distance_m":1183.0,"vertical_relief_m":489.0,"max_jut":186.8591,"search_radius_m":1250,"elev_angle_deg":22.458}},{"type":"Feature","geometry":{"type":"Point","coordinates":[124.20048727743035,40.90806531316945]},"properties":{"peak_name":"大东山723","peak_elev":723,"peak_lon":124.202374,"peak_lat":40.896208,"base_elev":204,"distance_m":1326.4,"vertical_relief_m":519.0,"max_jut":188.9204,"search_radius_m":1750,"elev_angle_deg":21.3696}},{"type":"Feature","geometry":{"type":"Point","coordinates":[124.01049359483908,40.97570845406365]},"properties":{"peak_name":"724无名峰","peak_elev":724,"peak_lon":124.023429,"peak_lat":40.974091,"base_elev":263,"distance_m":1103.5,"vertical_relief_m":461.0,"max_jut":178.0814,"search_radius_m":1375,"elev_angle_deg":22.6733}},{"type":"Feature","geometry":{"type":"Point","coordinates":[124.26166254827892,41.35030592754149]},"properties":{"peak_name":"老平坨725","peak_elev":725,"peak_lon":124.273251,"peak_lat":41.348419,"base_elev":288,"distance_m":992.2,"vertical_relief_m":437.0,"max_jut":176.4948,"search_radius_m":1250,"elev_angle_deg":23.7704}},{"type":"Feature","geometry":{"type":"Point","coordinates":[122.41831958526564,40.16560773084467]},"properties":{"peak_name":"726无名峰","peak_elev":726,"peak_lon":122.420206,"peak_lat":40.152402,"base_elev":208,"distance_m":1475.1,"vertical_relief_m":518.0,"max_jut":171.4169,"search_radius_m":1625,"elev_angle_deg":19.3494}},{"type":"Feature","geometry":{"type":"Point","coordinates":[124.3516737397477,41.374021451042246]},"properties":{"peak_name":"影皮山729","peak_elev":729,"peak_lon":124.346823,"peak_lat":41.374021,"base_elev":249,"distance_m":405.8,"vertical_relief_m":480.0,"max_jut":366.9523,"search_radius_m":875,"elev_angle_deg":49.7883}},{"type":"Feature","geometry":{"type":"Point","coordinates":[122.20703583044074,39.99232271253801]},"properties":{"peak_name":"730无名峰(1)","peak_elev":730,"peak_lon":122.202589,"peak_lat":39.996904,"base_elev":358,"distance_m":634.8,"vertical_relief_m":372.0,"max_jut":188.077,"search_radius_m":750,"elev_angle_deg":30.3708}},{"type":"Feature","geometry":{"type":"Point","coordinates":[122.80746976634624,40.15455845285]},"properties":{"peak_name":"733无名峰","peak_elev":733,"peak_lon":122.816363,"peak_lat":40.152402,"base_elev":327,"distance_m":794.7,"vertical_relief_m":406.0,"max_jut":185.0316,"search_radius_m":1125,"elev_angle_deg":27.0618}},{"type":"Feature","geometry":{"type":"Point","coordinates":[122.1790083935762,39.984507369566174]},"properties":{"peak_name":"高丽城南峰735","peak_elev":735,"peak_lon":122.188441,"peak_lat":39.991784,"base_elev":275,"distance_m":1141.0,"vertical_relief_m":460.0,"max_jut":172.0835,"search_radius_m":3500,"elev_angle_deg":21.9571}},{"type":"Feature","geometry":{"type":"Point","coordinates":[124.14928330623556,41.13551874310851]},"properties":{"peak_name":"巴图鲁峰740","peak_elev":740,"peak_lon":124.156829,"peak_lat":41.136866,"base_elev":320,"distance_m":651.0,"vertical_relief_m":420.0,"max_jut":228.0811,"search_radius_m":1000,"elev_angle_deg":32.8285}},{"type":"Feature","geometry":{"type":"Point","coordinates":[124.17299882973631,41.36647560265564]},"properties":{"peak_name":"745无名峰","peak_elev":745,"peak_lon":124.170034,"peak_lat":41.363511,"base_elev":451,"distance_m":412.2,"vertical_relief_m":294.0,"max_jut":170.7253,"search_radius_m":875,"elev_angle_deg":35.4982}},{"type":"Feature","geometry":{"type":"Point","coordinates":[123.62538583253706,40.64719455466114]},"properties":{"peak_name":"746无名峰","peak_elev":746,"peak_lon":123.622691,"peak_lat":40.650698,"base_elev":445,"distance_m":450.9,"vertical_relief_m":301.0,"max_jut":167.0799,"search_radius_m":2250,"elev_angle_deg":33.7252}},{"type":"Feature","geometry":{"type":"Point","coordinates":[123.87709377514734,40.58871422966496]},"properties":{"peak_name":"747无名峰(1)","peak_elev":747,"peak_lon":123.870356,"peak_lat":40.59114074707031,"base_elev":362,"distance_m":630.8,"vertical_relief_m":385.0,"max_jut":200.836,"search_radius_m":1750,"elev_angle_deg":31.3972}},{"type":"Feature","geometry":{"type":"Point","coordinates":[123.99944431684445,41.02367849023563]},"properties":{"peak_name":"749无名峰","peak_elev":749,"peak_lon":124.004026,"peak_lat":41.029876708984375,"base_elev":338,"distance_m":788.9,"vertical_relief_m":411.0,"max_jut":189.8547,"search_radius_m":1125,"elev_angle_deg":27.5185}},{"type":"Feature","geometry":{"type":"Point","coordinates":[122.86406362924576,40.1658772254299]},"properties":{"peak_name":"天门山750","peak_elev":750,"peak_lon":122.858674,"peak_lat":40.168572,"base_elev":349,"distance_m":548.0,"vertical_relief_m":401.0,"max_jut":237.0081,"search_radius_m":625,"elev_angle_deg":36.1949}},{"type":"Feature","geometry":{"type":"Point","coordinates":[124.28510857719444,41.57991531416244]},"properties":{"peak_name":"752无名峰","peak_elev":752,"peak_lon":124.293463,"peak_lat":41.584497,"base_elev":388,"distance_m":862.7,"vertical_relief_m":364.0,"max_jut":141.6555,"search_radius_m":1125,"elev_angle_deg":22.8764}},{"type":"Feature","geometry":{"type":"Point","coordinates":[123.41248511020072,40.84796802066185]},"properties":{"peak_name":"千山753","peak_elev":753,"peak_lon":123.422861,"peak_lat":40.85012435913086,"base_elev":356,"distance_m":907.1,"vertical_relief_m":397.0,"max_jut":159.4745,"search_radius_m":1250,"elev_angle_deg":23.637}},{"type":"Feature","geometry":{"type":"Point","coordinates":[122.68080731128538,40.09176621449004]},"properties":{"peak_name":"754无名峰","peak_elev":754,"peak_lon":122.684311,"peak_lat":40.084759,"base_elev":297,"distance_m":833.5,"vertical_relief_m":457.0,"max_jut":219.5617,"search_radius_m":1000,"elev_angle_deg":28.7355}},{"type":"Feature","geometry":{"type":"Point","coordinates":[122.78698817786832,39.93033895793376]},"properties":{"peak_name":"一面山756","peak_elev":756,"peak_lon":122.778095,"peak_lat":39.938424,"base_elev":199,"distance_m":1176.3,"vertical_relief_m":557.0,"max_jut":238.4166,"search_radius_m":1625,"elev_angle_deg":25.3384}},{"type":"Feature","geometry":{"type":"Point","coordinates":[123.00662626483552,40.18339437347024]},"properties":{"peak_name":"760无名峰(1)","peak_elev":760,"peak_lon":123.010399,"peak_lat":40.18932342529297,"base_elev":298,"distance_m":732.6,"vertical_relief_m":462.0,"max_jut":246.3333,"search_radius_m":1000,"elev_angle_deg":32.2368}},{"type":"Feature","geometry":{"type":"Point","coordinates":[123.75474323345028,40.8347627859853]},"properties":{"peak_name":"761无名峰","peak_elev":761,"peak_lon":123.747736,"peak_lat":40.82856369018555,"base_elev":309,"distance_m":907.3,"vertical_relief_m":452.0,"max_jut":201.596,"search_radius_m":1125,"elev_angle_deg":26.4816}},{"type":"Feature","geometry":{"type":"Point","coordinates":[123.8159185042988,41.03715321949743]},"properties":{"peak_name":"762无名峰","peak_elev":762,"peak_lon":123.814841,"peak_lat":41.041196,"base_elev":490,"distance_m":458.0,"vertical_relief_m":272.0,"max_jut":138.7715,"search_radius_m":750,"elev_angle_deg":30.7055}},{"type":"Feature","geometry":{"type":"Point","coordinates":[123.13598366574874,40.93717072837492]},"properties":{"peak_name":"通明山764","peak_elev":764,"peak_lon":123.140565,"peak_lat":40.94309997558594,"base_elev":319,"distance_m":763.2,"vertical_relief_m":445.0,"max_jut":224.1082,"search_radius_m":1625,"elev_angle_deg":30.2452}},{"type":"Feature","geometry":{"type":"Point","coordinates":[124.08056218700042,40.39521711746561]},"properties":{"peak_name":"凤凰山牛石峰765","peak_elev":765,"peak_lon":124.077328,"peak_lat":40.399529,"base_elev":283,"distance_m":551.9,"vertical_relief_m":482.0,"max_jut":316.9727,"search_radius_m":2250,"elev_angle_deg":41.1322}},{"type":"Feature","geometry":{"type":"Point","coordinates":[124.19428890196995,41.303952858880926]},"properties":{"peak_name":"老古背769","peak_elev":769,"peak_lon":124.207494,"peak_lat":41.307187,"base_elev":256,"distance_m":1162.7,"vertical_relief_m":513.0,"max_jut":207.4654,"search_radius_m":1750,"elev_angle_deg":23.8078}},{"type":"Feature","geometry":{"type":"Point","coordinates":[123.36532355778444,40.889470186788174]},"properties":{"peak_name":"770无名峰(1)","peak_elev":770,"peak_lon":123.373678,"peak_lat":40.892435,"base_elev":352,"distance_m":777.2,"vertical_relief_m":418.0,"max_jut":198.2739,"search_radius_m":1625,"elev_angle_deg":28.2726}},{"type":"Feature","geometry":{"type":"Point","coordinates":[123.69545442469838,40.42001061930731]},"properties":{"peak_name":"772无名峰","peak_elev":772,"peak_lon":123.706773,"peak_lat":40.416238,"base_elev":269,"distance_m":1048.0,"vertical_relief_m":503.0,"max_jut":217.9845,"search_radius_m":1250,"elev_angle_deg":25.6392}},{"type":"Feature","geometry":{"type":"Point","coordinates":[123.66661850407814,40.557183363192365]},"properties":{"peak_name":"图标清凉山779","peak_elev":779,"peak_lon":123.656647,"peak_lat":40.552871,"base_elev":357,"distance_m":970.9,"vertical_relief_m":422.0,"max_jut":168.4426,"search_radius_m":2000,"elev_angle_deg":23.4921}},{"type":"Feature","geometry":{"type":"Point","coordinates":[123.44132103082096,40.85389690153704]},"properties":{"peak_name":"782无名峰(1)","peak_elev":782,"peak_lon":123.435931,"peak_lat":40.846621,"base_elev":374,"distance_m":927.1,"vertical_relief_m":408.0,"max_jut":164.2956,"search_radius_m":1125,"elev_angle_deg":23.7534}},{"type":"Feature","geometry":{"type":"Point","coordinates":[123.68171020085136,41.07515195601568]},"properties":{"peak_name":"大平坨784","peak_elev":784,"peak_lon":123.687909,"peak_lat":41.0732650756836,"base_elev":425,"distance_m":561.5,"vertical_relief_m":359.0,"max_jut":193.6559,"search_radius_m":750,"elev_angle_deg":32.5932}},{"type":"Feature","geometry":{"type":"Point","coordinates":[124.31583095991132,40.81967108921209]},"properties":{"peak_name":"786无名峰(3)","peak_elev":786,"peak_lon":124.324051,"peak_lat":40.812934,"base_elev":339,"distance_m":1020.1,"vertical_relief_m":447.0,"max_jut":179.4654,"search_radius_m":1750,"elev_angle_deg":23.6627}},{"type":"Feature","geometry":{"type":"Point","coordinates":[123.46234160846936,40.88973968137341]},"properties":{"peak_name":"歪石砬子788","peak_elev":788,"peak_lon":123.4523696899414,"peak_lat":40.889201,"base_elev":321,"distance_m":842.5,"vertical_relief_m":467.0,"max_jut":226.8396,"search_radius_m":1125,"elev_angle_deg":28.9997}},{"type":"Feature","geometry":{"type":"Point","coordinates":[124.39694883006732,41.35812127051333]},"properties":{"peak_name":"西大砬子789","peak_elev":789,"peak_lon":124.392367,"peak_lat":41.357852,"base_elev":453,"distance_m":384.6,"vertical_relief_m":336.0,"max_jut":221.394,"search_radius_m":750,"elev_angle_deg":41.1416}},{"type":"Feature","geometry":{"type":"Point","coordinates":[124.21935189839688,41.38534022362215]},"properties":{"peak_name":"791无名峰","peak_elev":791,"peak_lon":124.218274,"peak_lat":41.38129806518555,"base_elev":464,"distance_m":457.9,"vertical_relief_m":327.0,"max_jut":189.9066,"search_radius_m":750,"elev_angle_deg":35.5318}},{"type":"Feature","geometry":{"type":"Point","coordinates":[123.66203709612914,40.84689004232092]},"properties":{"peak_name":"793无名峰","peak_elev":793,"peak_lon":123.653952,"peak_lat":40.842848,"base_elev":387,"distance_m":816.3,"vertical_relief_m":406.0,"max_jut":180.9962,"search_radius_m":1250,"elev_angle_deg":26.4442}},{"type":"Feature","geometry":{"type":"Point","coordinates":[124.07247734944336,41.21744509702022]},"properties":{"peak_name":"794无名峰","peak_elev":794,"peak_lon":124.08433532714844,"peak_lat":41.216367,"base_elev":335,"distance_m":1001.6,"vertical_relief_m":459.0,"max_jut":191.6224,"search_radius_m":1375,"elev_angle_deg":24.6204}},{"type":"Feature","geometry":{"type":"Point","coordinates":[123.84502391950429,40.58305484337501]},"properties":{"peak_name":"夫妻砬子796","peak_elev":796,"peak_lon":123.839634,"peak_lat":40.58413314819336,"base_elev":387,"distance_m":471.8,"vertical_relief_m":409.0,"max_jut":268.2663,"search_radius_m":1375,"elev_angle_deg":40.9218}},{"type":"Feature","geometry":{"type":"Point","coordinates":[123.04193005550142,40.50894383243515]},"properties":{"peak_name":"兄弟山800","peak_elev":800,"peak_lon":123.034654,"peak_lat":40.503554,"base_elev":389,"distance_m":859.4,"vertical_relief_m":411.0,"max_jut":177.4133,"search_radius_m":1500,"elev_angle_deg":25.559}},{"type":"Feature","geometry":{"type":"Point","coordinates":[124.05522969598825,40.40950033048312]},"properties":{"peak_name":"剑眼峰802","peak_elev":802,"peak_lon":124.064932,"peak_lat":40.404649,"base_elev":156,"distance_m":984.1,"vertical_relief_m":646.0,"max_jut":354.8291,"search_radius_m":2250,"elev_angle_deg":33.2824}},{"type":"Feature","geometry":{"type":"Point","coordinates":[123.4865961211406,40.8813853492311]},"properties":{"peak_name":"804无名峰","peak_elev":804,"peak_lon":123.487405,"peak_lat":40.885158,"base_elev":535,"distance_m":424.5,"vertical_relief_m":269.0,"max_jut":143.8714,"search_radius_m":500,"elev_angle_deg":32.3619}},{"type":"Feature","geometry":{"type":"Point","coordinates":[123.52513384682932,41.08269780440229]},"properties":{"peak_name":"娘娘宫805","peak_elev":800,"peak_lon":123.539956,"peak_lat":41.072861,"base_elev":230,"distance_m":1656.8,"vertical_relief_m":570.0,"max_jut":185.5783,"search_radius_m":2500,"elev_angle_deg":18.9851}},{"type":"Feature","geometry":{"type":"Point","coordinates":[123.60301778196248,40.64288264129737]},"properties":{"peak_name":"808无名峰","peak_elev":808,"peak_lon":123.616223,"peak_lat":40.64962005615234,"base_elev":306,"distance_m":1344.4,"vertical_relief_m":502.0,"max_jut":175.8202,"search_radius_m":2250,"elev_angle_deg":20.4757}},{"type":"Feature","geometry":{"type":"Point","coordinates":[124.08810803538702,41.24250809344715]},"properties":{"peak_name":"809无名峰(2)","peak_elev":809,"peak_lon":124.090668,"peak_lat":41.229842,"base_elev":268,"distance_m":1423.0,"vertical_relief_m":541.0,"max_jut":192.0669,"search_radius_m":2000,"elev_angle_deg":20.8159}},{"type":"Feature","geometry":{"type":"Point","coordinates":[124.40772861347676,41.34680249793343]},"properties":{"peak_name":"810无名峰","peak_elev":810,"peak_lon":124.404225,"peak_lat":41.343569,"base_elev":468,"distance_m":463.6,"vertical_relief_m":342.0,"max_jut":203.0593,"search_radius_m":500,"elev_angle_deg":36.4164}},{"type":"Feature","geometry":{"type":"Point","coordinates":[122.9529968423736,40.33916224373656]},"properties":{"peak_name":"811无名峰","peak_elev":811,"peak_lon":122.955422,"peak_lat":40.344552,"base_elev":505,"distance_m":633.0,"vertical_relief_m":306.0,"max_jut":133.081,"search_radius_m":750,"elev_angle_deg":25.7997}},{"type":"Feature","geometry":{"type":"Point","coordinates":[123.05594377393368,40.27879545664373]},"properties":{"peak_name":"凤凰砬子820","peak_elev":820,"peak_lon":123.064298,"peak_lat":40.270711,"base_elev":367,"distance_m":1144.9,"vertical_relief_m":453.0,"max_jut":166.6825,"search_radius_m":1250,"elev_angle_deg":21.5871}},{"type":"Feature","geometry":{"type":"Point","coordinates":[122.27333149840877,39.96267830816207]},"properties":{"peak_name":"老帽山848","peak_elev":821,"peak_lon":122.279799,"peak_lat":39.963217,"base_elev":504,"distance_m":555.8,"vertical_relief_m":317.0,"max_jut":157.3412,"search_radius_m":1625,"elev_angle_deg":29.6982}},{"type":"Feature","geometry":{"type":"Point","coordinates":[124.36972987695847,41.12662542179573]},"properties":{"peak_name":"822无名峰","peak_elev":822,"peak_lon":124.363532,"peak_lat":41.121775,"base_elev":439,"distance_m":749.0,"vertical_relief_m":383.0,"max_jut":174.4433,"search_radius_m":875,"elev_angle_deg":27.0829}},{"type":"Feature","geometry":{"type":"Point","coordinates":[124.21530947961834,41.36216368929187]},"properties":{"peak_name":"白砬子823","peak_elev":823,"peak_lon":124.223933,"peak_lat":41.370788,"base_elev":333,"distance_m":1199.2,"vertical_relief_m":490.0,"max_jut":185.3756,"search_radius_m":2750,"elev_angle_deg":22.2252}},{"type":"Feature","geometry":{"type":"Point","coordinates":[123.97411182583224,41.0482024974921]},"properties":{"peak_name":"824无名峰","peak_elev":824,"peak_lon":123.983275,"peak_lat":41.050628,"base_elev":402,"distance_m":816.1,"vertical_relief_m":422.0,"max_jut":194.163,"search_radius_m":1250,"elev_angle_deg":27.3432}},{"type":"Feature","geometry":{"type":"Point","coordinates":[122.32399648043312,40.11170881379749]},"properties":{"peak_name":"825无名峰","peak_elev":825,"peak_lon":122.3382797241211,"peak_lat":40.109553,"base_elev":355,"distance_m":1241.0,"vertical_relief_m":470.0,"max_jut":166.8013,"search_radius_m":3000,"elev_angle_deg":20.743}},{"type":"Feature","geometry":{"type":"Point","coordinates":[123.41571904522355,40.88488877883917]},"properties":{"peak_name":"826无名峰(2)","peak_elev":826,"peak_lon":123.403322,"peak_lat":40.887045,"base_elev":293,"distance_m":1071.9,"vertical_relief_m":533.0,"max_jut":237.7644,"search_radius_m":1500,"elev_angle_deg":26.4388}},{"type":"Feature","geometry":{"type":"Point","coordinates":[124.0517262663802,40.40222397668175]},"properties":{"peak_name":"凤凰山攒云峰836","peak_elev":833,"peak_lon":124.069243,"peak_lat":40.399261474609375,"base_elev":128,"distance_m":1523.0,"vertical_relief_m":705.0,"max_jut":296.7234,"search_radius_m":2500,"elev_angle_deg":24.8395}},{"type":"Feature","geometry":{"type":"Point","coordinates":[123.45102283588946,40.860903760753175]},"properties":{"peak_name":"835无名峰(1)","peak_elev":835,"peak_lon":123.44698333740234,"peak_lat":40.867641,"base_elev":417,"distance_m":822.0,"vertical_relief_m":418.0,"max_jut":189.3674,"search_radius_m":1000,"elev_angle_deg":26.9541}},{"type":"Feature","geometry":{"type":"Point","coordinates":[123.43431417160484,40.859556287827]},"properties":{"peak_name":"836无名峰","peak_elev":836,"peak_lon":123.442399,"peak_lat":40.867102,"base_elev":363,"distance_m":1080.2,"vertical_relief_m":473.0,"max_jut":189.7704,"search_radius_m":1250,"elev_angle_deg":23.6477}},{"type":"Feature","geometry":{"type":"Point","coordinates":[123.39550695133089,40.90806531316945]},"properties":{"peak_name":"838无名峰","peak_elev":838,"peak_lon":123.403996,"peak_lat":40.903753,"base_elev":395,"distance_m":860.8,"vertical_relief_m":443.0,"max_jut":202.9372,"search_radius_m":875,"elev_angle_deg":27.2321}},{"type":"Feature","geometry":{"type":"Point","coordinates":[123.07292193280357,40.26316477070005]},"properties":{"peak_name":"山墙花子841","peak_elev":841,"peak_lon":123.060795,"peak_lat":40.26518630981445,"base_elev":415,"distance_m":1055.7,"vertical_relief_m":426.0,"max_jut":159.7344,"search_radius_m":1750,"elev_angle_deg":21.9752}},{"type":"Feature","geometry":{"type":"Point","coordinates":[123.98246615797456,41.03930917617932]},"properties":{"peak_name":"842无名峰","peak_elev":842,"peak_lon":123.987856,"peak_lat":41.048202,"base_elev":375,"distance_m":1086.6,"vertical_relief_m":467.0,"max_jut":184.3072,"search_radius_m":1375,"elev_angle_deg":23.2571}},{"type":"Feature","geometry":{"type":"Point","coordinates":[124.41877789147142,41.33278877950116]},"properties":{"peak_name":"844无名峰(2)","peak_elev":844,"peak_lon":124.413119,"peak_lat":41.329016,"base_elev":485,"distance_m":632.4,"vertical_relief_m":359.0,"max_jut":177.3426,"search_radius_m":1500,"elev_angle_deg":29.5827}},{"type":"Feature","geometry":{"type":"Point","coordinates":[124.28537807177968,41.22768589125918]},"properties":{"peak_name":"847无名峰","peak_elev":847,"peak_lon":124.280797,"peak_lat":41.22526168823242,"base_elev":532,"distance_m":469.1,"vertical_relief_m":315.0,"max_jut":175.7716,"search_radius_m":1125,"elev_angle_deg":33.8813}},{"type":"Feature","geometry":{"type":"Point","coordinates":[123.39658492967182,40.65824383265581]},"properties":{"peak_name":"石花顶西顶848","peak_elev":848,"peak_lon":123.408443,"peak_lat":40.66551971435547,"base_elev":373,"distance_m":1287.8,"vertical_relief_m":475.0,"max_jut":164.5323,"search_radius_m":2250,"elev_angle_deg":20.2463}},{"type":"Feature","geometry":{"type":"Point","coordinates":[123.68036272792516,40.81832361628591]},"properties":{"peak_name":"849无名峰","peak_elev":849,"peak_lon":123.684675,"peak_lat":40.82344436645508,"base_elev":500,"distance_m":675.1,"vertical_relief_m":349.0,"max_jut":160.2532,"search_radius_m":750,"elev_angle_deg":27.3372}},{"type":"Feature","geometry":{"type":"Point","coordinates":[124.28753402846156,41.24008264218003]},"properties":{"peak_name":"853无名峰","peak_elev":853,"peak_lon":124.281336,"peak_lat":41.241026,"base_elev":521,"distance_m":530.0,"vertical_relief_m":332.0,"max_jut":176.547,"search_radius_m":1000,"elev_angle_deg":32.0637}},{"type":"Feature","geometry":{"type":"Point","coordinates":[124.307476627769,41.30233589136951]},"properties":{"peak_name":"855无名峰","peak_elev":855,"peak_lon":124.301817,"peak_lat":41.311767578125,"base_elev":351,"distance_m":1149.7,"vertical_relief_m":504.0,"max_jut":202.2539,"search_radius_m":1375,"elev_angle_deg":23.6715}},{"type":"Feature","geometry":{"type":"Point","coordinates":[124.42228132107948,41.29883246176144]},"properties":{"peak_name":"老光顶南顶856","peak_elev":856,"peak_lon":124.421473,"peak_lat":41.303414,"base_elev":468,"distance_m":513.3,"vertical_relief_m":388.0,"max_jut":233.7921,"search_radius_m":875,"elev_angle_deg":37.0854}},{"type":"Feature","geometry":{"type":"Point","coordinates":[122.8567872754444,40.14189220734391]},"properties":{"peak_name":"860无名峰","peak_elev":860,"peak_lon":122.85274505615234,"peak_lat":40.135694,"base_elev":425,"distance_m":769.6,"vertical_relief_m":435.0,"max_jut":213.9376,"search_radius_m":1875,"elev_angle_deg":29.4764}},{"type":"Feature","geometry":{"type":"Point","coordinates":[123.71782247527295,40.36584220767491]},"properties":{"peak_name":"大南岔子岗尖862","peak_elev":862,"peak_lon":123.715936,"peak_lat":40.357757,"base_elev":396,"distance_m":912.0,"vertical_relief_m":466.0,"max_jut":211.8249,"search_radius_m":4000,"elev_angle_deg":27.0654}},{"type":"Feature","geometry":{"type":"Point","coordinates":[123.50276579625476,40.9767864324046]},"properties":{"peak_name":"老砬子山863","peak_elev":863,"peak_lon":123.51139068603516,"peak_lat":40.986758,"base_elev":392,"distance_m":1324.1,"vertical_relief_m":471.0,"max_jut":157.8411,"search_radius_m":2750,"elev_angle_deg":19.5811}},{"type":"Feature","geometry":{"type":"Point","coordinates":[123.25536976700825,40.8242524971611]},"properties":{"peak_name":"图标黑山869","peak_elev":869,"peak_lon":123.252136,"peak_lat":40.818324,"base_elev":442,"distance_m":712.7,"vertical_relief_m":427.0,"max_jut":219.3474,"search_radius_m":1875,"elev_angle_deg":30.9271}},{"type":"Feature","geometry":{"type":"Point","coordinates":[122.97347843085151,40.257235889824855]},"properties":{"peak_name":"870无名峰","peak_elev":870,"peak_lon":122.964585,"peak_lat":40.246726,"base_elev":368,"distance_m":1390.8,"vertical_relief_m":502.0,"max_jut":170.3873,"search_radius_m":2250,"elev_angle_deg":19.8467}},{"type":"Feature","geometry":{"type":"Point","coordinates":[123.42164792609876,40.892165132640535]},"properties":{"peak_name":"元帅岭871","peak_elev":871,"peak_lon":123.406556,"peak_lat":40.894052,"base_elev":272,"distance_m":1289.0,"vertical_relief_m":599.0,"max_jut":252.951,"search_radius_m":1750,"elev_angle_deg":24.9244}},{"type":"Feature","geometry":{"type":"Point","coordinates":[123.73129720453475,40.834223796814825]},"properties":{"peak_name":"四花顶873","peak_elev":873,"peak_lon":123.726581,"peak_lat":40.829103,"base_elev":458,"distance_m":694.0,"vertical_relief_m":415.0,"max_jut":212.98,"search_radius_m":1375,"elev_angle_deg":30.8787}},{"type":"Feature","geometry":{"type":"Point","coordinates":[123.24324251067262,40.8242524971611]},"properties":{"peak_name":"黑山主峰874","peak_elev":874,"peak_lon":123.24176025390624,"peak_lat":40.819132,"base_elev":511,"distance_m":582.2,"vertical_relief_m":363.0,"max_jut":191.8962,"search_radius_m":2250,"elev_angle_deg":31.9434}},{"type":"Feature","geometry":{"type":"Point","coordinates":[123.86631399173793,41.064102678021015]},"properties":{"peak_name":"877无名峰","peak_elev":877,"peak_lon":123.865101,"peak_lat":41.06733703613281,"base_elev":597,"distance_m":373.4,"vertical_relief_m":280.0,"max_jut":167.8817,"search_radius_m":1125,"elev_angle_deg":36.865}},{"type":"Feature","geometry":{"type":"Point","coordinates":[123.0785813190935,40.30628390433778]},"properties":{"peak_name":"大顶子山881","peak_elev":881,"peak_lon":123.08477783203124,"peak_lat":40.286072,"base_elev":182,"distance_m":2305.4,"vertical_relief_m":699.0,"max_jut":202.6023,"search_radius_m":3000,"elev_angle_deg":16.8674}},{"type":"Feature","geometry":{"type":"Point","coordinates":[123.65098781813448,40.53697126929968]},"properties":{"peak_name":"清凉山主峰883","peak_elev":883,"peak_lon":123.664463,"peak_lat":40.53993606567383,"base_elev":400,"distance_m":1188.1,"vertical_relief_m":483.0,"max_jut":182.2464,"search_radius_m":2000,"elev_angle_deg":22.1233}},{"type":"Feature","geometry":{"type":"Point","coordinates":[122.99045658972138,40.20899635906764]},"properties":{"peak_name":"老土顶北峰885","peak_elev":885,"peak_lon":122.990996,"peak_lat":40.202528,"base_elev":478,"distance_m":719.7,"vertical_relief_m":407.0,"max_jut":200.1348,"search_radius_m":750,"elev_angle_deg":29.4887}},{"type":"Feature","geometry":{"type":"Point","coordinates":[122.7966899829368,40.11090033004179]},"properties":{"peak_name":"887无名峰(1)","peak_elev":887,"peak_lon":122.793097,"peak_lat":40.101827,"base_elev":419,"distance_m":1053.0,"vertical_relief_m":468.0,"max_jut":189.8959,"search_radius_m":1125,"elev_angle_deg":23.9625}},{"type":"Feature","geometry":{"type":"Point","coordinates":[124.09673186211457,41.030685349451765]},"properties":{"peak_name":"王克砬子888","peak_elev":888,"peak_lon":124.092689,"peak_lat":41.035536,"base_elev":477,"distance_m":637.0,"vertical_relief_m":411.0,"max_jut":222.8007,"search_radius_m":1750,"elev_angle_deg":32.8306}},{"type":"Feature","geometry":{"type":"Point","coordinates":[123.9458148943825,41.198041486883234]},"properties":{"peak_name":"天桥890","peak_elev":890,"peak_lon":123.955517,"peak_lat":41.202353,"base_elev":485,"distance_m":944.2,"vertical_relief_m":405.0,"max_jut":159.8654,"search_radius_m":1125,"elev_angle_deg":23.2162}},{"type":"Feature","geometry":{"type":"Point","coordinates":[124.32068186244555,41.041195638275966]},"properties":{"peak_name":"892无名峰","peak_elev":892,"peak_lon":124.312867,"peak_lat":41.047125,"base_elev":429,"distance_m":930.2,"vertical_relief_m":463.0,"max_jut":206.415,"search_radius_m":1000,"elev_angle_deg":26.4615}},{"type":"Feature","geometry":{"type":"Point","coordinates":[123.77468583275773,40.41947163013684]},"properties":{"peak_name":"城墙望893","peak_elev":893,"peak_lon":123.766062,"peak_lat":40.428095,"base_elev":235,"distance_m":1205.2,"vertical_relief_m":658.0,"max_jut":315.3324,"search_radius_m":1625,"elev_angle_deg":28.6331}},{"type":"Feature","geometry":{"type":"Point","coordinates":[124.41392698893718,41.34087361705824]},"properties":{"peak_name":"895无名峰","peak_elev":895,"peak_lon":124.405303,"peak_lat":41.335753,"base_elev":460,"distance_m":919.0,"vertical_relief_m":435.0,"max_jut":186.2806,"search_radius_m":1750,"elev_angle_deg":25.3301}},{"type":"Feature","geometry":{"type":"Point","coordinates":[123.92156038171126,41.08754870693653]},"properties":{"peak_name":"898无名峰","peak_elev":898,"peak_lon":123.925603,"peak_lat":41.09024429321289,"base_elev":622,"distance_m":452.8,"vertical_relief_m":276.0,"max_jut":143.7547,"search_radius_m":750,"elev_angle_deg":31.364}},{"type":"Feature","geometry":{"type":"Point","coordinates":[122.82336994687516,40.06104383177316]},"properties":{"peak_name":"903无名峰","peak_elev":903,"peak_lon":122.826873,"peak_lat":40.05242156982422,"base_elev":387,"distance_m":1003.0,"vertical_relief_m":516.0,"max_jut":235.8593,"search_radius_m":1500,"elev_angle_deg":27.2239}},{"type":"Feature","geometry":{"type":"Point","coordinates":[123.69814937055074,40.892165132640535]},"properties":{"peak_name":"906无名峰","peak_elev":906,"peak_lon":123.686292,"peak_lat":40.892435,"base_elev":458,"distance_m":999.7,"vertical_relief_m":448.0,"max_jut":183.5999,"search_radius_m":2000,"elev_angle_deg":24.1388}},{"type":"Feature","geometry":{"type":"Point","coordinates":[124.32041236786031,41.30341386971045]},"properties":{"peak_name":"铁刹山908","peak_elev":908,"peak_lon":124.330384,"peak_lat":41.29290390014648,"base_elev":309,"distance_m":1435.3,"vertical_relief_m":599.0,"max_jut":230.7131,"search_radius_m":1625,"elev_angle_deg":22.6525}},{"type":"Feature","geometry":{"type":"Point","coordinates":[122.78887463996496,40.14755159363386]},"properties":{"peak_name":"天古山909","peak_elev":909,"peak_lon":122.796151,"peak_lat":40.14054489135742,"base_elev":384,"distance_m":994.9,"vertical_relief_m":525.0,"max_jut":245.0402,"search_radius_m":2500,"elev_angle_deg":27.8202}},{"type":"Feature","geometry":{"type":"Point","coordinates":[122.77378294319176,40.073171088108765]},"properties":{"peak_name":"910无名峰","peak_elev":910,"peak_lon":122.776882,"peak_lat":40.087724,"base_elev":289,"distance_m":1637.4,"vertical_relief_m":621.0,"max_jut":219.9626,"search_radius_m":2000,"elev_angle_deg":20.7697}},{"type":"Feature","geometry":{"type":"Point","coordinates":[123.9541692265248,40.99753751546776]},"properties":{"peak_name":"911无名峰","peak_elev":911,"peak_lon":123.947971,"peak_lat":40.98864364624024,"base_elev":404,"distance_m":1116.9,"vertical_relief_m":507.0,"max_jut":209.4798,"search_radius_m":1500,"elev_angle_deg":24.415}},{"type":"Feature","geometry":{"type":"Point","coordinates":[122.81986651726707,40.19902505941391]},"properties":{"peak_name":"北砬子914","peak_elev":914,"peak_lon":122.833476,"peak_lat":40.197947,"base_elev":354,"distance_m":1165.0,"vertical_relief_m":560.0,"max_jut":243.104,"search_radius_m":1625,"elev_angle_deg":25.673}},{"type":"Feature","geometry":{"type":"Point","coordinates":[123.55612572413143,40.8746479846002]},"properties":{"peak_name":"915无名峰","peak_elev":915,"peak_lon":123.55397033691406,"peak_lat":40.877612,"base_elev":630,"distance_m":376.0,"vertical_relief_m":285.0,"max_jut":172.1235,"search_radius_m":625,"elev_angle_deg":37.1614}},{"type":"Feature","geometry":{"type":"Point","coordinates":[123.97303384749132,41.01262921224097]},"properties":{"peak_name":"916无名峰(1)","peak_elev":916,"peak_lon":123.978828,"peak_lat":41.01559448242188,"base_elev":499,"distance_m":588.2,"vertical_relief_m":417.0,"max_jut":241.3896,"search_radius_m":2000,"elev_angle_deg":35.3344}},{"type":"Feature","geometry":{"type":"Point","coordinates":[124.23309612224392,41.311768201852765]},"properties":{"peak_name":"917无名峰","peak_elev":917,"peak_lon":124.237139,"peak_lat":41.29991149902344,"base_elev":375,"distance_m":1359.6,"vertical_relief_m":542.0,"max_jut":200.5312,"search_radius_m":1500,"elev_angle_deg":21.7345}},{"type":"Feature","geometry":{"type":"Point","coordinates":[122.85463131876251,40.14889906656004]},"properties":{"peak_name":"猫岭918","peak_elev":918,"peak_lon":122.846187,"peak_lat":40.14153289794922,"base_elev":353,"distance_m":1089.4,"vertical_relief_m":565.0,"max_jut":260.1826,"search_radius_m":1250,"elev_angle_deg":27.4128}},{"type":"Feature","geometry":{"type":"Point","coordinates":[123.71297157273872,40.83584076432624]},"properties":{"peak_name":"四花山919","peak_elev":919,"peak_lon":123.716206,"peak_lat":40.828295,"base_elev":479,"distance_m":881.3,"vertical_relief_m":440.0,"max_jut":196.4025,"search_radius_m":1375,"elev_angle_deg":26.5312}},{"type":"Feature","geometry":{"type":"Point","coordinates":[124.11856092351869,41.41255917673097]},"properties":{"peak_name":"西大山921","peak_elev":921,"peak_lon":124.103469,"peak_lat":41.414041,"base_elev":439,"distance_m":1272.5,"vertical_relief_m":482.0,"max_jut":171.1156,"search_radius_m":2250,"elev_angle_deg":20.7458}},{"type":"Feature","geometry":{"type":"Point","coordinates":[124.33119215126976,41.11638462755677]},"properties":{"peak_name":"923无名峰(1)","peak_elev":923,"peak_lon":124.340759,"peak_lat":41.117732,"base_elev":433,"distance_m":817.3,"vertical_relief_m":490.0,"max_jut":252.4141,"search_radius_m":1250,"elev_angle_deg":30.9442}},{"type":"Feature","geometry":{"type":"Point","coordinates":[124.36892139320278,41.3481499708596]},"properties":{"peak_name":"924无名峰","peak_elev":924,"peak_lon":124.372425,"peak_lat":41.334406,"base_elev":320,"distance_m":1554.3,"vertical_relief_m":604.0,"max_jut":218.5677,"search_radius_m":4000,"elev_angle_deg":21.2361}},{"type":"Feature","geometry":{"type":"Point","coordinates":[124.29777482270052,41.04173462744644]},"properties":{"peak_name":"925无名峰(2)","peak_elev":925,"peak_lon":124.30046844482422,"peak_lat":41.0352668762207,"base_elev":456,"distance_m":753.1,"vertical_relief_m":469.0,"max_jut":247.7538,"search_radius_m":1125,"elev_angle_deg":31.913}},{"type":"Feature","geometry":{"type":"Point","coordinates":[124.26462698871651,41.19265159517852]},"properties":{"peak_name":"927无名峰","peak_elev":927,"peak_lon":124.262202,"peak_lat":41.193458557128906,"base_elev":738,"distance_m":222.3,"vertical_relief_m":189.0,"max_jut":122.5628,"search_radius_m":375,"elev_angle_deg":40.3713}},{"type":"Feature","geometry":{"type":"Point","coordinates":[124.48264810817231,40.70863932009492]},"properties":{"peak_name":"928无名峰(2)","peak_elev":928,"peak_lon":124.472138,"peak_lat":40.711873,"base_elev":431,"distance_m":958.0,"vertical_relief_m":497.0,"max_jut":229.2402,"search_radius_m":1750,"elev_angle_deg":27.4198}},{"type":"Feature","geometry":{"type":"Point","coordinates":[124.40233872177204,41.34841946544484]},"properties":{"peak_name":"柜子石929","peak_elev":929,"peak_lon":124.394793,"peak_lat":41.342086,"base_elev":464,"distance_m":945.3,"vertical_relief_m":465.0,"max_jut":205.3229,"search_radius_m":2000,"elev_angle_deg":26.1929}},{"type":"Feature","geometry":{"type":"Point","coordinates":[124.09430641084744,41.07649942894186]},"properties":{"peak_name":"鸡冠砬子930","peak_elev":930,"peak_lon":124.087569,"peak_lat":41.072457,"base_elev":556,"distance_m":722.6,"vertical_relief_m":374.0,"max_jut":172.058,"search_radius_m":750,"elev_angle_deg":27.365}},{"type":"Feature","geometry":{"type":"Point","coordinates":[124.32202933537177,41.19938895980941]},"properties":{"peak_name":"骆驼脖子931","peak_elev":931,"peak_lon":124.33226776123048,"peak_lat":41.200197,"base_elev":435,"distance_m":863.5,"vertical_relief_m":496.0,"max_jut":247.5256,"search_radius_m":1500,"elev_angle_deg":29.8733}},{"type":"Feature","geometry":{"type":"Point","coordinates":[124.0848741003642,41.376177407724136]},"properties":{"peak_name":"鹞鹰头933","peak_elev":933,"peak_lon":124.098753,"peak_lat":41.384397,"base_elev":391,"distance_m":1476.9,"vertical_relief_m":542.0,"max_jut":186.9235,"search_radius_m":1625,"elev_angle_deg":20.1524}},{"type":"Feature","geometry":{"type":"Point","coordinates":[122.74575550632724,40.28580231585986]},"properties":{"peak_name":"941无名峰","peak_elev":941,"peak_lon":122.755996,"peak_lat":40.29523468017578,"base_elev":500,"distance_m":1362.1,"vertical_relief_m":441.0,"max_jut":135.8703,"search_radius_m":2500,"elev_angle_deg":17.9401}},{"type":"Feature","geometry":{"type":"Point","coordinates":[124.37269431739608,41.34599401417772]},"properties":{"peak_name":"942无名峰","peak_elev":942,"peak_lon":124.379432,"peak_lat":41.335753,"base_elev":381,"distance_m":1269.5,"vertical_relief_m":561.0,"max_jut":226.6635,"search_radius_m":4500,"elev_angle_deg":23.8409}},{"type":"Feature","geometry":{"type":"Point","coordinates":[123.88248366685208,41.164624158313984]},"properties":{"peak_name":"威连山西顶943","peak_elev":943,"peak_lon":123.89757537841795,"peak_lat":41.174865,"base_elev":301,"distance_m":1702.2,"vertical_relief_m":642.0,"max_jut":226.739,"search_radius_m":2250,"elev_angle_deg":20.6644}},{"type":"Feature","geometry":{"type":"Point","coordinates":[124.37215532822562,41.34680249793343]},"properties":{"peak_name":"949无名峰","peak_elev":949,"peak_lon":124.386439,"peak_lat":41.34168243408203,"base_elev":362,"distance_m":1323.8,"vertical_relief_m":587.0,"max_jut":238.3072,"search_radius_m":4500,"elev_angle_deg":23.9135}},{"type":"Feature","geometry":{"type":"Point","coordinates":[123.8886820423125,41.16112072870592]},"properties":{"peak_name":"威连山950","peak_elev":950,"peak_lon":123.903235,"peak_lat":41.173248,"base_elev":313,"distance_m":1818.1,"vertical_relief_m":637.0,"max_jut":210.7249,"search_radius_m":2500,"elev_angle_deg":19.3087}},{"type":"Feature","geometry":{"type":"Point","coordinates":[122.85058889998398,40.18770628683401]},"properties":{"peak_name":"东砬子951","peak_elev":951,"peak_lon":122.858404,"peak_lat":40.186089,"base_elev":396,"distance_m":689.3,"vertical_relief_m":555.0,"max_jut":348.5252,"search_radius_m":1250,"elev_angle_deg":38.8398}},{"type":"Feature","geometry":{"type":"Point","coordinates":[123.72240388322196,40.57308354372128]},"properties":{"peak_name":"大疗坡岭953","peak_elev":953,"peak_lon":123.736148,"peak_lat":40.576048,"base_elev":465,"distance_m":1209.4,"vertical_relief_m":488.0,"max_jut":182.9584,"search_radius_m":2250,"elev_angle_deg":21.9744}},{"type":"Feature","geometry":{"type":"Point","coordinates":[123.80729467757126,41.23954365300956]},"properties":{"peak_name":"老母岭954","peak_elev":954,"peak_lon":123.826698,"peak_lat":41.239274,"base_elev":382,"distance_m":1626.9,"vertical_relief_m":572.0,"max_jut":190.1634,"search_radius_m":3000,"elev_angle_deg":19.3711}},{"type":"Feature","geometry":{"type":"Point","coordinates":[124.17380731349202,41.1271644109662]},"properties":{"peak_name":"955无名峰","peak_elev":955,"peak_lon":124.186474,"peak_lat":41.13039779663086,"base_elev":381,"distance_m":1122.6,"vertical_relief_m":574.0,"max_jut":261.7685,"search_radius_m":1375,"elev_angle_deg":27.0813}},{"type":"Feature","geometry":{"type":"Point","coordinates":[124.34790081555438,41.2015449164913]},"properties":{"peak_name":"956无名峰","peak_elev":956,"peak_lon":124.361376,"peak_lat":41.197233,"base_elev":408,"distance_m":1227.6,"vertical_relief_m":548.0,"max_jut":223.7513,"search_radius_m":1625,"elev_angle_deg":24.056}},{"type":"Feature","geometry":{"type":"Point","coordinates":[124.15143926291744,41.35138390588244]},"properties":{"peak_name":"对面洞山957","peak_elev":957,"peak_lon":124.137291,"peak_lat":41.352731,"base_elev":371,"distance_m":1193.4,"vertical_relief_m":586.0,"max_jut":258.8105,"search_radius_m":3000,"elev_angle_deg":26.1526}},{"type":"Feature","geometry":{"type":"Point","coordinates":[124.35356020184436,41.31230719102324]},"properties":{"peak_name":"云台卷舒山958","peak_elev":958,"peak_lon":124.375794,"peak_lat":41.320662,"base_elev":256,"distance_m":2080.1,"vertical_relief_m":702.0,"max_jut":224.8538,"search_radius_m":2750,"elev_angle_deg":18.6487}},{"type":"Feature","geometry":{"type":"Point","coordinates":[123.62727229463373,40.974899970307945]},"properties":{"peak_name":"摩天岭959","peak_elev":959,"peak_lon":123.642364,"peak_lat":40.963042,"base_elev":423,"distance_m":1829.7,"vertical_relief_m":536.0,"max_jut":150.7567,"search_radius_m":2000,"elev_angle_deg":16.3276}},{"type":"Feature","geometry":{"type":"Point","coordinates":[124.46324449803534,41.05386188378205]},"properties":{"peak_name":"974无名峰","peak_elev":974,"peak_lon":124.466209,"peak_lat":41.059791,"base_elev":530,"distance_m":704.0,"vertical_relief_m":444.0,"max_jut":236.7113,"search_radius_m":750,"elev_angle_deg":32.2389}},{"type":"Feature","geometry":{"type":"Point","coordinates":[123.95443872111004,40.96385069231327]},"properties":{"peak_name":"北大砬子北峰975","peak_elev":975,"peak_lon":123.95928955078124,"peak_lat":40.973822,"base_elev":431,"distance_m":1180.2,"vertical_relief_m":544.0,"max_jut":227.5671,"search_radius_m":2250,"elev_angle_deg":24.7468}},{"type":"Feature","geometry":{"type":"Point","coordinates":[124.23282662765868,41.03930917617932]},"properties":{"peak_name":"红石砬子978","peak_elev":978,"peak_lon":124.226089,"peak_lat":41.03944396972656,"base_elev":516,"distance_m":566.7,"vertical_relief_m":462.0,"max_jut":292.3652,"search_radius_m":1625,"elev_angle_deg":39.1885}},{"type":"Feature","geometry":{"type":"Point","coordinates":[123.9706083962242,40.95899978977903]},"properties":{"peak_name":"北大砬子980","peak_elev":980,"peak_lon":123.962793,"peak_lat":40.96977996826172,"base_elev":322,"distance_m":1366.0,"vertical_relief_m":658.0,"max_jut":285.4629,"search_radius_m":1625,"elev_angle_deg":25.72}},{"type":"Feature","geometry":{"type":"Point","coordinates":[124.41473547269288,41.063833183435776]},"properties":{"peak_name":"984无名峰","peak_elev":984,"peak_lon":124.40718841552734,"peak_lat":41.071918,"base_elev":465,"distance_m":1099.3,"vertical_relief_m":519.0,"max_jut":221.5782,"search_radius_m":1625,"elev_angle_deg":25.2729}},{"type":"Feature","geometry":{"type":"Point","coordinates":[124.48561254860992,41.04038715452025]},"properties":{"peak_name":"985无名峰","peak_elev":985,"peak_lon":124.47078704833984,"peak_lat":41.041465,"base_elev":442,"distance_m":1252.3,"vertical_relief_m":543.0,"max_jut":216.4742,"search_radius_m":1625,"elev_angle_deg":23.4417}},{"type":"Feature","geometry":{"type":"Point","coordinates":[124.24225893814192,41.30664780473328]},"properties":{"peak_name":"986无名峰","peak_elev":986,"peak_lon":124.251152,"peak_lat":41.300449,"base_elev":519,"distance_m":1014.2,"vertical_relief_m":467.0,"max_jut":195.4498,"search_radius_m":2500,"elev_angle_deg":24.7242}},{"type":"Feature","geometry":{"type":"Point","coordinates":[122.916884567952,40.32999942783854]},"properties":{"peak_name":"991无名峰","peak_elev":991,"peak_lon":122.916615,"peak_lat":40.337005615234375,"base_elev":607,"distance_m":778.3,"vertical_relief_m":384.0,"max_jut":169.7139,"search_radius_m":2250,"elev_angle_deg":26.2609}},{"type":"Feature","geometry":{"type":"Point","coordinates":[122.88616218523512,40.24430014973353]},"properties":{"peak_name":"992无名峰","peak_elev":992,"peak_lon":122.879964,"peak_lat":40.23567581176758,"base_elev":518,"distance_m":1093.3,"vertical_relief_m":474.0,"max_jut":188.4681,"search_radius_m":1125,"elev_angle_deg":23.4391}},{"type":"Feature","geometry":{"type":"Point","coordinates":[124.2818746421716,41.05035845417398]},"properties":{"peak_name":"烟囱顶997","peak_elev":997,"peak_lon":124.29508209228516,"peak_lat":41.051436,"base_elev":432,"distance_m":1116.8,"vertical_relief_m":565.0,"max_jut":255.5729,"search_radius_m":1125,"elev_angle_deg":26.8353}},{"type":"Feature","geometry":{"type":"Point","coordinates":[123.1844926910912,40.69705105292977]},"properties":{"peak_name":"上寺山940","peak_elev":935,"peak_lon":123.174656,"peak_lat":40.70298004150391,"base_elev":545,"distance_m":1060.5,"vertical_relief_m":390.0,"max_jut":134.738,"search_radius_m":2250,"elev_angle_deg":20.1911}},{"type":"Feature","geometry":{"type":"Point","coordinates":[123.96737446120136,41.05413137836729]},"properties":{"peak_name":"色树排1178","peak_elev":1165,"peak_lon":123.939078,"peak_lat":41.070571,"base_elev":442,"distance_m":2998.4,"vertical_relief_m":723.0,"max_jut":169.6748,"search_radius_m":4250,"elev_angle_deg":13.5569}},{"type":"Feature","geometry":{"type":"Point","coordinates":[123.9894730171907,40.869527587480725]},"properties":{"peak_name":"弟兄山760","peak_elev":752,"peak_lon":123.983814,"peak_lat":40.865485,"base_elev":394,"distance_m":655.1,"vertical_relief_m":358.0,"max_jut":171.776,"search_radius_m":750,"elev_angle_deg":28.6558}},{"type":"Feature","geometry":{"type":"Point","coordinates":[124.2969663389448,41.10398787663592]},"properties":{"peak_name":"和尚帽子1234","peak_elev":1229,"peak_lon":124.279584,"peak_lat":41.101832,"base_elev":567,"distance_m":1479.7,"vertical_relief_m":662.0,"max_jut":270.9027,"search_radius_m":2750,"elev_angle_deg":24.1032}},{"type":"Feature","geometry":{"type":"Point","coordinates":[122.21970207594684,40.01711621437971]},"properties":{"peak_name":"和尚帽山879","peak_elev":872,"peak_lon":122.229673,"peak_lat":40.023854,"base_elev":365,"distance_m":1133.2,"vertical_relief_m":507.0,"max_jut":207.189,"search_radius_m":1750,"elev_angle_deg":24.104}},{"type":"Feature","geometry":{"type":"Point","coordinates":[123.06483709524647,40.57604798415888]},"properties":{"peak_name":"唐帽山816","peak_elev":863,"peak_lon":123.06887817382812,"peak_lat":40.56041717529297,"base_elev":325,"distance_m":1769.2,"vertical_relief_m":538.0,"max_jut":156.3567,"search_radius_m":2250,"elev_angle_deg":16.9141}},{"type":"Feature","geometry":{"type":"Point","coordinates":[123.22868980306988,40.60111098058581]},"properties":{"peak_name":"四方顶960","peak_elev":972,"peak_lon":123.210364,"peak_lat":40.603536,"base_elev":407,"distance_m":1574.3,"vertical_relief_m":565.0,"max_jut":191.2695,"search_radius_m":2750,"elev_angle_deg":19.7425}},{"type":"Feature","geometry":{"type":"Point","coordinates":[121.79363113668894,39.09436675453214]},"properties":{"peak_name":"大黑山663","peak_elev":653,"peak_lon":121.786759,"peak_lat":39.094771,"base_elev":279,"distance_m":596.2,"vertical_relief_m":374.0,"max_jut":199.0901,"search_radius_m":1625,"elev_angle_deg":32.1003}},{"type":"Feature","geometry":{"type":"Point","coordinates":[123.67739828748758,40.309517839360616]},"properties":{"peak_name":"大白砬子640","peak_elev":635,"peak_lon":123.670661,"peak_lat":40.29766082763672,"base_elev":150,"distance_m":1435.8,"vertical_relief_m":485.0,"max_jut":155.1036,"search_radius_m":1750,"elev_angle_deg":18.6645}},{"type":"Feature","geometry":{"type":"Point","coordinates":[123.5655580346147,40.87599545752639]},"properties":{"peak_name":"大黑山1181.2","peak_elev":1180,"peak_lon":123.543459,"peak_lat":40.87141418457031,"base_elev":466,"distance_m":1931.1,"vertical_relief_m":714.0,"max_jut":248.1042,"search_radius_m":3000,"elev_angle_deg":20.2912}},{"type":"Feature","geometry":{"type":"Point","coordinates":[121.8992730141014,39.31157939023224]},"properties":{"peak_name":"小黑山469","peak_elev":459,"peak_lon":121.896309,"peak_lat":39.314005,"base_elev":228,"distance_m":371.3,"vertical_relief_m":231.0,"max_jut":122.0563,"search_radius_m":1250,"elev_angle_deg":31.8873}},{"type":"Feature","geometry":{"type":"Point","coordinates":[123.72429034531862,40.54855953646482]},"properties":{"peak_name":"帽盔山1141","peak_elev":1133,"peak_lon":123.733453,"peak_lat":40.544248,"base_elev":550,"distance_m":912.0,"vertical_relief_m":583.0,"max_jut":314.3414,"search_radius_m":1625,"elev_angle_deg":32.5889}},{"type":"Feature","geometry":{"type":"Point","coordinates":[122.62367445921538,39.91389978823437]},"properties":{"peak_name":"桂云花山751","peak_elev":749,"peak_lon":122.629603,"peak_lat":39.901503,"base_elev":177,"distance_m":1466.8,"vertical_relief_m":572.0,"max_jut":207.6327,"search_radius_m":2750,"elev_angle_deg":21.304}},{"type":"Feature","geometry":{"type":"Point","coordinates":[122.7034448564452,40.093922171171926]},"properties":{"peak_name":"步云山1130.7","peak_elev":1127,"peak_lon":122.723657,"peak_lat":40.085298,"base_elev":304,"distance_m":1971.9,"vertical_relief_m":823.0,"max_jut":317.4077,"search_radius_m":3500,"elev_angle_deg":22.6539}},{"type":"Feature","geometry":{"type":"Point","coordinates":[122.7155721127808,40.32083661194052]},"properties":{"peak_name":"绵羊顶子山1046","peak_elev":1044,"peak_lon":122.700885,"peak_lat":40.30655288696289,"base_elev":455,"distance_m":2018.5,"vertical_relief_m":589.0,"max_jut":165.0021,"search_radius_m":3000,"elev_angle_deg":16.2673}},{"type":"Feature","geometry":{"type":"Point","coordinates":[123.72509882907433,40.433215853983874]},"properties":{"peak_name":"老平顶907","peak_elev":905,"peak_lon":123.730219,"peak_lat":40.416507,"base_elev":300,"distance_m":1905.6,"vertical_relief_m":605.0,"max_jut":182.8786,"search_radius_m":2750,"elev_angle_deg":17.6139}},{"type":"Feature","geometry":{"type":"Point","coordinates":[122.91176417083253,40.399798525414624]},"properties":{"peak_name":"老轿顶1033","peak_elev":1031,"peak_lon":122.927664,"peak_lat":40.382551,"base_elev":430,"distance_m":2343.2,"vertical_relief_m":601.0,"max_jut":149.3001,"search_radius_m":3000,"elev_angle_deg":14.3855}},{"type":"Feature","geometry":{"type":"Point","coordinates":[122.88265875562703,40.04137072705094]},"properties":{"peak_name":"老黑山1075","peak_elev":1048,"peak_lon":122.877538,"peak_lat":40.053767,"base_elev":377,"distance_m":1444.1,"vertical_relief_m":671.0,"max_jut":282.4955,"search_radius_m":2250,"elev_angle_deg":24.9219}},{"type":"Feature","geometry":{"type":"Point","coordinates":[122.66355965783028,40.10712740584849]},"properties":{"peak_name":"赤山891","peak_elev":888,"peak_lon":122.645504,"peak_lat":40.102277,"base_elev":163,"distance_m":1631.0,"vertical_relief_m":725.0,"max_jut":294.996,"search_radius_m":2000,"elev_angle_deg":23.9657}},{"type":"Feature","geometry":{"type":"Point","coordinates":[122.03186435003744,39.81661224296423]},"properties":{"peak_name":"阴凉顶子556","peak_elev":547,"peak_lon":122.030517,"peak_lat":39.822811,"base_elev":216,"distance_m":697.9,"vertical_relief_m":331.0,"max_jut":141.6915,"search_radius_m":1500,"elev_angle_deg":25.374}},{"type":"Feature","geometry":{"type":"Point","coordinates":[122.19410009034942,40.01145682808976]},"properties":{"peak_name":"高丽城741","peak_elev":739,"peak_lon":122.192214,"peak_lat":39.996904,"base_elev":237,"distance_m":1623.9,"vertical_relief_m":502.0,"max_jut":148.074,"search_radius_m":3750,"elev_angle_deg":17.1781}}]}